<?xml version="1.0"?>
<gpx xmlns="http://www.topografix.com/GPX/1/1" xmlns:xsi="http://www.w3.org/2001/XMLSchema-instance" creator="geoPHP" version="1.1" xsi:schemaLocation="http://www.topografix.com/GPX/1/1 http://www.topografix.com/GPX/1/1/gpx.xsd"><trk><trkseg><trkpt lat="52.221426854785" lon="5.1215436441803"/><trkpt lat="52.222890421631" lon="5.1173372199289"/><trkpt lat="52.22427" lon="5.11351"/><trkpt lat="52.22479657211" lon="5.1123938478852"/><trkpt lat="52.224864828528" lon="5.1122306667289"/><trkpt lat="52.22498" lon="5.1122"/><trkpt lat="52.22515" lon="5.11182"/><trkpt lat="52.225923712236" lon="5.1096578134918"/><trkpt lat="52.226102575363" lon="5.1091521865081"/><trkpt lat="52.226" lon="5.10898"/><trkpt lat="52.225626856028" lon="5.108719271164"/><trkpt lat="52.2258" lon="5.10817"/><trkpt lat="52.22793" lon="5.10225"/><trkpt lat="52.22807" lon="5.10166"/><trkpt lat="52.2283" lon="5.10139"/><trkpt lat="52.228368288618" lon="5.1012499999999"/><trkpt lat="52.2284" lon="5.1011100000001"/><trkpt lat="52.229549142697" lon="5.0980465595245"/><trkpt lat="52.229648898778" lon="5.0979505144114"/><trkpt lat="52.229801713413" lon="5.097638338623"/><trkpt lat="52.23006" lon="5.0969299999999"/><trkpt lat="52.230888948472" lon="5.0946338790086"/><trkpt lat="52.230995998369" lon="5.0945129153442"/><trkpt lat="52.23001" lon="5.09248"/><trkpt lat="52.22845" lon="5.08952"/><trkpt lat="52.227671424845" lon="5.0877754232788"/><trkpt lat="52.22682" lon="5.08725"/><trkpt lat="52.22561" lon="5.08602"/><trkpt lat="52.225593712041" lon="5.0857000000001"/><trkpt lat="52.22533" lon="5.08533"/><trkpt lat="52.225132554733" lon="5.0851378134919"/><trkpt lat="52.225323427969" lon="5.0847856269836"/><trkpt lat="52.225707140137" lon="5.0841165595245"/><trkpt lat="52.225831155261" lon="5.0838594748687"/><trkpt lat="52.225179432336" lon="5.0827256269836"/><trkpt lat="52.22407" lon="5.08062"/><trkpt lat="52.223362861622" lon="5.0793970846557"/><trkpt lat="52.222312579851" lon="5.0773956269836"/><trkpt lat="52.221416008295" lon="5.07569"/><trkpt lat="52.221025444766" lon="5.0750378134918"/><trkpt lat="52.21972" lon="5.07271"/><trkpt lat="52.21888" lon="5.0711732367706"/><trkpt lat="52.218262023172" lon="5.0700856269837"/><trkpt lat="52.218036573111" lon="5.0696978134918"/><trkpt lat="52.217746793998" lon="5.069123558197"/><trkpt lat="52.217285732263" lon="5.0683812539673"/><trkpt lat="52.21676" lon="5.06753"/><trkpt lat="52.21673" lon="5.0676885423279"/><trkpt lat="52.21664" lon="5.06814"/><trkpt lat="52.215477132567" lon="5.0720165595245"/><trkpt lat="52.21512" lon="5.0737300000001"/><trkpt lat="52.21513" lon="5.0743600000001"/><trkpt lat="52.21521" lon="5.07466"/><trkpt lat="52.21515" lon="5.07592"/><trkpt lat="52.215297132434" lon="5.08209"/><trkpt lat="52.215406335658" lon="5.0894540711236"/><trkpt lat="52.21543" lon="5.09317"/><trkpt lat="52.21557" lon="5.09735"/><trkpt lat="52.21574" lon="5.10766"/><trkpt lat="52.215742587629" lon="5.109040728836"/><trkpt lat="52.215753706215" lon="5.1097692711639"/><trkpt lat="52.21583685313" lon="5.1143948981476"/><trkpt lat="52.215842867187" lon="5.1161548981476"/><trkpt lat="52.21595" lon="5.11947"/><trkpt lat="52.21597" lon="5.1196199999999"/><trkpt lat="52.21612" lon="5.1197999999999"/><trkpt lat="52.2169" lon="5.1204299999999"/><trkpt lat="52.21793" lon="5.1215"/><trkpt lat="52.21859" lon="5.12207"/><trkpt lat="52.21897" lon="5.12225"/><trkpt lat="52.21915" lon="5.12213"/><trkpt lat="52.21926" lon="5.1218699999999"/><trkpt lat="52.219348494941" lon="5.1221440332691"/><trkpt lat="52.219358410939" lon="5.1237989316239"/><trkpt lat="52.21944" lon="5.12447"/><trkpt lat="52.21963" lon="5.12442"/><trkpt lat="52.21981084441" lon="5.1241829153444"/><trkpt lat="52.220331408549" lon="5.1240843730163"/><trkpt lat="52.22059" lon="5.12382"/><trkpt lat="52.22115" lon="5.1229499999999"/><trkpt lat="52.22119" lon="5.1228"/><trkpt lat="52.22112" lon="5.12269"/><trkpt lat="52.22132" lon="5.12236"/><trkpt lat="52.22131" lon="5.1220499999999"/><trkpt lat="52.221348265598" lon="5.1217789497375"/></trkseg></trk><wpt lat="52.2165" lon="5.06889"><name>Kromme Rade</name><desc>De Kromme Rade is de oude grens tussen de voormalige gewesten Holland en Utrecht. Het woord &#x2018;rade&#x2019; is afgeleid van rooien of raaien, wat &#x2018;een grens trekken&#x2019; betekent. Je wandelt hier tussen twee plassen door, de Vuntus en Het Hol. Deze plassen horen bij de Loosdrechtse Plassen, in de omgeving bekend vanwege de watersport. Maar tijdens deze wandeling zie je het andere gezicht van dit gebied. Omgeven door prachtige natuur wandel je in alle rust over de Kromme Rade.</desc></wpt><wpt lat="52.2152" lon="5.0741"><name>Uitzicht op Het Hol</name><desc>Aan de noordkant van de Kromme Rade ligt Het Hol. In dit unieke moerasgebied groeien planten zoals echte koekoeksbloem, galigaan, fonteinkruid en dotterbloem. In het water komen waterviolier, krabbenscheer, mattenbies en pijlkruid voor. Deze planten horen thuis in dit soort veengebieden.</desc></wpt><wpt lat="52.2153" lon="5.07867"><name>Libellen</name><desc>Boven het water langs de Kromme Rade zie je allerlei soorten libellen jagen op insecten. In Het Hol komen wel 20 verschillende soorten libellen voor, van de grote "helikopters" tot de kleinere juffers. Libellen beginnen hun leven in het water. Ze doen zich te goed aan alles wat ze maar te pakken kunnen krijgen, soms zelfs kleine visjes. Op een gegeven moment klimmen ze via een rietstengel uit het water en komt er een prachtige libel tevoorschijn. Dit kan zomaar&amp;nbsp;de glassnijder of smaragdlibel zijn.</desc></wpt><wpt lat="52.2153" lon="5.0825"><name>Uitzicht op de Vuntus</name><desc>Vanaf het bankje heb je uitzicht op de Vuntus. In de zomer kan je hier kano&#xEB;n door een doolhof van smalle sloten en plassen. Er is een mooie kanoroute uitgezet van ongeveer 5 kilometer. De route kun je via deze app van Natuurmonumenten downloaden. In strenge winters kan je op de Vuntus heerlijk schaatsen door ongerepte natuur.</desc></wpt><wpt lat="52.2157" lon="5.08847"><name>Aan het werk</name><desc>Om de oer-Hollandse veengebieden te behouden en te herstellen heeft Natuurmonumenten de laatste jaren&amp;nbsp;een grootschalig project uitgevoerd, betaalt met Life-subsidie vanuit de Europese Unie. In Het Hol is er geplagd, er zijn oevers vrij gemaakt van struiken en boompjes en sloten zijn herstelt. Dit bevordert de doorstroming en verhoogt de waterkwaliteit. Hier profiteren allerlei dieren en planten van. Kranswieren, fonteinkruiden en krabbenscheer bijvoorbeeld.&amp;nbsp;Planten die langzaam verteren gaan nieuwe &#x2018;tapijten&#x2019; op het water leggen; op dit drijvend land &#x2013; trilveen genoemd &#x2013; groeien onder meer orchidee&#xEB;n en ratelaars. Nieuwe schrale, natte graslanden kunnen voor de grote vuurvlinder de redding zijn, want deze prachtige vlinder is heel zeldzaam in ons land.</desc></wpt><wpt lat="52.2155" lon="5.096"><name>Rietvogels</name><desc>In brede, stevige rietkragen zingen rietzangers en rietgorzen hun lied. Ook de snor, al klinkt hij meer als een rateltje. Misschien hoor je zelfs de kleine karekiet! Natuurmonumenten doet haar best om het leefgebied van deze rietvogels te behouden door veel ruimte te geven aan het riet.</desc></wpt><wpt lat="52.2215" lon="5.12141"><name>Oppad</name><desc>Je wandelt dwars door weilanden waar vaak koeien grazen. Dit is het Oppad, een oud kerkpad tussen Kortenhoef en &#x2018;s-Graveland. Vroeger liepen de inwoners uit &#x2019;s-Graveland op zondag over het pad naar de kerk in de oude dorpskern van Kortenhoef. In de verte zie je aan je rechterhand het 'nieuwe' Kortenhoef liggen.</desc></wpt><wpt lat="52.2281" lon="5.10193"><name>Turfwinning</name><desc>Je kijkt hier uit over de Kortenhoefse Plassen. Deze plassen zijn, net als de andere Vechtplassen, ontstaan door uitbaggeren van veen. Dit gebeurde met behulp van een baggerbeugel. Het veen werd op de legakker te drogen gelegd. Na het drogen, werden er turven van gestoken, een belangrijke brandstof in de vorige eeuwen.&amp;nbsp;Door intensieve turfwinning werden de petgaten steeds groter. Harde wind en toenemende golfslag lieten weinig meer over van de legakkers. Zo ontstonden er plassen. Het open landschap met plassen en sloten dreigt echter verloren te gaan. Nu er langere tijd geen turf meer wordt gewonnen, groeien de plassen langzaam maar zeker dicht. Dat gaat ten koste van een groot aantal bijzondere planten en dieren. Daarom heeft Natuurmonumenten de laatste jaren maatregelen genomen, zoals plaggen en bomen en struiken weghalen. Ook de waterkwaliteit is verbeterd. Dit is mogelijk gemaakt&amp;nbsp;dankzij Life-subsidie vanuit de Europese Unie.</desc></wpt><wpt lat="52.229" lon="5.0997"><name>Moerasbos</name><desc>Halverwege het Oppad wandel je langs een moerasbos met elzen, wilgen en berken. Dit is een ideale plek voor de ree. In het bos vindt hij beschutting en in de omliggende weilanden voedsel. Omdat het hier zo rustig is, heb je ook overdag kans dit dier te spotten. In de zomer zie je watergentiaan in de sloten bloeien. Elke bloem bloeit slechts &#xE9;&#xE9;n dag. Dan verdwijnt hij weer onder water en is het de beurt aan de volgende bloem.Aan het einde van het Oppad sla je linksaf de geasfalteerde weg op. Na circa 900 meter steek je de Vreelandseweg (N201) over. Ga daar naar rechts en meteen weer naar links het Moleneind in. Volg deze weg 1500 meter. In de bocht ben je weer bij het startpunt aangekomen.</desc></wpt></gpx>
