<?xml version="1.0"?>
<gpx xmlns="http://www.topografix.com/GPX/1/1" xmlns:xsi="http://www.w3.org/2001/XMLSchema-instance" creator="geoPHP" version="1.1" xsi:schemaLocation="http://www.topografix.com/GPX/1/1 http://www.topografix.com/GPX/1/1/gpx.xsd"><trk><trkseg><trkpt lat="52.284227269845" lon="5.14195561409"/><trkpt lat="52.284342127621" lon="5.1416498422623"/><trkpt lat="52.285218318569" lon="5.139793753624"/><trkpt lat="52.286530931763" lon="5.1370042562485"/><trkpt lat="52.286281538248" lon="5.1367735862732"/><trkpt lat="52.285703989983" lon="5.1370686292648"/><trkpt lat="52.285208473824" lon="5.1373153924942"/><trkpt lat="52.284834371859" lon="5.1373422145844"/><trkpt lat="52.284598095307" lon="5.1372081041336"/><trkpt lat="52.284355254205" lon="5.13691842556"/><trkpt lat="52.284050060121" lon="5.1363122463226"/><trkpt lat="52.283574215688" lon="5.1360869407654"/><trkpt lat="52.283360904456" lon="5.1358991861343"/><trkpt lat="52.283498736446" lon="5.1350194215775"/><trkpt lat="52.282553594188" lon="5.1344990730286"/><trkpt lat="52.282520776386" lon="5.134391784668"/><trkpt lat="52.282215569667" lon="5.134209394455"/><trkpt lat="52.282094142753" lon="5.1343220472336"/><trkpt lat="52.281280245659" lon="5.1339250802994"/><trkpt lat="52.279652406625" lon="5.1331472396851"/><trkpt lat="52.279301231895" lon="5.132964849472"/><trkpt lat="52.279025541372" lon="5.1325410604477"/><trkpt lat="52.278753131195" lon="5.13188123703"/><trkpt lat="52.278641541" lon="5.1310390233994"/><trkpt lat="52.278680925807" lon="5.1304221153259"/><trkpt lat="52.278733438828" lon="5.1301807165146"/><trkpt lat="52.278756413255" lon="5.1295691728592"/><trkpt lat="52.278848310845" lon="5.1288825273514"/><trkpt lat="52.278982874828" lon="5.1283729076385"/><trkpt lat="52.278966464608" lon="5.128093957901"/><trkpt lat="52.278950054382" lon="5.1279437541962"/><trkpt lat="52.278992720958" lon="5.1272141933441"/><trkpt lat="52.279018977291" lon="5.1265704631805"/><trkpt lat="52.279005849126" lon="5.1262056827545"/><trkpt lat="52.279032105452" lon="5.125932097435"/><trkpt lat="52.279091182128" lon="5.1256906986237"/><trkpt lat="52.279206053218" lon="5.1254868507385"/><trkpt lat="52.27951456267" lon="5.1251703500748"/><trkpt lat="52.280197214249" lon="5.1244676113129"/><trkpt lat="52.280463051683" lon="5.1241511106491"/><trkpt lat="52.281086614714" lon="5.1236629486084"/><trkpt lat="52.281460748321" lon="5.1232820749283"/><trkpt lat="52.281631268017" lon="5.1228298373342"/><trkpt lat="52.281856223237" lon="5.1230274988675"/><trkpt lat="52.282033700084" lon="5.123200697121"/><trkpt lat="52.282240294839" lon="5.1234384394184"/><trkpt lat="52.282404220575" lon="5.1234734257447"/><trkpt lat="52.28256550843" lon="5.1234492222187"/><trkpt lat="52.282687061635" lon="5.1234820458815"/><trkpt lat="52.282814591354" lon="5.1235746889325"/><trkpt lat="52.28292278475" lon="5.1233443663807"/><trkpt lat="52.282989211331" lon="5.1233361921079"/><trkpt lat="52.283283272898" lon="5.1237884302179"/><trkpt lat="52.283394838358" lon="5.1238357985542"/><trkpt lat="52.283499671333" lon="5.1240256042015"/><trkpt lat="52.283380353362" lon="5.1238344123833"/><trkpt lat="52.283285809386" lon="5.1237859619421"/><trkpt lat="52.28298908959" lon="5.1233302919512"/><trkpt lat="52.282922383663" lon="5.1233412704903"/><trkpt lat="52.282811193233" lon="5.1235802780739"/><trkpt lat="52.28267493156" lon="5.1234743832356"/><trkpt lat="52.282566312279" lon="5.1234405588252"/><trkpt lat="52.28240178336" lon="5.1234746390376"/><trkpt lat="52.282234394639" lon="5.123437622142"/><trkpt lat="52.281971829265" lon="5.1231164475072"/><trkpt lat="52.281624841012" lon="5.1228260993958"/><trkpt lat="52.281995688254" lon="5.1216566562653"/><trkpt lat="52.282097424566" lon="5.1210826635361"/><trkpt lat="52.282205724254" lon="5.1205676794052"/><trkpt lat="52.28253390351" lon="5.1195377111435"/><trkpt lat="52.281916924498" lon="5.1191300153732"/><trkpt lat="52.281335352424" lon="5.1187483123424"/><trkpt lat="52.281404393971" lon="5.1186891585512"/><trkpt lat="52.281455455283" lon="5.1184163073376"/><trkpt lat="52.281461877944" lon="5.1181868158482"/><trkpt lat="52.281466601534" lon="5.1177393591281"/><trkpt lat="52.281734951941" lon="5.1167501770344"/><trkpt lat="52.28149164306" lon="5.117654985395"/><trkpt lat="52.281460978502" lon="5.1178550013516"/><trkpt lat="52.281450423194" lon="5.1183182358502"/><trkpt lat="52.281439199136" lon="5.1185315380523"/><trkpt lat="52.281396915998" lon="5.1186874441844"/><trkpt lat="52.281308996599" lon="5.1187493448344"/><trkpt lat="52.281227735656" lon="5.1186954975128"/><trkpt lat="52.281165379946" lon="5.1189208030701"/><trkpt lat="52.280019988408" lon="5.1181483268738"/><trkpt lat="52.278687489938" lon="5.1172363758087"/><trkpt lat="52.277410748155" lon="5.11638879776"/><trkpt lat="52.277089095324" lon="5.1174241304398"/><trkpt lat="52.275956727499" lon="5.121077299118"/><trkpt lat="52.275047530073" lon="5.123947262764"/><trkpt lat="52.275615370363" lon="5.1259160041809"/><trkpt lat="52.276705078173" lon="5.1298588514328"/><trkpt lat="52.277528905751" lon="5.1328307390213"/><trkpt lat="52.27799825087" lon="5.1345312595367"/><trkpt lat="52.278093432141" lon="5.1347082853317"/><trkpt lat="52.278339589653" lon="5.1355826854706"/><trkpt lat="52.278585745797" lon="5.1364141702652"/><trkpt lat="52.278808926187" lon="5.1368004083633"/><trkpt lat="52.279849325816" lon="5.1381897926331"/><trkpt lat="52.280715759863" lon="5.1393485069275"/><trkpt lat="52.281247426915" lon="5.1398956775665"/><trkpt lat="52.281949742746" lon="5.1407432556152"/><trkpt lat="52.28235340522" lon="5.1412314176559"/><trkpt lat="52.28260610262" lon="5.1414084434509"/><trkpt lat="52.283547962053" lon="5.1418107748032"/><trkpt lat="52.283964736667" lon="5.14195561409"/></trkseg></trk><wpt lat="52.2861" lon="5.13786"><name>Over vlonderpaden</name><desc>Om de natte moerasgronden moeiteloos te bewandelen ligt hier een vlonderplad voor je klaar! Deze voert je dwars door het drassige moerasbos; een laagveen broekbos vol elzen. Rond het Naardermeer ligt een ring van moerasbos. Een bijna ondoordringbaar bos zonder paden. Zelfs de boswachter komt hier bijna nooit. Maar&#x2026; pas op! In het voorjaar vliegen hier miljoenen knutten: venijnig bijtende mugjes.</desc></wpt><wpt lat="52.2819" lon="5.13437"><name>Hooilandjes</name><desc>Het moerasbos ligt achter je, weilanden strekken zich voor je uit! Hier vind je bloemrijke hooilandjes. De zonnedauw, ratelaar, rietorchis en moeraswolfsklauw trekken in de lente en zomer kleurige vlinders en zoemende insecten aan. Ver aan de horizon wuift het riet aan oevers van ondiepe plassen. In 2023 is gewerkt aan meer ruimte voor water, dus natuurlijke oevers en meer sloten en rietlanden. Zo kunnen allerlei soorten van het meer hier ook een broodnodig leefgebied vinden. Denk aan rietvogels zoals blauwborst en purperreiger. Maar ook ringslang, ree en otter.</desc></wpt><wpt lat="52.279" lon="5.1275"><name>Ringslang</name><desc>Speur de oevers af, misschien zie je wel een heuse slang, de ringslang. Absoluut ongevaarlijk voor mensen. Maar kikkers moeten oppassen&#x2026; Stilletjes glijdt de ringslang door het water op zoek naar zijn&amp;nbsp;prooi. Krijgt hij er &#xE9;&#xE9;n te pakken dan schrokt hij hem in zijn geheel naar binnen. De grootste kans om de ringslang te zien heb je van maart tot oktober. Vooral op warme en zonnige dagen. In de wintermaanden verbergt hij zich op een beschut plekje in een bladerhoop voor een diepe winterslaap.</desc></wpt><wpt lat="52.2817" lon="5.12284"><name>Vogelkijkhut Naardermeer</name><desc>Volg het paadje naar de vogelkijkhut voor een vrij zicht over het Naardermeer! Observeer de overvliegende aalscholvers, rietvogels en de bruine kiekendief. Purperreigers tonen hun kleurenpracht tijdens hun zoektocht naar eten. Elk jaar bevolkt een grote kolonie aalscholvers het Naardermeer. Ze bouwen hun nesten in bomen. De ouders broeden samen de 2 tot 4 eieren uit. Voor de jongen vissen ze in het IJssel- en Markermeer. Met grote regelmaat zie je ze dan ook overvliegen. Het verenkleed van aalscholvers bevat zeer weinig vet. Daardoor is het niet waterdicht en wordt een duikende aalscholver drijfnat. Met gespreide vleugels zitten ze op een paal of in een boom te drogen; een zeer markante houding.</desc></wpt><wpt lat="52.2814" lon="5.11873"><name>Kijkscherm Hilversumse Bovenmeent</name><desc>Je staat hier bij het kijkscherm in de Hilversumse Bovenmeent. In de ondiepe plassen wemelt het van de vogels. Hier vinden ze voedsel, rust en broedgelegenheid. Misschien spot je wel een&amp;nbsp;purperreiger, zilverreiger of lepelaar. Je vervolgt je weg nu over smalle weggetjes door de Hilversumse Bovenmeent. Een meent is het gemeenschappelijke land waar de boeren hun vee lieten grazen. Een uitgestrekt grasland met weinig sloten. Het woord &#x2018;boven&#x2019; betekent dat het land ver van de boerderijen lag; de ondermeent lag dichterbij.</desc></wpt><wpt lat="52.2773" lon="5.11632"><name>Natuurverbinding</name><desc>Vanaf de rustige Melkmeent zie je de provinciale weg N236 liggen. Voor dieren was deze drukke weg een onneembare barri&#xE8;re. Sinds 2013 verbinden twee nieuwe natuurpassages het Naardermeer met de Ankeveense Plassen. Zowel via het land als het water kunnen ree&#xEB;n, konijnen, waterspitsmuizen, ringslangen en talloze andere dieren de weg veilig passeren. In 2016 werd hier&amp;nbsp;een otter waargenomen. De eerste in het Naardermeer sinds vijftig jaar! Nu is het weer een vaste bewoner.</desc></wpt><wpt lat="52.2839" lon="5.14195"><name>Finish</name><desc>Je bent terug bij het beginpunt van de route. We hopen dat je genoten hebt van de wandeling. Wil je meer zien van het Naardermeer?&amp;nbsp;Vaar dan eens mee met onze vaargidsen. Bijvoorbeeld naar de observatiehut in de aalscholverkolonie. Vooral in het voorjaar is het hier een drukte van belang. Alle vaartochten vertrekken vanaf Stadzigt van april tot oktober. Reserveren kan in de Activiteitenagenda van het Naardermeer.&amp;nbsp;</desc></wpt></gpx>
