<?xml version="1.0" encoding="UTF-8"?>
<gpx version="1.1" creator="GPSBabel - http://www.gpsbabel.org" xmlns="http://www.topografix.com/GPX/1/1" xmlns:xsi="http://www.w3.org/2001/XMLSchema-instance">
  <metadata>
    <name>Map - Jan 27 10:25 AM</name>
    <desc></desc>
    <link href="http://www.alltrails.com">
      <text>AllTrails, LLC</text>
    </link>
    <time>2021-01-27T10:37:50.568Z</time>
    <bounds minlat="52.306220000" minlon="4.819350000" maxlat="52.326830000" maxlon="4.855010000"/>
  </metadata>
  <trk>
    <name>Map - Jan 27 10:25 AM</name>
    <src>AllTrails</src>
    <trkseg>
      <trkpt lat="52.326830000" lon="4.854820000">
        <ele>5.120</ele>
      </trkpt>
      <trkpt lat="52.326820000" lon="4.854850000">
        <ele>4.980</ele>
      </trkpt>
      <trkpt lat="52.326000000" lon="4.854200000">
        <ele>1.180</ele>
      </trkpt>
      <trkpt lat="52.325860000" lon="4.854080000">
        <ele>-1.990</ele>
      </trkpt>
      <trkpt lat="52.325450000" lon="4.853740000">
        <ele>-6.820</ele>
      </trkpt>
      <trkpt lat="52.325220000" lon="4.853450000">
        <ele>-11.250</ele>
      </trkpt>
      <trkpt lat="52.325060000" lon="4.853190000">
        <ele>-10.030</ele>
      </trkpt>
      <trkpt lat="52.324920000" lon="4.852880000">
        <ele>-7.690</ele>
      </trkpt>
      <trkpt lat="52.324680000" lon="4.852230000">
        <ele>-10.230</ele>
      </trkpt>
      <trkpt lat="52.324410000" lon="4.851230000">
        <ele>-9.090</ele>
      </trkpt>
      <trkpt lat="52.324230000" lon="4.850380000">
        <ele>-6.520</ele>
      </trkpt>
      <trkpt lat="52.324090000" lon="4.849510000">
        <ele>-9.450</ele>
      </trkpt>
      <trkpt lat="52.324020000" lon="4.848980000">
        <ele>-7.640</ele>
      </trkpt>
      <trkpt lat="52.324020000" lon="4.848980000">
        <ele>-7.640</ele>
      </trkpt>
      <trkpt lat="52.324020000" lon="4.848980000">
        <ele>-7.640</ele>
      </trkpt>
      <trkpt lat="52.323980000" lon="4.848700000">
        <ele>-5.650</ele>
      </trkpt>
      <trkpt lat="52.323980000" lon="4.848630000">
        <ele>-5.150</ele>
      </trkpt>
      <trkpt lat="52.323930000" lon="4.848020000">
        <ele>-10.240</ele>
      </trkpt>
      <trkpt lat="52.323870000" lon="4.846910000">
        <ele>-14.700</ele>
      </trkpt>
      <trkpt lat="52.323870000" lon="4.846550000">
        <ele>-13.100</ele>
      </trkpt>
      <trkpt lat="52.323900000" lon="4.846200000">
        <ele>-13.670</ele>
      </trkpt>
      <trkpt lat="52.323990000" lon="4.845390000">
        <ele>-11.790</ele>
      </trkpt>
      <trkpt lat="52.323990000" lon="4.845390000">
        <ele>-11.790</ele>
      </trkpt>
      <trkpt lat="52.323990000" lon="4.845390000">
        <ele>-11.790</ele>
      </trkpt>
      <trkpt lat="52.324000000" lon="4.845350000">
        <ele>-11.510</ele>
      </trkpt>
      <trkpt lat="52.324020000" lon="4.844990000">
        <ele>-7.890</ele>
      </trkpt>
      <trkpt lat="52.324010000" lon="4.844630000">
        <ele>-3.820</ele>
      </trkpt>
      <trkpt lat="52.323920000" lon="4.844200000">
        <ele>0.550</ele>
      </trkpt>
      <trkpt lat="52.323770000" lon="4.843400000">
        <ele>0.730</ele>
      </trkpt>
      <trkpt lat="52.323770000" lon="4.843150000">
        <ele>-1.740</ele>
      </trkpt>
      <trkpt lat="52.323770000" lon="4.842630000">
        <ele>-7.160</ele>
      </trkpt>
      <trkpt lat="52.323780000" lon="4.842410000">
        <ele>-9.240</ele>
      </trkpt>
      <trkpt lat="52.323790000" lon="4.842390000">
        <ele>-9.400</ele>
      </trkpt>
      <trkpt lat="52.323790000" lon="4.842390000">
        <ele>-9.400</ele>
      </trkpt>
      <trkpt lat="52.323790000" lon="4.842390000">
        <ele>-9.400</ele>
      </trkpt>
      <trkpt lat="52.323880000" lon="4.842050000">
        <ele>-9.800</ele>
      </trkpt>
      <trkpt lat="52.323950000" lon="4.841760000">
        <ele>-9.070</ele>
      </trkpt>
      <trkpt lat="52.323960000" lon="4.841210000">
        <ele>-6.440</ele>
      </trkpt>
      <trkpt lat="52.323910000" lon="4.840780000">
        <ele>-5.270</ele>
      </trkpt>
      <trkpt lat="52.323860000" lon="4.840370000">
        <ele>-3.070</ele>
      </trkpt>
      <trkpt lat="52.323730000" lon="4.839700000">
        <ele>-0.650</ele>
      </trkpt>
      <trkpt lat="52.323560000" lon="4.839140000">
        <ele>3.090</ele>
      </trkpt>
      <trkpt lat="52.323400000" lon="4.838690000">
        <ele>6.280</ele>
      </trkpt>
      <trkpt lat="52.323240000" lon="4.838320000">
        <ele>7.690</ele>
      </trkpt>
      <trkpt lat="52.323180000" lon="4.838220000">
        <ele>7.240</ele>
      </trkpt>
      <trkpt lat="52.323180000" lon="4.838220000">
        <ele>7.240</ele>
      </trkpt>
      <trkpt lat="52.323180000" lon="4.838220000">
        <ele>7.240</ele>
      </trkpt>
      <trkpt lat="52.323050000" lon="4.837980000">
        <ele>7.260</ele>
      </trkpt>
      <trkpt lat="52.322880000" lon="4.837690000">
        <ele>4.490</ele>
      </trkpt>
      <trkpt lat="52.322170000" lon="4.836490000">
        <ele>2.820</ele>
      </trkpt>
      <trkpt lat="52.321570000" lon="4.835500000">
        <ele>1.030</ele>
      </trkpt>
      <trkpt lat="52.321320000" lon="4.835050000">
        <ele>-7.060</ele>
      </trkpt>
      <trkpt lat="52.321250000" lon="4.834790000">
        <ele>-9.390</ele>
      </trkpt>
      <trkpt lat="52.321020000" lon="4.834390000">
        <ele>-14.940</ele>
      </trkpt>
      <trkpt lat="52.320870000" lon="4.834150000">
        <ele>-12.650</ele>
      </trkpt>
      <trkpt lat="52.320850000" lon="4.834120000">
        <ele>-11.990</ele>
      </trkpt>
      <trkpt lat="52.320750000" lon="4.833960000">
        <ele>-9.170</ele>
      </trkpt>
      <trkpt lat="52.320750000" lon="4.833960000">
        <ele>-9.170</ele>
      </trkpt>
      <trkpt lat="52.320750000" lon="4.833960000">
        <ele>-9.170</ele>
      </trkpt>
      <trkpt lat="52.320740000" lon="4.833950000">
        <ele>-8.910</ele>
      </trkpt>
      <trkpt lat="52.320600000" lon="4.833950000">
        <ele>-6.610</ele>
      </trkpt>
      <trkpt lat="52.320460000" lon="4.834080000">
        <ele>-7.410</ele>
      </trkpt>
      <trkpt lat="52.320380000" lon="4.834160000">
        <ele>-8.270</ele>
      </trkpt>
      <trkpt lat="52.320290000" lon="4.834240000">
        <ele>-8.340</ele>
      </trkpt>
      <trkpt lat="52.320240000" lon="4.834270000">
        <ele>-7.180</ele>
      </trkpt>
      <trkpt lat="52.320170000" lon="4.834260000">
        <ele>-4.970</ele>
      </trkpt>
      <trkpt lat="52.320090000" lon="4.834130000">
        <ele>-2.510</ele>
      </trkpt>
      <trkpt lat="52.320030000" lon="4.833970000">
        <ele>-1.190</ele>
      </trkpt>
      <trkpt lat="52.320020000" lon="4.833930000">
        <ele>-1.120</ele>
      </trkpt>
      <trkpt lat="52.320020000" lon="4.833930000">
        <ele>-1.120</ele>
      </trkpt>
      <trkpt lat="52.320020000" lon="4.833930000">
        <ele>-1.120</ele>
      </trkpt>
      <trkpt lat="52.319750000" lon="4.833170000">
        <ele>-9.450</ele>
      </trkpt>
      <trkpt lat="52.319470000" lon="4.832410000">
        <ele>-12.600</ele>
      </trkpt>
      <trkpt lat="52.319200000" lon="4.831650000">
        <ele>-14.670</ele>
      </trkpt>
      <trkpt lat="52.318990000" lon="4.831040000">
        <ele>-0.620</ele>
      </trkpt>
      <trkpt lat="52.318990000" lon="4.831040000">
        <ele>-0.620</ele>
      </trkpt>
      <trkpt lat="52.318990000" lon="4.831040000">
        <ele>-0.620</ele>
      </trkpt>
      <trkpt lat="52.318740000" lon="4.830350000">
        <ele>4.450</ele>
      </trkpt>
      <trkpt lat="52.318720000" lon="4.830060000">
        <ele>1.100</ele>
      </trkpt>
      <trkpt lat="52.318750000" lon="4.829960000">
        <ele>0.430</ele>
      </trkpt>
      <trkpt lat="52.318740000" lon="4.829940000">
        <ele>0.270</ele>
      </trkpt>
      <trkpt lat="52.318720000" lon="4.829840000">
        <ele>0.110</ele>
      </trkpt>
      <trkpt lat="52.318650000" lon="4.829490000">
        <ele>-1.540</ele>
      </trkpt>
      <trkpt lat="52.318580000" lon="4.829320000">
        <ele>-3.850</ele>
      </trkpt>
      <trkpt lat="52.318590000" lon="4.829310000">
        <ele>-3.990</ele>
      </trkpt>
      <trkpt lat="52.318490000" lon="4.828990000">
        <ele>-6.690</ele>
      </trkpt>
      <trkpt lat="52.318400000" lon="4.828710000">
        <ele>-7.090</ele>
      </trkpt>
      <trkpt lat="52.318310000" lon="4.828530000">
        <ele>-7.350</ele>
      </trkpt>
      <trkpt lat="52.318070000" lon="4.828290000">
        <ele>-8.310</ele>
      </trkpt>
      <trkpt lat="52.317890000" lon="4.828060000">
        <ele>-9.380</ele>
      </trkpt>
      <trkpt lat="52.317740000" lon="4.827720000">
        <ele>-8.460</ele>
      </trkpt>
      <trkpt lat="52.317620000" lon="4.827260000">
        <ele>-6.610</ele>
      </trkpt>
      <trkpt lat="52.317550000" lon="4.826830000">
        <ele>-5.680</ele>
      </trkpt>
      <trkpt lat="52.317530000" lon="4.826390000">
        <ele>-6.110</ele>
      </trkpt>
      <trkpt lat="52.317540000" lon="4.826010000">
        <ele>-7.000</ele>
      </trkpt>
      <trkpt lat="52.317590000" lon="4.825700000">
        <ele>-7.320</ele>
      </trkpt>
      <trkpt lat="52.317590000" lon="4.825700000">
        <ele>-7.320</ele>
      </trkpt>
      <trkpt lat="52.317590000" lon="4.825700000">
        <ele>-7.320</ele>
      </trkpt>
      <trkpt lat="52.317600000" lon="4.825650000">
        <ele>-7.420</ele>
      </trkpt>
      <trkpt lat="52.317740000" lon="4.825180000">
        <ele>-7.460</ele>
      </trkpt>
      <trkpt lat="52.317750000" lon="4.825150000">
        <ele>-7.390</ele>
      </trkpt>
      <trkpt lat="52.318040000" lon="4.824670000">
        <ele>-7.570</ele>
      </trkpt>
      <trkpt lat="52.318070000" lon="4.824640000">
        <ele>-7.490</ele>
      </trkpt>
      <trkpt lat="52.318180000" lon="4.824520000">
        <ele>-6.260</ele>
      </trkpt>
      <trkpt lat="52.318450000" lon="4.824360000">
        <ele>-5.900</ele>
      </trkpt>
      <trkpt lat="52.318710000" lon="4.824300000">
        <ele>-8.040</ele>
      </trkpt>
      <trkpt lat="52.318870000" lon="4.824280000">
        <ele>-6.390</ele>
      </trkpt>
      <trkpt lat="52.318960000" lon="4.824320000">
        <ele>-5.210</ele>
      </trkpt>
      <trkpt lat="52.319120000" lon="4.824410000">
        <ele>-2.110</ele>
      </trkpt>
      <trkpt lat="52.319270000" lon="4.824500000">
        <ele>-0.210</ele>
      </trkpt>
      <trkpt lat="52.319440000" lon="4.824650000">
        <ele>1.200</ele>
      </trkpt>
      <trkpt lat="52.319580000" lon="4.824830000">
        <ele>1.100</ele>
      </trkpt>
      <trkpt lat="52.319690000" lon="4.824990000">
        <ele>0.920</ele>
      </trkpt>
      <trkpt lat="52.319760000" lon="4.825160000">
        <ele>0.920</ele>
      </trkpt>
      <trkpt lat="52.319830000" lon="4.825310000">
        <ele>0.280</ele>
      </trkpt>
      <trkpt lat="52.319880000" lon="4.825500000">
        <ele>-1.400</ele>
      </trkpt>
      <trkpt lat="52.319940000" lon="4.825690000">
        <ele>-2.610</ele>
      </trkpt>
      <trkpt lat="52.319960000" lon="4.825790000">
        <ele>-3.220</ele>
      </trkpt>
      <trkpt lat="52.319960000" lon="4.825790000">
        <ele>-3.220</ele>
      </trkpt>
      <trkpt lat="52.319960000" lon="4.825790000">
        <ele>-3.220</ele>
      </trkpt>
      <trkpt lat="52.319940000" lon="4.825690000">
        <ele>-2.610</ele>
      </trkpt>
      <trkpt lat="52.319990000" lon="4.825680000">
        <ele>-2.000</ele>
      </trkpt>
      <trkpt lat="52.320050000" lon="4.825640000">
        <ele>-1.140</ele>
      </trkpt>
      <trkpt lat="52.320180000" lon="4.825550000">
        <ele>0.300</ele>
      </trkpt>
      <trkpt lat="52.320250000" lon="4.825510000">
        <ele>0.820</ele>
      </trkpt>
      <trkpt lat="52.320710000" lon="4.825200000">
        <ele>2.840</ele>
      </trkpt>
      <trkpt lat="52.320940000" lon="4.825030000">
        <ele>2.790</ele>
      </trkpt>
      <trkpt lat="52.320970000" lon="4.825010000">
        <ele>2.980</ele>
      </trkpt>
      <trkpt lat="52.320970000" lon="4.825010000">
        <ele>2.980</ele>
      </trkpt>
      <trkpt lat="52.320970000" lon="4.825010000">
        <ele>2.980</ele>
      </trkpt>
      <trkpt lat="52.321020000" lon="4.824980000">
        <ele>3.270</ele>
      </trkpt>
      <trkpt lat="52.321060000" lon="4.825200000">
        <ele>3.180</ele>
      </trkpt>
      <trkpt lat="52.321160000" lon="4.825290000">
        <ele>2.410</ele>
      </trkpt>
      <trkpt lat="52.321180000" lon="4.825330000">
        <ele>2.020</ele>
      </trkpt>
      <trkpt lat="52.321170000" lon="4.825450000">
        <ele>1.520</ele>
      </trkpt>
      <trkpt lat="52.321200000" lon="4.825590000">
        <ele>0.960</ele>
      </trkpt>
      <trkpt lat="52.321260000" lon="4.825810000">
        <ele>0.510</ele>
      </trkpt>
      <trkpt lat="52.321330000" lon="4.825900000">
        <ele>0.470</ele>
      </trkpt>
      <trkpt lat="52.321330000" lon="4.825900000">
        <ele>0.470</ele>
      </trkpt>
      <trkpt lat="52.321330000" lon="4.825900000">
        <ele>0.470</ele>
      </trkpt>
      <trkpt lat="52.321370000" lon="4.825950000">
        <ele>0.210</ele>
      </trkpt>
      <trkpt lat="52.321520000" lon="4.826020000">
        <ele>0.940</ele>
      </trkpt>
      <trkpt lat="52.321930000" lon="4.826260000">
        <ele>1.490</ele>
      </trkpt>
      <trkpt lat="52.321940000" lon="4.826270000">
        <ele>1.440</ele>
      </trkpt>
      <trkpt lat="52.322150000" lon="4.826460000">
        <ele>2.650</ele>
      </trkpt>
      <trkpt lat="52.322290000" lon="4.826590000">
        <ele>1.140</ele>
      </trkpt>
      <trkpt lat="52.322290000" lon="4.826590000">
        <ele>1.140</ele>
      </trkpt>
      <trkpt lat="52.322290000" lon="4.826590000">
        <ele>1.140</ele>
      </trkpt>
      <trkpt lat="52.322390000" lon="4.826380000">
        <ele>1.020</ele>
      </trkpt>
      <trkpt lat="52.322410000" lon="4.826290000">
        <ele>1.100</ele>
      </trkpt>
      <trkpt lat="52.322430000" lon="4.825890000">
        <ele>2.350</ele>
      </trkpt>
      <trkpt lat="52.322460000" lon="4.825650000">
        <ele>2.850</ele>
      </trkpt>
      <trkpt lat="52.322530000" lon="4.825200000">
        <ele>3.210</ele>
      </trkpt>
      <trkpt lat="52.322530000" lon="4.824870000">
        <ele>1.530</ele>
      </trkpt>
      <trkpt lat="52.322500000" lon="4.824560000">
        <ele>1.580</ele>
      </trkpt>
      <trkpt lat="52.322450000" lon="4.824380000">
        <ele>2.690</ele>
      </trkpt>
      <trkpt lat="52.322370000" lon="4.824220000">
        <ele>4.460</ele>
      </trkpt>
      <trkpt lat="52.322250000" lon="4.824050000">
        <ele>6.930</ele>
      </trkpt>
      <trkpt lat="52.322110000" lon="4.823920000">
        <ele>7.050</ele>
      </trkpt>
      <trkpt lat="52.321950000" lon="4.823840000">
        <ele>5.430</ele>
      </trkpt>
      <trkpt lat="52.321880000" lon="4.823820000">
        <ele>4.100</ele>
      </trkpt>
      <trkpt lat="52.321880000" lon="4.823820000">
        <ele>4.100</ele>
      </trkpt>
      <trkpt lat="52.321880000" lon="4.823820000">
        <ele>4.100</ele>
      </trkpt>
      <trkpt lat="52.321750000" lon="4.823770000">
        <ele>1.660</ele>
      </trkpt>
      <trkpt lat="52.321630000" lon="4.822770000">
        <ele>2.830</ele>
      </trkpt>
      <trkpt lat="52.321610000" lon="4.822570000">
        <ele>1.740</ele>
      </trkpt>
      <trkpt lat="52.321610000" lon="4.822450000">
        <ele>1.130</ele>
      </trkpt>
      <trkpt lat="52.321680000" lon="4.822270000">
        <ele>1.320</ele>
      </trkpt>
      <trkpt lat="52.321680000" lon="4.822270000">
        <ele>1.320</ele>
      </trkpt>
      <trkpt lat="52.321680000" lon="4.822270000">
        <ele>1.320</ele>
      </trkpt>
      <trkpt lat="52.321570000" lon="4.822280000">
        <ele>-0.390</ele>
      </trkpt>
      <trkpt lat="52.321450000" lon="4.822300000">
        <ele>-2.180</ele>
      </trkpt>
      <trkpt lat="52.321240000" lon="4.822390000">
        <ele>-5.080</ele>
      </trkpt>
      <trkpt lat="52.321040000" lon="4.822380000">
        <ele>-7.770</ele>
      </trkpt>
      <trkpt lat="52.320910000" lon="4.822370000">
        <ele>-8.120</ele>
      </trkpt>
      <trkpt lat="52.320650000" lon="4.822330000">
        <ele>-8.810</ele>
      </trkpt>
      <trkpt lat="52.320290000" lon="4.822540000">
        <ele>-7.310</ele>
      </trkpt>
      <trkpt lat="52.320150000" lon="4.822620000">
        <ele>-5.230</ele>
      </trkpt>
      <trkpt lat="52.320080000" lon="4.822670000">
        <ele>-4.450</ele>
      </trkpt>
      <trkpt lat="52.319970000" lon="4.822740000">
        <ele>-3.920</ele>
      </trkpt>
      <trkpt lat="52.319820000" lon="4.822790000">
        <ele>-3.260</ele>
      </trkpt>
      <trkpt lat="52.319770000" lon="4.822810000">
        <ele>-2.940</ele>
      </trkpt>
      <trkpt lat="52.319730000" lon="4.822820000">
        <ele>-2.720</ele>
      </trkpt>
      <trkpt lat="52.319680000" lon="4.822850000">
        <ele>-2.100</ele>
      </trkpt>
      <trkpt lat="52.319680000" lon="4.822850000">
        <ele>-2.100</ele>
      </trkpt>
      <trkpt lat="52.319680000" lon="4.822860000">
        <ele>-2.040</ele>
      </trkpt>
      <trkpt lat="52.319730000" lon="4.822820000">
        <ele>-2.720</ele>
      </trkpt>
      <trkpt lat="52.319770000" lon="4.822810000">
        <ele>-2.940</ele>
      </trkpt>
      <trkpt lat="52.319670000" lon="4.822670000">
        <ele>-3.140</ele>
      </trkpt>
      <trkpt lat="52.319640000" lon="4.822520000">
        <ele>-3.690</ele>
      </trkpt>
      <trkpt lat="52.319640000" lon="4.822130000">
        <ele>-4.170</ele>
      </trkpt>
      <trkpt lat="52.319590000" lon="4.821840000">
        <ele>-2.950</ele>
      </trkpt>
      <trkpt lat="52.319490000" lon="4.821610000">
        <ele>-1.560</ele>
      </trkpt>
      <trkpt lat="52.319360000" lon="4.821450000">
        <ele>0.100</ele>
      </trkpt>
      <trkpt lat="52.319120000" lon="4.821260000">
        <ele>3.030</ele>
      </trkpt>
      <trkpt lat="52.318910000" lon="4.821090000">
        <ele>3.050</ele>
      </trkpt>
      <trkpt lat="52.318640000" lon="4.820980000">
        <ele>4.790</ele>
      </trkpt>
      <trkpt lat="52.318540000" lon="4.820950000">
        <ele>5.150</ele>
      </trkpt>
      <trkpt lat="52.318540000" lon="4.820950000">
        <ele>5.150</ele>
      </trkpt>
      <trkpt lat="52.318540000" lon="4.820950000">
        <ele>5.150</ele>
      </trkpt>
      <trkpt lat="52.318520000" lon="4.820950000">
        <ele>5.190</ele>
      </trkpt>
      <trkpt lat="52.318260000" lon="4.820880000">
        <ele>5.040</ele>
      </trkpt>
      <trkpt lat="52.318130000" lon="4.820880000">
        <ele>3.640</ele>
      </trkpt>
      <trkpt lat="52.318030000" lon="4.820860000">
        <ele>2.990</ele>
      </trkpt>
      <trkpt lat="52.317680000" lon="4.820760000">
        <ele>3.590</ele>
      </trkpt>
      <trkpt lat="52.317680000" lon="4.820760000">
        <ele>3.590</ele>
      </trkpt>
      <trkpt lat="52.317680000" lon="4.820760000">
        <ele>3.590</ele>
      </trkpt>
      <trkpt lat="52.317740000" lon="4.820240000">
        <ele>2.170</ele>
      </trkpt>
      <trkpt lat="52.317760000" lon="4.820090000">
        <ele>2.150</ele>
      </trkpt>
      <trkpt lat="52.317780000" lon="4.820000000">
        <ele>1.960</ele>
      </trkpt>
      <trkpt lat="52.317830000" lon="4.819690000">
        <ele>1.660</ele>
      </trkpt>
      <trkpt lat="52.317800000" lon="4.819680000">
        <ele>2.630</ele>
      </trkpt>
      <trkpt lat="52.317810000" lon="4.819620000">
        <ele>2.680</ele>
      </trkpt>
      <trkpt lat="52.317810000" lon="4.819620000">
        <ele>2.680</ele>
      </trkpt>
      <trkpt lat="52.317810000" lon="4.819620000">
        <ele>2.680</ele>
      </trkpt>
      <trkpt lat="52.317800000" lon="4.819680000">
        <ele>2.630</ele>
      </trkpt>
      <trkpt lat="52.317710000" lon="4.819630000">
        <ele>4.560</ele>
      </trkpt>
      <trkpt lat="52.317270000" lon="4.819450000">
        <ele>7.150</ele>
      </trkpt>
      <trkpt lat="52.317020000" lon="4.819350000">
        <ele>6.950</ele>
      </trkpt>
      <trkpt lat="52.316930000" lon="4.819510000">
        <ele>5.080</ele>
      </trkpt>
      <trkpt lat="52.316710000" lon="4.819550000">
        <ele>1.480</ele>
      </trkpt>
      <trkpt lat="52.316450000" lon="4.819750000">
        <ele>-0.890</ele>
      </trkpt>
      <trkpt lat="52.316250000" lon="4.820010000">
        <ele>-1.500</ele>
      </trkpt>
      <trkpt lat="52.316180000" lon="4.820140000">
        <ele>-1.240</ele>
      </trkpt>
      <trkpt lat="52.316140000" lon="4.820310000">
        <ele>-0.390</ele>
      </trkpt>
      <trkpt lat="52.316110000" lon="4.820490000">
        <ele>-0.750</ele>
      </trkpt>
      <trkpt lat="52.316050000" lon="4.820670000">
        <ele>-0.540</ele>
      </trkpt>
      <trkpt lat="52.315980000" lon="4.820790000">
        <ele>0.470</ele>
      </trkpt>
      <trkpt lat="52.315910000" lon="4.820860000">
        <ele>1.900</ele>
      </trkpt>
      <trkpt lat="52.315910000" lon="4.820860000">
        <ele>1.900</ele>
      </trkpt>
      <trkpt lat="52.315910000" lon="4.820860000">
        <ele>1.900</ele>
      </trkpt>
      <trkpt lat="52.315820000" lon="4.820950000">
        <ele>3.080</ele>
      </trkpt>
      <trkpt lat="52.315690000" lon="4.821050000">
        <ele>2.100</ele>
      </trkpt>
      <trkpt lat="52.315560000" lon="4.821130000">
        <ele>1.930</ele>
      </trkpt>
      <trkpt lat="52.315490000" lon="4.821160000">
        <ele>1.950</ele>
      </trkpt>
      <trkpt lat="52.315420000" lon="4.821170000">
        <ele>2.100</ele>
      </trkpt>
      <trkpt lat="52.315340000" lon="4.821150000">
        <ele>2.190</ele>
      </trkpt>
      <trkpt lat="52.315200000" lon="4.821110000">
        <ele>1.990</ele>
      </trkpt>
      <trkpt lat="52.315060000" lon="4.821060000">
        <ele>1.300</ele>
      </trkpt>
      <trkpt lat="52.314970000" lon="4.821040000">
        <ele>0.790</ele>
      </trkpt>
      <trkpt lat="52.314730000" lon="4.821060000">
        <ele>-0.500</ele>
      </trkpt>
      <trkpt lat="52.314520000" lon="4.821180000">
        <ele>-0.840</ele>
      </trkpt>
      <trkpt lat="52.314500000" lon="4.821140000">
        <ele>-0.860</ele>
      </trkpt>
      <trkpt lat="52.314430000" lon="4.821300000">
        <ele>-1.770</ele>
      </trkpt>
      <trkpt lat="52.314220000" lon="4.821150000">
        <ele>-2.060</ele>
      </trkpt>
      <trkpt lat="52.314010000" lon="4.821070000">
        <ele>-0.430</ele>
      </trkpt>
      <trkpt lat="52.313720000" lon="4.821100000">
        <ele>-1.050</ele>
      </trkpt>
      <trkpt lat="52.313690000" lon="4.821120000">
        <ele>-1.560</ele>
      </trkpt>
      <trkpt lat="52.313690000" lon="4.821120000">
        <ele>-1.560</ele>
      </trkpt>
      <trkpt lat="52.313720000" lon="4.821100000">
        <ele>-1.050</ele>
      </trkpt>
      <trkpt lat="52.313420000" lon="4.821320000">
        <ele>-2.260</ele>
      </trkpt>
      <trkpt lat="52.313190000" lon="4.821450000">
        <ele>0.500</ele>
      </trkpt>
      <trkpt lat="52.312930000" lon="4.821430000">
        <ele>3.910</ele>
      </trkpt>
      <trkpt lat="52.312740000" lon="4.821450000">
        <ele>3.400</ele>
      </trkpt>
      <trkpt lat="52.312620000" lon="4.821500000">
        <ele>2.120</ele>
      </trkpt>
      <trkpt lat="52.312430000" lon="4.821760000">
        <ele>1.250</ele>
      </trkpt>
      <trkpt lat="52.312310000" lon="4.822070000">
        <ele>1.890</ele>
      </trkpt>
      <trkpt lat="52.312250000" lon="4.822360000">
        <ele>1.900</ele>
      </trkpt>
      <trkpt lat="52.312170000" lon="4.822750000">
        <ele>2.790</ele>
      </trkpt>
      <trkpt lat="52.312120000" lon="4.823070000">
        <ele>4.300</ele>
      </trkpt>
      <trkpt lat="52.312080000" lon="4.823500000">
        <ele>3.310</ele>
      </trkpt>
      <trkpt lat="52.312040000" lon="4.823810000">
        <ele>5.310</ele>
      </trkpt>
      <trkpt lat="52.311980000" lon="4.823860000">
        <ele>6.330</ele>
      </trkpt>
      <trkpt lat="52.311950000" lon="4.824000000">
        <ele>8.910</ele>
      </trkpt>
      <trkpt lat="52.311840000" lon="4.824350000">
        <ele>11.120</ele>
      </trkpt>
      <trkpt lat="52.311710000" lon="4.824710000">
        <ele>12.580</ele>
      </trkpt>
      <trkpt lat="52.311640000" lon="4.824910000">
        <ele>11.910</ele>
      </trkpt>
      <trkpt lat="52.311640000" lon="4.824910000">
        <ele>11.910</ele>
      </trkpt>
      <trkpt lat="52.311640000" lon="4.824910000">
        <ele>11.910</ele>
      </trkpt>
      <trkpt lat="52.311540000" lon="4.825150000">
        <ele>6.920</ele>
      </trkpt>
      <trkpt lat="52.311370000" lon="4.825440000">
        <ele>3.690</ele>
      </trkpt>
      <trkpt lat="52.310980000" lon="4.826020000">
        <ele>8.090</ele>
      </trkpt>
      <trkpt lat="52.310770000" lon="4.826410000">
        <ele>11.210</ele>
      </trkpt>
      <trkpt lat="52.310580000" lon="4.826710000">
        <ele>13.020</ele>
      </trkpt>
      <trkpt lat="52.310360000" lon="4.826940000">
        <ele>7.350</ele>
      </trkpt>
      <trkpt lat="52.310380000" lon="4.827020000">
        <ele>7.920</ele>
      </trkpt>
      <trkpt lat="52.310110000" lon="4.827230000">
        <ele>0.600</ele>
      </trkpt>
      <trkpt lat="52.309930000" lon="4.827300000">
        <ele>-2.760</ele>
      </trkpt>
      <trkpt lat="52.309880000" lon="4.827280000">
        <ele>-3.110</ele>
      </trkpt>
      <trkpt lat="52.309880000" lon="4.827280000">
        <ele>-3.110</ele>
      </trkpt>
      <trkpt lat="52.309880000" lon="4.827280000">
        <ele>-3.110</ele>
      </trkpt>
      <trkpt lat="52.309790000" lon="4.827240000">
        <ele>-3.680</ele>
      </trkpt>
      <trkpt lat="52.309760000" lon="4.827270000">
        <ele>-3.670</ele>
      </trkpt>
      <trkpt lat="52.309770000" lon="4.827340000">
        <ele>-3.330</ele>
      </trkpt>
      <trkpt lat="52.309860000" lon="4.827840000">
        <ele>-0.900</ele>
      </trkpt>
      <trkpt lat="52.309870000" lon="4.828040000">
        <ele>-0.490</ele>
      </trkpt>
      <trkpt lat="52.309860000" lon="4.828240000">
        <ele>0.160</ele>
      </trkpt>
      <trkpt lat="52.309830000" lon="4.828380000">
        <ele>0.660</ele>
      </trkpt>
      <trkpt lat="52.309770000" lon="4.828670000">
        <ele>2.210</ele>
      </trkpt>
      <trkpt lat="52.309660000" lon="4.829000000">
        <ele>2.960</ele>
      </trkpt>
      <trkpt lat="52.309660000" lon="4.829000000">
        <ele>2.960</ele>
      </trkpt>
      <trkpt lat="52.309660000" lon="4.829000000">
        <ele>2.960</ele>
      </trkpt>
      <trkpt lat="52.309660000" lon="4.829000000">
        <ele>2.960</ele>
      </trkpt>
      <trkpt lat="52.309530000" lon="4.829420000">
        <ele>-0.560</ele>
      </trkpt>
      <trkpt lat="52.309340000" lon="4.830010000">
        <ele>-9.870</ele>
      </trkpt>
      <trkpt lat="52.309130000" lon="4.830650000">
        <ele>-12.620</ele>
      </trkpt>
      <trkpt lat="52.308930000" lon="4.831210000">
        <ele>-6.880</ele>
      </trkpt>
      <trkpt lat="52.308840000" lon="4.831470000">
        <ele>-5.370</ele>
      </trkpt>
      <trkpt lat="52.308820000" lon="4.831550000">
        <ele>-4.470</ele>
      </trkpt>
      <trkpt lat="52.308720000" lon="4.831630000">
        <ele>-3.560</ele>
      </trkpt>
      <trkpt lat="52.308720000" lon="4.831630000">
        <ele>-3.560</ele>
      </trkpt>
      <trkpt lat="52.308680000" lon="4.831660000">
        <ele>-3.110</ele>
      </trkpt>
      <trkpt lat="52.308610000" lon="4.831750000">
        <ele>-1.220</ele>
      </trkpt>
      <trkpt lat="52.308410000" lon="4.832000000">
        <ele>2.040</ele>
      </trkpt>
      <trkpt lat="52.308330000" lon="4.832080000">
        <ele>2.430</ele>
      </trkpt>
      <trkpt lat="52.308300000" lon="4.832190000">
        <ele>3.380</ele>
      </trkpt>
      <trkpt lat="52.308160000" lon="4.832710000">
        <ele>5.040</ele>
      </trkpt>
      <trkpt lat="52.308010000" lon="4.833190000">
        <ele>0.730</ele>
      </trkpt>
      <trkpt lat="52.307740000" lon="4.833780000">
        <ele>-3.830</ele>
      </trkpt>
      <trkpt lat="52.307530000" lon="4.834100000">
        <ele>-3.770</ele>
      </trkpt>
      <trkpt lat="52.307320000" lon="4.834680000">
        <ele>2.250</ele>
      </trkpt>
      <trkpt lat="52.307050000" lon="4.835750000">
        <ele>4.710</ele>
      </trkpt>
      <trkpt lat="52.307040000" lon="4.835780000">
        <ele>4.590</ele>
      </trkpt>
      <trkpt lat="52.306920000" lon="4.836250000">
        <ele>1.740</ele>
      </trkpt>
      <trkpt lat="52.306870000" lon="4.836510000">
        <ele>0.890</ele>
      </trkpt>
      <trkpt lat="52.306770000" lon="4.836960000">
        <ele>-0.810</ele>
      </trkpt>
      <trkpt lat="52.306390000" lon="4.838620000">
        <ele>4.990</ele>
      </trkpt>
      <trkpt lat="52.306250000" lon="4.839210000">
        <ele>5.000</ele>
      </trkpt>
      <trkpt lat="52.306240000" lon="4.839260000">
        <ele>5.050</ele>
      </trkpt>
      <trkpt lat="52.306240000" lon="4.839260000">
        <ele>5.050</ele>
      </trkpt>
      <trkpt lat="52.306220000" lon="4.839250000">
        <ele>5.150</ele>
      </trkpt>
      <trkpt lat="52.306240000" lon="4.839260000">
        <ele>5.050</ele>
      </trkpt>
      <trkpt lat="52.306460000" lon="4.839570000">
        <ele>4.210</ele>
      </trkpt>
      <trkpt lat="52.306760000" lon="4.839860000">
        <ele>3.320</ele>
      </trkpt>
      <trkpt lat="52.307100000" lon="4.840050000">
        <ele>1.140</ele>
      </trkpt>
      <trkpt lat="52.307380000" lon="4.840240000">
        <ele>2.900</ele>
      </trkpt>
      <trkpt lat="52.307620000" lon="4.840450000">
        <ele>4.240</ele>
      </trkpt>
      <trkpt lat="52.307840000" lon="4.840410000">
        <ele>0.810</ele>
      </trkpt>
      <trkpt lat="52.308090000" lon="4.840380000">
        <ele>-1.260</ele>
      </trkpt>
      <trkpt lat="52.308420000" lon="4.840280000">
        <ele>1.280</ele>
      </trkpt>
      <trkpt lat="52.308590000" lon="4.840180000">
        <ele>1.950</ele>
      </trkpt>
      <trkpt lat="52.308790000" lon="4.839940000">
        <ele>3.350</ele>
      </trkpt>
      <trkpt lat="52.309000000" lon="4.839720000">
        <ele>7.380</ele>
      </trkpt>
      <trkpt lat="52.309110000" lon="4.839660000">
        <ele>8.970</ele>
      </trkpt>
      <trkpt lat="52.309150000" lon="4.839630000">
        <ele>9.350</ele>
      </trkpt>
      <trkpt lat="52.309150000" lon="4.839630000">
        <ele>9.350</ele>
      </trkpt>
      <trkpt lat="52.309110000" lon="4.839660000">
        <ele>8.970</ele>
      </trkpt>
      <trkpt lat="52.309220000" lon="4.839590000">
        <ele>9.000</ele>
      </trkpt>
      <trkpt lat="52.309350000" lon="4.839510000">
        <ele>7.440</ele>
      </trkpt>
      <trkpt lat="52.309610000" lon="4.839370000">
        <ele>2.000</ele>
      </trkpt>
      <trkpt lat="52.310050000" lon="4.839250000">
        <ele>-9.200</ele>
      </trkpt>
      <trkpt lat="52.310240000" lon="4.839250000">
        <ele>-8.450</ele>
      </trkpt>
      <trkpt lat="52.310270000" lon="4.839260000">
        <ele>-8.360</ele>
      </trkpt>
      <trkpt lat="52.310270000" lon="4.839260000">
        <ele>-8.360</ele>
      </trkpt>
      <trkpt lat="52.310270000" lon="4.839260000">
        <ele>-8.360</ele>
      </trkpt>
      <trkpt lat="52.310350000" lon="4.839280000">
        <ele>-7.570</ele>
      </trkpt>
      <trkpt lat="52.310420000" lon="4.839300000">
        <ele>-6.720</ele>
      </trkpt>
      <trkpt lat="52.310700000" lon="4.839480000">
        <ele>-2.900</ele>
      </trkpt>
      <trkpt lat="52.310890000" lon="4.839710000">
        <ele>-2.180</ele>
      </trkpt>
      <trkpt lat="52.311000000" lon="4.839880000">
        <ele>0.880</ele>
      </trkpt>
      <trkpt lat="52.311140000" lon="4.840100000">
        <ele>3.680</ele>
      </trkpt>
      <trkpt lat="52.311370000" lon="4.840510000">
        <ele>6.330</ele>
      </trkpt>
      <trkpt lat="52.311420000" lon="4.840500000">
        <ele>6.360</ele>
      </trkpt>
      <trkpt lat="52.311420000" lon="4.840500000">
        <ele>6.360</ele>
      </trkpt>
      <trkpt lat="52.311420000" lon="4.840500000">
        <ele>6.360</ele>
      </trkpt>
      <trkpt lat="52.311480000" lon="4.840490000">
        <ele>6.140</ele>
      </trkpt>
      <trkpt lat="52.311490000" lon="4.840340000">
        <ele>4.110</ele>
      </trkpt>
      <trkpt lat="52.311500000" lon="4.838420000">
        <ele>1.870</ele>
      </trkpt>
      <trkpt lat="52.311500000" lon="4.838390000">
        <ele>1.220</ele>
      </trkpt>
      <trkpt lat="52.311500000" lon="4.838090000">
        <ele>0.180</ele>
      </trkpt>
      <trkpt lat="52.311480000" lon="4.837710000">
        <ele>-3.760</ele>
      </trkpt>
      <trkpt lat="52.311480000" lon="4.837710000">
        <ele>-3.760</ele>
      </trkpt>
      <trkpt lat="52.311480000" lon="4.837710000">
        <ele>-3.760</ele>
      </trkpt>
      <trkpt lat="52.311510000" lon="4.837710000">
        <ele>-3.840</ele>
      </trkpt>
      <trkpt lat="52.311520000" lon="4.837750000">
        <ele>-4.220</ele>
      </trkpt>
      <trkpt lat="52.311560000" lon="4.837750000">
        <ele>-4.350</ele>
      </trkpt>
      <trkpt lat="52.311650000" lon="4.837760000">
        <ele>-4.750</ele>
      </trkpt>
      <trkpt lat="52.313080000" lon="4.837790000">
        <ele>-12.480</ele>
      </trkpt>
      <trkpt lat="52.313200000" lon="4.837820000">
        <ele>-9.960</ele>
      </trkpt>
      <trkpt lat="52.313330000" lon="4.837820000">
        <ele>-7.220</ele>
      </trkpt>
      <trkpt lat="52.313750000" lon="4.837790000">
        <ele>4.000</ele>
      </trkpt>
      <trkpt lat="52.313740000" lon="4.837850000">
        <ele>3.730</ele>
      </trkpt>
      <trkpt lat="52.313740000" lon="4.837850000">
        <ele>3.730</ele>
      </trkpt>
      <trkpt lat="52.313750000" lon="4.837790000">
        <ele>4.000</ele>
      </trkpt>
      <trkpt lat="52.313830000" lon="4.837840000">
        <ele>6.170</ele>
      </trkpt>
      <trkpt lat="52.314040000" lon="4.838000000">
        <ele>9.480</ele>
      </trkpt>
      <trkpt lat="52.314270000" lon="4.838240000">
        <ele>5.270</ele>
      </trkpt>
      <trkpt lat="52.314370000" lon="4.838280000">
        <ele>3.880</ele>
      </trkpt>
      <trkpt lat="52.314560000" lon="4.838310000">
        <ele>2.450</ele>
      </trkpt>
      <trkpt lat="52.314860000" lon="4.838300000">
        <ele>1.800</ele>
      </trkpt>
      <trkpt lat="52.315410000" lon="4.838340000">
        <ele>-0.460</ele>
      </trkpt>
      <trkpt lat="52.315430000" lon="4.838340000">
        <ele>-0.680</ele>
      </trkpt>
      <trkpt lat="52.315430000" lon="4.838340000">
        <ele>-0.680</ele>
      </trkpt>
      <trkpt lat="52.315430000" lon="4.838340000">
        <ele>-0.680</ele>
      </trkpt>
      <trkpt lat="52.315780000" lon="4.838360000">
        <ele>-4.380</ele>
      </trkpt>
      <trkpt lat="52.315900000" lon="4.838320000">
        <ele>-4.590</ele>
      </trkpt>
      <trkpt lat="52.316040000" lon="4.838190000">
        <ele>-4.800</ele>
      </trkpt>
      <trkpt lat="52.316240000" lon="4.837990000">
        <ele>-4.040</ele>
      </trkpt>
      <trkpt lat="52.316250000" lon="4.837990000">
        <ele>-3.850</ele>
      </trkpt>
      <trkpt lat="52.316250000" lon="4.837990000">
        <ele>-3.850</ele>
      </trkpt>
      <trkpt lat="52.317020000" lon="4.838340000">
        <ele>-4.090</ele>
      </trkpt>
      <trkpt lat="52.317020000" lon="4.838340000">
        <ele>-4.090</ele>
      </trkpt>
      <trkpt lat="52.317530000" lon="4.838490000">
        <ele>-5.170</ele>
      </trkpt>
      <trkpt lat="52.318040000" lon="4.838640000">
        <ele>2.960</ele>
      </trkpt>
      <trkpt lat="52.318040000" lon="4.838640000">
        <ele>2.960</ele>
      </trkpt>
      <trkpt lat="52.318040000" lon="4.838630000">
        <ele>2.860</ele>
      </trkpt>
      <trkpt lat="52.318440000" lon="4.838750000">
        <ele>5.650</ele>
      </trkpt>
      <trkpt lat="52.318550000" lon="4.839010000">
        <ele>6.450</ele>
      </trkpt>
      <trkpt lat="52.318670000" lon="4.839290000">
        <ele>3.740</ele>
      </trkpt>
      <trkpt lat="52.318700000" lon="4.839380000">
        <ele>3.090</ele>
      </trkpt>
      <trkpt lat="52.318700000" lon="4.839380000">
        <ele>3.090</ele>
      </trkpt>
      <trkpt lat="52.318700000" lon="4.839380000">
        <ele>3.090</ele>
      </trkpt>
      <trkpt lat="52.318720000" lon="4.839410000">
        <ele>2.680</ele>
      </trkpt>
      <trkpt lat="52.318790000" lon="4.839630000">
        <ele>1.620</ele>
      </trkpt>
      <trkpt lat="52.318810000" lon="4.839690000">
        <ele>1.520</ele>
      </trkpt>
      <trkpt lat="52.318830000" lon="4.839750000">
        <ele>1.360</ele>
      </trkpt>
      <trkpt lat="52.318860000" lon="4.839860000">
        <ele>1.050</ele>
      </trkpt>
      <trkpt lat="52.318870000" lon="4.839920000">
        <ele>0.990</ele>
      </trkpt>
      <trkpt lat="52.318880000" lon="4.839980000">
        <ele>0.970</ele>
      </trkpt>
      <trkpt lat="52.318900000" lon="4.840090000">
        <ele>-0.380</ele>
      </trkpt>
      <trkpt lat="52.318910000" lon="4.840210000">
        <ele>-2.080</ele>
      </trkpt>
      <trkpt lat="52.318920000" lon="4.840320000">
        <ele>-3.290</ele>
      </trkpt>
      <trkpt lat="52.318890000" lon="4.840320000">
        <ele>-3.300</ele>
      </trkpt>
      <trkpt lat="52.318900000" lon="4.840330000">
        <ele>-3.370</ele>
      </trkpt>
      <trkpt lat="52.318900000" lon="4.840480000">
        <ele>-4.430</ele>
      </trkpt>
      <trkpt lat="52.318900000" lon="4.840870000">
        <ele>-3.870</ele>
      </trkpt>
      <trkpt lat="52.318890000" lon="4.841220000">
        <ele>-2.610</ele>
      </trkpt>
      <trkpt lat="52.318860000" lon="4.841210000">
        <ele>-2.810</ele>
      </trkpt>
      <trkpt lat="52.318840000" lon="4.841230000">
        <ele>-2.850</ele>
      </trkpt>
      <trkpt lat="52.318840000" lon="4.841230000">
        <ele>-2.850</ele>
      </trkpt>
      <trkpt lat="52.318840000" lon="4.841230000">
        <ele>-2.850</ele>
      </trkpt>
      <trkpt lat="52.318890000" lon="4.841250000">
        <ele>-2.500</ele>
      </trkpt>
      <trkpt lat="52.318920000" lon="4.841260000">
        <ele>-2.580</ele>
      </trkpt>
      <trkpt lat="52.318920000" lon="4.841480000">
        <ele>-2.400</ele>
      </trkpt>
      <trkpt lat="52.319170000" lon="4.841530000">
        <ele>-3.050</ele>
      </trkpt>
      <trkpt lat="52.319260000" lon="4.841570000">
        <ele>-4.240</ele>
      </trkpt>
      <trkpt lat="52.319370000" lon="4.841670000">
        <ele>-5.170</ele>
      </trkpt>
      <trkpt lat="52.319500000" lon="4.841800000">
        <ele>-5.350</ele>
      </trkpt>
      <trkpt lat="52.319550000" lon="4.841890000">
        <ele>-5.340</ele>
      </trkpt>
      <trkpt lat="52.319550000" lon="4.841890000">
        <ele>-5.340</ele>
      </trkpt>
      <trkpt lat="52.319550000" lon="4.841890000">
        <ele>-5.340</ele>
      </trkpt>
      <trkpt lat="52.319600000" lon="4.841970000">
        <ele>-5.670</ele>
      </trkpt>
      <trkpt lat="52.319680000" lon="4.842150000">
        <ele>-6.390</ele>
      </trkpt>
      <trkpt lat="52.319750000" lon="4.842330000">
        <ele>-7.060</ele>
      </trkpt>
      <trkpt lat="52.319790000" lon="4.842550000">
        <ele>-6.860</ele>
      </trkpt>
      <trkpt lat="52.319820000" lon="4.842710000">
        <ele>-6.510</ele>
      </trkpt>
      <trkpt lat="52.319860000" lon="4.842980000">
        <ele>-4.680</ele>
      </trkpt>
      <trkpt lat="52.319870000" lon="4.843650000">
        <ele>-1.930</ele>
      </trkpt>
      <trkpt lat="52.319870000" lon="4.843650000">
        <ele>-1.930</ele>
      </trkpt>
      <trkpt lat="52.319870000" lon="4.843650000">
        <ele>-1.930</ele>
      </trkpt>
      <trkpt lat="52.319850000" lon="4.843640000">
        <ele>-1.810</ele>
      </trkpt>
      <trkpt lat="52.319850000" lon="4.845270000">
        <ele>-0.380</ele>
      </trkpt>
      <trkpt lat="52.319870000" lon="4.845380000">
        <ele>-0.420</ele>
      </trkpt>
      <trkpt lat="52.319880000" lon="4.845430000">
        <ele>-0.470</ele>
      </trkpt>
      <trkpt lat="52.319890000" lon="4.845480000">
        <ele>-0.520</ele>
      </trkpt>
      <trkpt lat="52.320000000" lon="4.845670000">
        <ele>-1.180</ele>
      </trkpt>
      <trkpt lat="52.320080000" lon="4.845810000">
        <ele>-2.690</ele>
      </trkpt>
      <trkpt lat="52.320080000" lon="4.845810000">
        <ele>-2.690</ele>
      </trkpt>
      <trkpt lat="52.320080000" lon="4.845810000">
        <ele>-2.690</ele>
      </trkpt>
      <trkpt lat="52.320130000" lon="4.845890000">
        <ele>-4.320</ele>
      </trkpt>
      <trkpt lat="52.320150000" lon="4.845860000">
        <ele>-4.900</ele>
      </trkpt>
      <trkpt lat="52.320500000" lon="4.845310000">
        <ele>-7.920</ele>
      </trkpt>
      <trkpt lat="52.320590000" lon="4.845190000">
        <ele>-6.590</ele>
      </trkpt>
      <trkpt lat="52.320690000" lon="4.845100000">
        <ele>-5.150</ele>
      </trkpt>
      <trkpt lat="52.320780000" lon="4.845050000">
        <ele>-4.190</ele>
      </trkpt>
      <trkpt lat="52.320870000" lon="4.845020000">
        <ele>-3.960</ele>
      </trkpt>
      <trkpt lat="52.321000000" lon="4.845020000">
        <ele>-5.560</ele>
      </trkpt>
      <trkpt lat="52.321110000" lon="4.845060000">
        <ele>-6.770</ele>
      </trkpt>
      <trkpt lat="52.321110000" lon="4.845060000">
        <ele>-6.770</ele>
      </trkpt>
      <trkpt lat="52.321110000" lon="4.845060000">
        <ele>-6.770</ele>
      </trkpt>
      <trkpt lat="52.321000000" lon="4.845020000">
        <ele>-5.560</ele>
      </trkpt>
      <trkpt lat="52.320870000" lon="4.845020000">
        <ele>-3.960</ele>
      </trkpt>
      <trkpt lat="52.320780000" lon="4.845050000">
        <ele>-4.190</ele>
      </trkpt>
      <trkpt lat="52.320690000" lon="4.845100000">
        <ele>-5.150</ele>
      </trkpt>
      <trkpt lat="52.320590000" lon="4.845190000">
        <ele>-6.590</ele>
      </trkpt>
      <trkpt lat="52.320500000" lon="4.845310000">
        <ele>-7.920</ele>
      </trkpt>
      <trkpt lat="52.320150000" lon="4.845860000">
        <ele>-4.900</ele>
      </trkpt>
      <trkpt lat="52.320180000" lon="4.845910000">
        <ele>-5.930</ele>
      </trkpt>
      <trkpt lat="52.320390000" lon="4.845580000">
        <ele>-9.340</ele>
      </trkpt>
      <trkpt lat="52.320490000" lon="4.845420000">
        <ele>-8.940</ele>
      </trkpt>
      <trkpt lat="52.320590000" lon="4.845270000">
        <ele>-8.100</ele>
      </trkpt>
      <trkpt lat="52.320640000" lon="4.845230000">
        <ele>-7.640</ele>
      </trkpt>
      <trkpt lat="52.320690000" lon="4.845180000">
        <ele>-6.870</ele>
      </trkpt>
      <trkpt lat="52.320730000" lon="4.845150000">
        <ele>-6.380</ele>
      </trkpt>
      <trkpt lat="52.320780000" lon="4.845130000">
        <ele>-6.100</ele>
      </trkpt>
      <trkpt lat="52.320860000" lon="4.845100000">
        <ele>-5.630</ele>
      </trkpt>
      <trkpt lat="52.320940000" lon="4.845090000">
        <ele>-5.810</ele>
      </trkpt>
      <trkpt lat="52.321000000" lon="4.845100000">
        <ele>-6.190</ele>
      </trkpt>
      <trkpt lat="52.321070000" lon="4.845110000">
        <ele>-6.480</ele>
      </trkpt>
      <trkpt lat="52.321130000" lon="4.845140000">
        <ele>-6.260</ele>
      </trkpt>
      <trkpt lat="52.321190000" lon="4.845170000">
        <ele>-5.360</ele>
      </trkpt>
      <trkpt lat="52.321290000" lon="4.845250000">
        <ele>-3.590</ele>
      </trkpt>
      <trkpt lat="52.321380000" lon="4.845350000">
        <ele>-2.150</ele>
      </trkpt>
      <trkpt lat="52.321840000" lon="4.846120000">
        <ele>0.600</ele>
      </trkpt>
      <trkpt lat="52.321940000" lon="4.846390000">
        <ele>0.950</ele>
      </trkpt>
      <trkpt lat="52.321980000" lon="4.846570000">
        <ele>1.260</ele>
      </trkpt>
      <trkpt lat="52.321980000" lon="4.846570000">
        <ele>1.260</ele>
      </trkpt>
      <trkpt lat="52.321980000" lon="4.846570000">
        <ele>1.260</ele>
      </trkpt>
      <trkpt lat="52.321980000" lon="4.846590000">
        <ele>1.260</ele>
      </trkpt>
      <trkpt lat="52.321990000" lon="4.846880000">
        <ele>-0.210</ele>
      </trkpt>
      <trkpt lat="52.321950000" lon="4.847240000">
        <ele>-2.980</ele>
      </trkpt>
      <trkpt lat="52.321730000" lon="4.847730000">
        <ele>-5.900</ele>
      </trkpt>
      <trkpt lat="52.321540000" lon="4.848040000">
        <ele>-5.520</ele>
      </trkpt>
      <trkpt lat="52.321610000" lon="4.848020000">
        <ele>-5.410</ele>
      </trkpt>
      <trkpt lat="52.321640000" lon="4.848060000">
        <ele>-5.110</ele>
      </trkpt>
      <trkpt lat="52.321700000" lon="4.848140000">
        <ele>-4.790</ele>
      </trkpt>
      <trkpt lat="52.321770000" lon="4.848200000">
        <ele>-3.840</ele>
      </trkpt>
      <trkpt lat="52.321790000" lon="4.848110000">
        <ele>-3.330</ele>
      </trkpt>
      <trkpt lat="52.321790000" lon="4.848110000">
        <ele>-3.330</ele>
      </trkpt>
      <trkpt lat="52.321790000" lon="4.848110000">
        <ele>-3.330</ele>
      </trkpt>
      <trkpt lat="52.321770000" lon="4.848200000">
        <ele>-3.840</ele>
      </trkpt>
      <trkpt lat="52.321950000" lon="4.848220000">
        <ele>-0.970</ele>
      </trkpt>
      <trkpt lat="52.322310000" lon="4.848260000">
        <ele>-0.210</ele>
      </trkpt>
      <trkpt lat="52.322420000" lon="4.848270000">
        <ele>-1.360</ele>
      </trkpt>
      <trkpt lat="52.322420000" lon="4.848370000">
        <ele>-1.630</ele>
      </trkpt>
      <trkpt lat="52.322640000" lon="4.848350000">
        <ele>-4.550</ele>
      </trkpt>
      <trkpt lat="52.322850000" lon="4.848330000">
        <ele>-8.310</ele>
      </trkpt>
      <trkpt lat="52.323090000" lon="4.848340000">
        <ele>-12.220</ele>
      </trkpt>
      <trkpt lat="52.323090000" lon="4.848340000">
        <ele>-12.220</ele>
      </trkpt>
      <trkpt lat="52.323090000" lon="4.848340000">
        <ele>-12.220</ele>
      </trkpt>
      <trkpt lat="52.323100000" lon="4.848340000">
        <ele>-12.300</ele>
      </trkpt>
      <trkpt lat="52.323360000" lon="4.848450000">
        <ele>-13.290</ele>
      </trkpt>
      <trkpt lat="52.323870000" lon="4.848680000">
        <ele>-6.400</ele>
      </trkpt>
      <trkpt lat="52.323920000" lon="4.849030000">
        <ele>-7.620</ele>
      </trkpt>
      <trkpt lat="52.324030000" lon="4.849860000">
        <ele>-7.760</ele>
      </trkpt>
      <trkpt lat="52.324150000" lon="4.850530000">
        <ele>-5.180</ele>
      </trkpt>
      <trkpt lat="52.324260000" lon="4.851040000">
        <ele>-6.090</ele>
      </trkpt>
      <trkpt lat="52.324430000" lon="4.851760000">
        <ele>-10.710</ele>
      </trkpt>
      <trkpt lat="52.324740000" lon="4.852730000">
        <ele>-6.280</ele>
      </trkpt>
      <trkpt lat="52.324840000" lon="4.852970000">
        <ele>-7.140</ele>
      </trkpt>
      <trkpt lat="52.324940000" lon="4.853200000">
        <ele>-8.540</ele>
      </trkpt>
      <trkpt lat="52.325190000" lon="4.853610000">
        <ele>-10.690</ele>
      </trkpt>
      <trkpt lat="52.325430000" lon="4.853910000">
        <ele>-6.710</ele>
      </trkpt>
      <trkpt lat="52.325790000" lon="4.854200000">
        <ele>-3.400</ele>
      </trkpt>
      <trkpt lat="52.325960000" lon="4.854340000">
        <ele>-0.200</ele>
      </trkpt>
      <trkpt lat="52.326240000" lon="4.854560000">
        <ele>7.020</ele>
      </trkpt>
      <trkpt lat="52.326830000" lon="4.855010000">
        <ele>3.760</ele>
      </trkpt>
    </trkseg>
  </trk>
</gpx>
