<?xml version="1.0" encoding="UTF-8"?>        <gpx xmlns="http://www.topografix.com/GPX/1/1" version="1.1" creator="Wandelnetwerk Noord-Holland"
            xmlns:xsi="http://www.w3.org/2001/XMLSchema-instance" xsi:schemaLocation="http://www.topografix.com/GPX/1/1 http://www.topografix.com/GPX/1/1/gpx.xsd"
            xmlns:gpxx="http://www.garmin.com/xmlschemas/GpxExtensions/v3"
            xmlns:ctx="http://www.garmin.com/xmlschemas/CreationTimeExtension/v1">
            <metadata>
                <name>
                    Bijlmerweideroute (groen)
                </name>
                <link href="https://www.wandelnetwerknoordholland.nl">
                    <text>Wandelnetwerk Noord-Holland</text>
                </link>
                <time>2022-10-25T15:52:41+02:00</time>
                <bounds maxlat="52.338154" maxlon="4.990464" minlat="52.326467" minlon="4.954202" />
            </metadata>
                <wpt lat="52.332787" lon="4.989538">
        <time>2022-10-25T15:52:41+02:00</time>
        <name>Startpunt Diemerbos (toeristisch overstappunt) (51)</name>
        <sym>Flag, Blue</sym>
        <type>user</type>
        <extensions>
            <gpxx:WaypointExtension>
                <gpxx:DisplayMode>SymbolAndName</gpxx:DisplayMode>
            </gpxx:WaypointExtension>
            <ctx:CreationTimeExtension>
                <ctx:CreationTime>2022-10-25T15:52:41+02:00</ctx:CreationTime>
            </ctx:CreationTimeExtension>
        </extensions>
    </wpt>    <wpt lat="52.332418" lon="4.990085">
        <time>2022-10-25T15:52:41+02:00</time>
        <name>Punt 52</name>
        <sym>Flag, Blue</sym>
        <type>user</type>
        <extensions>
            <gpxx:WaypointExtension>
                <gpxx:DisplayMode>SymbolAndName</gpxx:DisplayMode>
            </gpxx:WaypointExtension>
            <ctx:CreationTimeExtension>
                <ctx:CreationTime>2022-10-25T15:52:41+02:00</ctx:CreationTime>
            </ctx:CreationTimeExtension>
        </extensions>
    </wpt>    <wpt lat="52.328249" lon="4.990464">
        <time>2022-10-25T15:52:41+02:00</time>
        <name>Punt 53</name>
        <sym>Flag, Blue</sym>
        <type>user</type>
        <extensions>
            <gpxx:WaypointExtension>
                <gpxx:DisplayMode>SymbolAndName</gpxx:DisplayMode>
            </gpxx:WaypointExtension>
            <ctx:CreationTimeExtension>
                <ctx:CreationTime>2022-10-25T15:52:41+02:00</ctx:CreationTime>
            </ctx:CreationTimeExtension>
        </extensions>
    </wpt>    <wpt lat="52.326467" lon="4.987278">
        <time>2022-10-25T15:52:41+02:00</time>
        <name>Punt 49</name>
        <sym>Flag, Blue</sym>
        <type>user</type>
        <extensions>
            <gpxx:WaypointExtension>
                <gpxx:DisplayMode>SymbolAndName</gpxx:DisplayMode>
            </gpxx:WaypointExtension>
            <ctx:CreationTimeExtension>
                <ctx:CreationTime>2022-10-25T15:52:41+02:00</ctx:CreationTime>
            </ctx:CreationTimeExtension>
        </extensions>
    </wpt>    <wpt lat="52.330686" lon="4.977542">
        <time>2022-10-25T15:52:41+02:00</time>
        <name>Punt 71</name>
        <sym>Flag, Blue</sym>
        <type>user</type>
        <extensions>
            <gpxx:WaypointExtension>
                <gpxx:DisplayMode>SymbolAndName</gpxx:DisplayMode>
            </gpxx:WaypointExtension>
            <ctx:CreationTimeExtension>
                <ctx:CreationTime>2022-10-25T15:52:41+02:00</ctx:CreationTime>
            </ctx:CreationTimeExtension>
        </extensions>
    </wpt>    <wpt lat="52.329817" lon="4.954976">
        <time>2022-10-25T15:52:41+02:00</time>
        <name>Startpunt Station Diemen-Zuid (73)</name>
        <sym>Flag, Blue</sym>
        <type>user</type>
        <extensions>
            <gpxx:WaypointExtension>
                <gpxx:DisplayMode>SymbolAndName</gpxx:DisplayMode>
            </gpxx:WaypointExtension>
            <ctx:CreationTimeExtension>
                <ctx:CreationTime>2022-10-25T15:52:41+02:00</ctx:CreationTime>
            </ctx:CreationTimeExtension>
        </extensions>
    </wpt>    <wpt lat="52.330759" lon="4.954202">
        <time>2022-10-25T15:52:41+02:00</time>
        <name>Punt 74</name>
        <sym>Flag, Blue</sym>
        <type>user</type>
        <extensions>
            <gpxx:WaypointExtension>
                <gpxx:DisplayMode>SymbolAndName</gpxx:DisplayMode>
            </gpxx:WaypointExtension>
            <ctx:CreationTimeExtension>
                <ctx:CreationTime>2022-10-25T15:52:41+02:00</ctx:CreationTime>
            </ctx:CreationTimeExtension>
        </extensions>
    </wpt>    <wpt lat="52.335931" lon="4.966356">
        <time>2022-10-25T15:52:41+02:00</time>
        <name>Punt 75</name>
        <sym>Flag, Blue</sym>
        <type>user</type>
        <extensions>
            <gpxx:WaypointExtension>
                <gpxx:DisplayMode>SymbolAndName</gpxx:DisplayMode>
            </gpxx:WaypointExtension>
            <ctx:CreationTimeExtension>
                <ctx:CreationTime>2022-10-25T15:52:41+02:00</ctx:CreationTime>
            </ctx:CreationTimeExtension>
        </extensions>
    </wpt>    <wpt lat="52.337912" lon="4.96042">
        <time>2022-10-25T15:52:41+02:00</time>
        <name>Punt 76</name>
        <sym>Flag, Blue</sym>
        <type>user</type>
        <extensions>
            <gpxx:WaypointExtension>
                <gpxx:DisplayMode>SymbolAndName</gpxx:DisplayMode>
            </gpxx:WaypointExtension>
            <ctx:CreationTimeExtension>
                <ctx:CreationTime>2022-10-25T15:52:41+02:00</ctx:CreationTime>
            </ctx:CreationTimeExtension>
        </extensions>
    </wpt>    <wpt lat="52.338154" lon="4.961497">
        <time>2022-10-25T15:52:41+02:00</time>
        <name>Punt 62</name>
        <sym>Flag, Blue</sym>
        <type>user</type>
        <extensions>
            <gpxx:WaypointExtension>
                <gpxx:DisplayMode>SymbolAndName</gpxx:DisplayMode>
            </gpxx:WaypointExtension>
            <ctx:CreationTimeExtension>
                <ctx:CreationTime>2022-10-25T15:52:41+02:00</ctx:CreationTime>
            </ctx:CreationTimeExtension>
        </extensions>
    </wpt>    <wpt lat="52.337129" lon="4.967986">
        <time>2022-10-25T15:52:41+02:00</time>
        <name>Punt 79</name>
        <sym>Flag, Blue</sym>
        <type>user</type>
        <extensions>
            <gpxx:WaypointExtension>
                <gpxx:DisplayMode>SymbolAndName</gpxx:DisplayMode>
            </gpxx:WaypointExtension>
            <ctx:CreationTimeExtension>
                <ctx:CreationTime>2022-10-25T15:52:41+02:00</ctx:CreationTime>
            </ctx:CreationTimeExtension>
        </extensions>
    </wpt>    <wpt lat="52.335544" lon="4.977777">
        <time>2022-10-25T15:52:41+02:00</time>
        <name>Punt 72</name>
        <sym>Flag, Blue</sym>
        <type>user</type>
        <extensions>
            <gpxx:WaypointExtension>
                <gpxx:DisplayMode>SymbolAndName</gpxx:DisplayMode>
            </gpxx:WaypointExtension>
            <ctx:CreationTimeExtension>
                <ctx:CreationTime>2022-10-25T15:52:41+02:00</ctx:CreationTime>
            </ctx:CreationTimeExtension>
        </extensions>
    </wpt>    <wpt lat="52.338016" lon="4.984671">
        <time>2022-10-25T15:52:41+02:00</time>
        <name>Punt 57</name>
        <sym>Flag, Blue</sym>
        <type>user</type>
        <extensions>
            <gpxx:WaypointExtension>
                <gpxx:DisplayMode>SymbolAndName</gpxx:DisplayMode>
            </gpxx:WaypointExtension>
            <ctx:CreationTimeExtension>
                <ctx:CreationTime>2022-10-25T15:52:41+02:00</ctx:CreationTime>
            </ctx:CreationTimeExtension>
        </extensions>
    </wpt>    <wpt lat="52.333513" lon="4.981478">
        <time>2022-10-25T15:52:41+02:00</time>
        <name>Punt 54</name>
        <sym>Flag, Blue</sym>
        <type>user</type>
        <extensions>
            <gpxx:WaypointExtension>
                <gpxx:DisplayMode>SymbolAndName</gpxx:DisplayMode>
            </gpxx:WaypointExtension>
            <ctx:CreationTimeExtension>
                <ctx:CreationTime>2022-10-25T15:52:41+02:00</ctx:CreationTime>
            </ctx:CreationTimeExtension>
        </extensions>
    </wpt>    <wpt lat="52.332787" lon="4.989538">
        <time>2022-10-25T15:52:41+02:00</time>
        <name>Startpunt Diemerbos (toeristisch overstappunt) (51)</name>
        <sym>Flag, Blue</sym>
        <type>user</type>
        <extensions>
            <gpxx:WaypointExtension>
                <gpxx:DisplayMode>SymbolAndName</gpxx:DisplayMode>
            </gpxx:WaypointExtension>
            <ctx:CreationTimeExtension>
                <ctx:CreationTime>2022-10-25T15:52:41+02:00</ctx:CreationTime>
            </ctx:CreationTimeExtension>
        </extensions>
    </wpt>
            <trk>
                <name>Bijlmerweideroute (groen)</name>
                <extensions>
                    <gpxx:TrackExtension>
                        <gpxx:DisplayColor>DarkRed</gpxx:DisplayColor>
                    </gpxx:TrackExtension>
                </extensions>
                <trkseg>    <trkpt lat="52.332787" lon="4.989538">
        <ele>0</ele>
        <time>2026-08-26T21:18:44+02:00</time>
    </trkpt>    <trkpt lat="52.332418" lon="4.990085">
        <ele>0</ele>
        <time>2026-08-26T21:19:28+02:00</time>
    </trkpt>    <trkpt lat="52.332043" lon="4.989591">
        <ele>0</ele>
        <time>2026-08-26T21:20:11+02:00</time>
    </trkpt>    <trkpt lat="52.331079" lon="4.990093">
        <ele>0</ele>
        <time>2026-08-26T21:21:41+02:00</time>
    </trkpt>    <trkpt lat="52.33016" lon="4.990343">
        <ele>0</ele>
        <time>2026-08-26T21:23:04+02:00</time>
    </trkpt>    <trkpt lat="52.328249" lon="4.990464">
        <ele>0</ele>
        <time>2026-08-26T21:25:54+02:00</time>
    </trkpt>    <trkpt lat="52.328256" lon="4.989005">
        <ele>0</ele>
        <time>2026-08-26T21:27:13+02:00</time>
    </trkpt>    <trkpt lat="52.327481" lon="4.987777">
        <ele>0</ele>
        <time>2026-08-26T21:28:49+02:00</time>
    </trkpt>    <trkpt lat="52.327109" lon="4.987514">
        <ele>0</ele>
        <time>2026-08-26T21:29:25+02:00</time>
    </trkpt>    <trkpt lat="52.326467" lon="4.987278">
        <ele>0</ele>
        <time>2026-08-26T21:30:24+02:00</time>
    </trkpt>    <trkpt lat="52.326144" lon="4.986923">
        <ele>0</ele>
        <time>2026-08-26T21:30:59+02:00</time>
    </trkpt>    <trkpt lat="52.326486" lon="4.986615">
        <ele>0</ele>
        <time>2026-08-26T21:31:34+02:00</time>
    </trkpt>    <trkpt lat="52.326598" lon="4.986457">
        <ele>0</ele>
        <time>2026-08-26T21:31:47+02:00</time>
    </trkpt>    <trkpt lat="52.326787" lon="4.986206">
        <ele>0</ele>
        <time>2026-08-26T21:32:09+02:00</time>
    </trkpt>    <trkpt lat="52.326957" lon="4.985907">
        <ele>0</ele>
        <time>2026-08-26T21:32:31+02:00</time>
    </trkpt>    <trkpt lat="52.327139" lon="4.985573">
        <ele>0</ele>
        <time>2026-08-26T21:32:55+02:00</time>
    </trkpt>    <trkpt lat="52.327343" lon="4.985388">
        <ele>0</ele>
        <time>2026-08-26T21:33:16+02:00</time>
    </trkpt>    <trkpt lat="52.327571" lon="4.985157">
        <ele>0</ele>
        <time>2026-08-26T21:33:40+02:00</time>
    </trkpt>    <trkpt lat="52.327862" lon="4.984874">
        <ele>0</ele>
        <time>2026-08-26T21:34:10+02:00</time>
    </trkpt>    <trkpt lat="52.328039" lon="4.984665">
        <ele>0</ele>
        <time>2026-08-26T21:34:29+02:00</time>
    </trkpt>    <trkpt lat="52.327774" lon="4.983947">
        <ele>0</ele>
        <time>2026-08-26T21:35:15+02:00</time>
    </trkpt>    <trkpt lat="52.328057" lon="4.983632">
        <ele>0</ele>
        <time>2026-08-26T21:35:45+02:00</time>
    </trkpt>    <trkpt lat="52.328196" lon="4.983395">
        <ele>0</ele>
        <time>2026-08-26T21:36:03+02:00</time>
    </trkpt>    <trkpt lat="52.328329" lon="4.983181">
        <ele>0</ele>
        <time>2026-08-26T21:36:20+02:00</time>
    </trkpt>    <trkpt lat="52.328548" lon="4.983065">
        <ele>0</ele>
        <time>2026-08-26T21:36:40+02:00</time>
    </trkpt>    <trkpt lat="52.32876" lon="4.982973">
        <ele>0</ele>
        <time>2026-08-26T21:37:00+02:00</time>
    </trkpt>    <trkpt lat="52.328776" lon="4.982739">
        <ele>0</ele>
        <time>2026-08-26T21:37:13+02:00</time>
    </trkpt>    <trkpt lat="52.328886" lon="4.982292">
        <ele>0</ele>
        <time>2026-08-26T21:37:39+02:00</time>
    </trkpt>    <trkpt lat="52.329182" lon="4.982169">
        <ele>0</ele>
        <time>2026-08-26T21:38:06+02:00</time>
    </trkpt>    <trkpt lat="52.329538" lon="4.981705">
        <ele>0</ele>
        <time>2026-08-26T21:38:46+02:00</time>
    </trkpt>    <trkpt lat="52.329849" lon="4.981776">
        <ele>0</ele>
        <time>2026-08-26T21:39:14+02:00</time>
    </trkpt>    <trkpt lat="52.329831" lon="4.980903">
        <ele>0</ele>
        <time>2026-08-26T21:40:01+02:00</time>
    </trkpt>    <trkpt lat="52.329711" lon="4.98042">
        <ele>0</ele>
        <time>2026-08-26T21:40:29+02:00</time>
    </trkpt>    <trkpt lat="52.329914" lon="4.979014">
        <ele>0</ele>
        <time>2026-08-26T21:41:48+02:00</time>
    </trkpt>    <trkpt lat="52.330552" lon="4.979347">
        <ele>0</ele>
        <time>2026-08-26T21:42:48+02:00</time>
    </trkpt>    <trkpt lat="52.330686" lon="4.977542">
        <ele>0</ele>
        <time>2026-08-26T21:44:27+02:00</time>
    </trkpt>    <trkpt lat="52.330564" lon="4.977442">
        <ele>0</ele>
        <time>2026-08-26T21:44:39+02:00</time>
    </trkpt>    <trkpt lat="52.32984" lon="4.976295">
        <ele>0</ele>
        <time>2026-08-26T21:46:09+02:00</time>
    </trkpt>    <trkpt lat="52.32909" lon="4.975064">
        <ele>0</ele>
        <time>2026-08-26T21:47:43+02:00</time>
    </trkpt>    <trkpt lat="52.328747" lon="4.974894">
        <ele>0</ele>
        <time>2026-08-26T21:48:15+02:00</time>
    </trkpt>    <trkpt lat="52.328693" lon="4.974798">
        <ele>0</ele>
        <time>2026-08-26T21:48:22+02:00</time>
    </trkpt>    <trkpt lat="52.328679" lon="4.974378">
        <ele>0</ele>
        <time>2026-08-26T21:48:45+02:00</time>
    </trkpt>    <trkpt lat="52.328612" lon="4.974207">
        <ele>0</ele>
        <time>2026-08-26T21:48:56+02:00</time>
    </trkpt>    <trkpt lat="52.328334" lon="4.973875">
        <ele>0</ele>
        <time>2026-08-26T21:49:27+02:00</time>
    </trkpt>    <trkpt lat="52.328195" lon="4.973726">
        <ele>0</ele>
        <time>2026-08-26T21:49:42+02:00</time>
    </trkpt>    <trkpt lat="52.328043" lon="4.973576">
        <ele>0</ele>
        <time>2026-08-26T21:49:58+02:00</time>
    </trkpt>    <trkpt lat="52.327896" lon="4.973384">
        <ele>0</ele>
        <time>2026-08-26T21:50:15+02:00</time>
    </trkpt>    <trkpt lat="52.327725" lon="4.973202">
        <ele>0</ele>
        <time>2026-08-26T21:50:33+02:00</time>
    </trkpt>    <trkpt lat="52.327651" lon="4.972902">
        <ele>0</ele>
        <time>2026-08-26T21:50:51+02:00</time>
    </trkpt>    <trkpt lat="52.327452" lon="4.972581">
        <ele>0</ele>
        <time>2026-08-26T21:51:16+02:00</time>
    </trkpt>    <trkpt lat="52.327234" lon="4.972539">
        <ele>0</ele>
        <time>2026-08-26T21:51:36+02:00</time>
    </trkpt>    <trkpt lat="52.327142" lon="4.972443">
        <ele>0</ele>
        <time>2026-08-26T21:51:46+02:00</time>
    </trkpt>    <trkpt lat="52.326988" lon="4.972025">
        <ele>0</ele>
        <time>2026-08-26T21:52:13+02:00</time>
    </trkpt>    <trkpt lat="52.32665" lon="4.971609">
        <ele>0</ele>
        <time>2026-08-26T21:52:51+02:00</time>
    </trkpt>    <trkpt lat="52.326406" lon="4.971405">
        <ele>0</ele>
        <time>2026-08-26T21:53:15+02:00</time>
    </trkpt>    <trkpt lat="52.326115" lon="4.971408">
        <ele>0</ele>
        <time>2026-08-26T21:53:41+02:00</time>
    </trkpt>    <trkpt lat="52.325931" lon="4.971593">
        <ele>0</ele>
        <time>2026-08-26T21:54:00+02:00</time>
    </trkpt>    <trkpt lat="52.325855" lon="4.971694">
        <ele>0</ele>
        <time>2026-08-26T21:54:09+02:00</time>
    </trkpt>    <trkpt lat="52.325757" lon="4.971774">
        <ele>0</ele>
        <time>2026-08-26T21:54:19+02:00</time>
    </trkpt>    <trkpt lat="52.325675" lon="4.971845">
        <ele>0</ele>
        <time>2026-08-26T21:54:27+02:00</time>
    </trkpt>    <trkpt lat="52.325508" lon="4.97136">
        <ele>0</ele>
        <time>2026-08-26T21:54:57+02:00</time>
    </trkpt>    <trkpt lat="52.325175" lon="4.970513">
        <ele>0</ele>
        <time>2026-08-26T21:55:52+02:00</time>
    </trkpt>    <trkpt lat="52.325168" lon="4.970244">
        <ele>0</ele>
        <time>2026-08-26T21:56:07+02:00</time>
    </trkpt>    <trkpt lat="52.325197" lon="4.970048">
        <ele>0</ele>
        <time>2026-08-26T21:56:18+02:00</time>
    </trkpt>    <trkpt lat="52.325099" lon="4.970043">
        <ele>0</ele>
        <time>2026-08-26T21:56:27+02:00</time>
    </trkpt>    <trkpt lat="52.325082" lon="4.969961">
        <ele>0</ele>
        <time>2026-08-26T21:56:32+02:00</time>
    </trkpt>    <trkpt lat="52.325093" lon="4.969867">
        <ele>0</ele>
        <time>2026-08-26T21:56:37+02:00</time>
    </trkpt>    <trkpt lat="52.325043" lon="4.969692">
        <ele>0</ele>
        <time>2026-08-26T21:56:48+02:00</time>
    </trkpt>    <trkpt lat="52.324873" lon="4.969589">
        <ele>0</ele>
        <time>2026-08-26T21:57:04+02:00</time>
    </trkpt>    <trkpt lat="52.324901" lon="4.968939">
        <ele>0</ele>
        <time>2026-08-26T21:57:39+02:00</time>
    </trkpt>    <trkpt lat="52.324853" lon="4.968237">
        <ele>0</ele>
        <time>2026-08-26T21:58:17+02:00</time>
    </trkpt>    <trkpt lat="52.324375" lon="4.967856">
        <ele>0</ele>
        <time>2026-08-26T21:59:04+02:00</time>
    </trkpt>    <trkpt lat="52.324252" lon="4.967553">
        <ele>0</ele>
        <time>2026-08-26T21:59:24+02:00</time>
    </trkpt>    <trkpt lat="52.324532" lon="4.967439">
        <ele>0</ele>
        <time>2026-08-26T21:59:50+02:00</time>
    </trkpt>    <trkpt lat="52.324737" lon="4.967288">
        <ele>0</ele>
        <time>2026-08-26T22:00:10+02:00</time>
    </trkpt>    <trkpt lat="52.324686" lon="4.967111">
        <ele>0</ele>
        <time>2026-08-26T22:00:21+02:00</time>
    </trkpt>    <trkpt lat="52.325694" lon="4.966224">
        <ele>0</ele>
        <time>2026-08-26T22:02:03+02:00</time>
    </trkpt>    <trkpt lat="52.326113" lon="4.967437">
        <ele>0</ele>
        <time>2026-08-26T22:03:19+02:00</time>
    </trkpt>    <trkpt lat="52.326476" lon="4.967183">
        <ele>0</ele>
        <time>2026-08-26T22:03:54+02:00</time>
    </trkpt>    <trkpt lat="52.32745" lon="4.966323">
        <ele>0</ele>
        <time>2026-08-26T22:05:32+02:00</time>
    </trkpt>    <trkpt lat="52.328381" lon="4.964753">
        <ele>0</ele>
        <time>2026-08-26T22:07:31+02:00</time>
    </trkpt>    <trkpt lat="52.328386" lon="4.964441">
        <ele>0</ele>
        <time>2026-08-26T22:07:48+02:00</time>
    </trkpt>    <trkpt lat="52.328419" lon="4.96429">
        <ele>0</ele>
        <time>2026-08-26T22:07:57+02:00</time>
    </trkpt>    <trkpt lat="52.327899" lon="4.962776">
        <ele>0</ele>
        <time>2026-08-26T22:09:31+02:00</time>
    </trkpt>    <trkpt lat="52.327333" lon="4.961156">
        <ele>0</ele>
        <time>2026-08-26T22:11:12+02:00</time>
    </trkpt>    <trkpt lat="52.327271" lon="4.960715">
        <ele>0</ele>
        <time>2026-08-26T22:11:37+02:00</time>
    </trkpt>    <trkpt lat="52.326871" lon="4.959318">
        <ele>0</ele>
        <time>2026-08-26T22:13:01+02:00</time>
    </trkpt>    <trkpt lat="52.326725" lon="4.959002">
        <ele>0</ele>
        <time>2026-08-26T22:13:23+02:00</time>
    </trkpt>    <trkpt lat="52.32631" lon="4.95735">
        <ele>0</ele>
        <time>2026-08-26T22:15:00+02:00</time>
    </trkpt>    <trkpt lat="52.326696" lon="4.956952">
        <ele>0</ele>
        <time>2026-08-26T22:15:41+02:00</time>
    </trkpt>    <trkpt lat="52.32694" lon="4.957046">
        <ele>0</ele>
        <time>2026-08-26T22:16:03+02:00</time>
    </trkpt>    <trkpt lat="52.327219" lon="4.956823">
        <ele>0</ele>
        <time>2026-08-26T22:16:31+02:00</time>
    </trkpt>    <trkpt lat="52.327634" lon="4.95646">
        <ele>0</ele>
        <time>2026-08-26T22:17:13+02:00</time>
    </trkpt>    <trkpt lat="52.328022" lon="4.956541">
        <ele>0</ele>
        <time>2026-08-26T22:17:48+02:00</time>
    </trkpt>    <trkpt lat="52.328278" lon="4.956214">
        <ele>0</ele>
        <time>2026-08-26T22:18:17+02:00</time>
    </trkpt>    <trkpt lat="52.328317" lon="4.956084">
        <ele>0</ele>
        <time>2026-08-26T22:18:25+02:00</time>
    </trkpt>    <trkpt lat="52.328501" lon="4.955901">
        <ele>0</ele>
        <time>2026-08-26T22:18:44+02:00</time>
    </trkpt>    <trkpt lat="52.328765" lon="4.955844">
        <ele>0</ele>
        <time>2026-08-26T22:19:08+02:00</time>
    </trkpt>    <trkpt lat="52.329817" lon="4.954976">
        <ele>0</ele>
        <time>2026-08-26T22:20:53+02:00</time>
    </trkpt>    <trkpt lat="52.330037" lon="4.954657">
        <ele>0</ele>
        <time>2026-08-26T22:21:19+02:00</time>
    </trkpt>    <trkpt lat="52.330422" lon="4.954474">
        <ele>0</ele>
        <time>2026-08-26T22:21:55+02:00</time>
    </trkpt>    <trkpt lat="52.330759" lon="4.954202">
        <ele>0</ele>
        <time>2026-08-26T22:22:28+02:00</time>
    </trkpt>    <trkpt lat="52.331455" lon="4.955998">
        <ele>0</ele>
        <time>2026-08-26T22:24:24+02:00</time>
    </trkpt>    <trkpt lat="52.331603" lon="4.955994">
        <ele>0</ele>
        <time>2026-08-26T22:24:37+02:00</time>
    </trkpt>    <trkpt lat="52.331653" lon="4.956755">
        <ele>0</ele>
        <time>2026-08-26T22:25:19+02:00</time>
    </trkpt>    <trkpt lat="52.331325" lon="4.95705">
        <ele>0</ele>
        <time>2026-08-26T22:25:52+02:00</time>
    </trkpt>    <trkpt lat="52.33132" lon="4.957069">
        <ele>0</ele>
        <time>2026-08-26T22:25:53+02:00</time>
    </trkpt>    <trkpt lat="52.331842" lon="4.958474">
        <ele>0</ele>
        <time>2026-08-26T22:27:22+02:00</time>
    </trkpt>    <trkpt lat="52.332063" lon="4.95928">
        <ele>0</ele>
        <time>2026-08-26T22:28:10+02:00</time>
    </trkpt>    <trkpt lat="52.332229" lon="4.959698">
        <ele>0</ele>
        <time>2026-08-26T22:28:37+02:00</time>
    </trkpt>    <trkpt lat="52.332548" lon="4.960341">
        <ele>0</ele>
        <time>2026-08-26T22:29:22+02:00</time>
    </trkpt>    <trkpt lat="52.332834" lon="4.960963">
        <ele>0</ele>
        <time>2026-08-26T22:30:04+02:00</time>
    </trkpt>    <trkpt lat="52.333512" lon="4.962249">
        <ele>0</ele>
        <time>2026-08-26T22:31:36+02:00</time>
    </trkpt>    <trkpt lat="52.333945" lon="4.963301">
        <ele>0</ele>
        <time>2026-08-26T22:32:45+02:00</time>
    </trkpt>    <trkpt lat="52.334396" lon="4.964039">
        <ele>0</ele>
        <time>2026-08-26T22:33:42+02:00</time>
    </trkpt>    <trkpt lat="52.335023" lon="4.96511">
        <ele>0</ele>
        <time>2026-08-26T22:35:03+02:00</time>
    </trkpt>    <trkpt lat="52.335445" lon="4.965806">
        <ele>0</ele>
        <time>2026-08-26T22:35:56+02:00</time>
    </trkpt>    <trkpt lat="52.335931" lon="4.966356">
        <ele>0</ele>
        <time>2026-08-26T22:36:49+02:00</time>
    </trkpt>    <trkpt lat="52.337619" lon="4.963005">
        <ele>0</ele>
        <time>2026-08-26T22:40:45+02:00</time>
    </trkpt>    <trkpt lat="52.337933" lon="4.961328">
        <ele>0</ele>
        <time>2026-08-26T22:42:20+02:00</time>
    </trkpt>    <trkpt lat="52.337954" lon="4.961119">
        <ele>0</ele>
        <time>2026-08-26T22:42:32+02:00</time>
    </trkpt>    <trkpt lat="52.337938" lon="4.96082">
        <ele>0</ele>
        <time>2026-08-26T22:42:48+02:00</time>
    </trkpt>    <trkpt lat="52.337971" lon="4.960694">
        <ele>0</ele>
        <time>2026-08-26T22:42:55+02:00</time>
    </trkpt>    <trkpt lat="52.337912" lon="4.96042">
        <ele>0</ele>
        <time>2026-08-26T22:43:11+02:00</time>
    </trkpt>    <trkpt lat="52.338083" lon="4.960547">
        <ele>0</ele>
        <time>2026-08-26T22:43:28+02:00</time>
    </trkpt>    <trkpt lat="52.338248" lon="4.960626">
        <ele>0</ele>
        <time>2026-08-26T22:43:43+02:00</time>
    </trkpt>    <trkpt lat="52.338313" lon="4.960705">
        <ele>0</ele>
        <time>2026-08-26T22:43:50+02:00</time>
    </trkpt>    <trkpt lat="52.338272" lon="4.960908">
        <ele>0</ele>
        <time>2026-08-26T22:44:02+02:00</time>
    </trkpt>    <trkpt lat="52.338223" lon="4.961206">
        <ele>0</ele>
        <time>2026-08-26T22:44:19+02:00</time>
    </trkpt>    <trkpt lat="52.338154" lon="4.961497">
        <ele>0</ele>
        <time>2026-08-26T22:44:36+02:00</time>
    </trkpt>    <trkpt lat="52.338113" lon="4.96174">
        <ele>0</ele>
        <time>2026-08-26T22:44:50+02:00</time>
    </trkpt>    <trkpt lat="52.338106" lon="4.961772">
        <ele>0</ele>
        <time>2026-08-26T22:44:52+02:00</time>
    </trkpt>    <trkpt lat="52.338027" lon="4.962154">
        <ele>0</ele>
        <time>2026-08-26T22:45:14+02:00</time>
    </trkpt>    <trkpt lat="52.337852" lon="4.963073">
        <ele>0</ele>
        <time>2026-08-26T22:46:06+02:00</time>
    </trkpt>    <trkpt lat="52.33762" lon="4.964237">
        <ele>0</ele>
        <time>2026-08-26T22:47:13+02:00</time>
    </trkpt>    <trkpt lat="52.337521" lon="4.964875">
        <ele>0</ele>
        <time>2026-08-26T22:47:49+02:00</time>
    </trkpt>    <trkpt lat="52.337692" lon="4.965003">
        <ele>0</ele>
        <time>2026-08-26T22:48:06+02:00</time>
    </trkpt>    <trkpt lat="52.337454" lon="4.966377">
        <ele>0</ele>
        <time>2026-08-26T22:49:24+02:00</time>
    </trkpt>    <trkpt lat="52.337219" lon="4.967214">
        <ele>0</ele>
        <time>2026-08-26T22:50:14+02:00</time>
    </trkpt>    <trkpt lat="52.337124" lon="4.967614">
        <ele>0</ele>
        <time>2026-08-26T22:50:37+02:00</time>
    </trkpt>    <trkpt lat="52.337129" lon="4.967986">
        <ele>0</ele>
        <time>2026-08-26T22:50:57+02:00</time>
    </trkpt>    <trkpt lat="52.336891" lon="4.968561">
        <ele>0</ele>
        <time>2026-08-26T22:51:35+02:00</time>
    </trkpt>    <trkpt lat="52.336795" lon="4.968864">
        <ele>0</ele>
        <time>2026-08-26T22:51:54+02:00</time>
    </trkpt>    <trkpt lat="52.336803" lon="4.969108">
        <ele>0</ele>
        <time>2026-08-26T22:52:07+02:00</time>
    </trkpt>    <trkpt lat="52.336515" lon="4.969473">
        <ele>0</ele>
        <time>2026-08-26T22:52:39+02:00</time>
    </trkpt>    <trkpt lat="52.336516" lon="4.969643">
        <ele>0</ele>
        <time>2026-08-26T22:52:48+02:00</time>
    </trkpt>    <trkpt lat="52.336266" lon="4.970408">
        <ele>0</ele>
        <time>2026-08-26T22:53:35+02:00</time>
    </trkpt>    <trkpt lat="52.336218" lon="4.970585">
        <ele>0</ele>
        <time>2026-08-26T22:53:46+02:00</time>
    </trkpt>    <trkpt lat="52.33638" lon="4.970715">
        <ele>0</ele>
        <time>2026-08-26T22:54:02+02:00</time>
    </trkpt>    <trkpt lat="52.336578" lon="4.970939">
        <ele>0</ele>
        <time>2026-08-26T22:54:23+02:00</time>
    </trkpt>    <trkpt lat="52.33681" lon="4.971357">
        <ele>0</ele>
        <time>2026-08-26T22:54:54+02:00</time>
    </trkpt>    <trkpt lat="52.337162" lon="4.972033">
        <ele>0</ele>
        <time>2026-08-26T22:55:42+02:00</time>
    </trkpt>    <trkpt lat="52.337211" lon="4.972414">
        <ele>0</ele>
        <time>2026-08-26T22:56:03+02:00</time>
    </trkpt>    <trkpt lat="52.337103" lon="4.972771">
        <ele>0</ele>
        <time>2026-08-26T22:56:25+02:00</time>
    </trkpt>    <trkpt lat="52.33688" lon="4.973346">
        <ele>0</ele>
        <time>2026-08-26T22:57:02+02:00</time>
    </trkpt>    <trkpt lat="52.336669" lon="4.974087">
        <ele>0</ele>
        <time>2026-08-26T22:57:46+02:00</time>
    </trkpt>    <trkpt lat="52.33607" lon="4.975937">
        <ele>0</ele>
        <time>2026-08-26T22:59:40+02:00</time>
    </trkpt>    <trkpt lat="52.335544" lon="4.977777">
        <ele>0</ele>
        <time>2026-08-26T23:01:30+02:00</time>
    </trkpt>    <trkpt lat="52.336062" lon="4.977883">
        <ele>0</ele>
        <time>2026-08-26T23:02:16+02:00</time>
    </trkpt>    <trkpt lat="52.336432" lon="4.978249">
        <ele>0</ele>
        <time>2026-08-26T23:02:54+02:00</time>
    </trkpt>    <trkpt lat="52.336818" lon="4.97837">
        <ele>0</ele>
        <time>2026-08-26T23:03:29+02:00</time>
    </trkpt>    <trkpt lat="52.337003" lon="4.978651">
        <ele>0</ele>
        <time>2026-08-26T23:03:51+02:00</time>
    </trkpt>    <trkpt lat="52.337324" lon="4.978917">
        <ele>0</ele>
        <time>2026-08-26T23:04:23+02:00</time>
    </trkpt>    <trkpt lat="52.337539" lon="4.97942">
        <ele>0</ele>
        <time>2026-08-26T23:04:56+02:00</time>
    </trkpt>    <trkpt lat="52.337627" lon="4.979799">
        <ele>0</ele>
        <time>2026-08-26T23:05:18+02:00</time>
    </trkpt>    <trkpt lat="52.338029" lon="4.98018">
        <ele>0</ele>
        <time>2026-08-26T23:05:59+02:00</time>
    </trkpt>    <trkpt lat="52.338065" lon="4.980432">
        <ele>0</ele>
        <time>2026-08-26T23:06:13+02:00</time>
    </trkpt>    <trkpt lat="52.338206" lon="4.980724">
        <ele>0</ele>
        <time>2026-08-26T23:06:33+02:00</time>
    </trkpt>    <trkpt lat="52.338371" lon="4.981094">
        <ele>0</ele>
        <time>2026-08-26T23:06:58+02:00</time>
    </trkpt>    <trkpt lat="52.338676" lon="4.981506">
        <ele>0</ele>
        <time>2026-08-26T23:07:33+02:00</time>
    </trkpt>    <trkpt lat="52.338772" lon="4.981863">
        <ele>0</ele>
        <time>2026-08-26T23:07:54+02:00</time>
    </trkpt>    <trkpt lat="52.339059" lon="4.982225">
        <ele>0</ele>
        <time>2026-08-26T23:08:26+02:00</time>
    </trkpt>    <trkpt lat="52.339138" lon="4.982393">
        <ele>0</ele>
        <time>2026-08-26T23:08:38+02:00</time>
    </trkpt>    <trkpt lat="52.338784" lon="4.983267">
        <ele>0</ele>
        <time>2026-08-26T23:09:35+02:00</time>
    </trkpt>    <trkpt lat="52.338313" lon="4.984265">
        <ele>0</ele>
        <time>2026-08-26T23:10:44+02:00</time>
    </trkpt>    <trkpt lat="52.338016" lon="4.984671">
        <ele>0</ele>
        <time>2026-08-26T23:11:18+02:00</time>
    </trkpt>    <trkpt lat="52.337402" lon="4.983898">
        <ele>0</ele>
        <time>2026-08-26T23:12:27+02:00</time>
    </trkpt>    <trkpt lat="52.337287" lon="4.984028">
        <ele>0</ele>
        <time>2026-08-26T23:12:39+02:00</time>
    </trkpt>    <trkpt lat="52.336696" lon="4.985019">
        <ele>0</ele>
        <time>2026-08-26T23:13:54+02:00</time>
    </trkpt>    <trkpt lat="52.336337" lon="4.984462">
        <ele>0</ele>
        <time>2026-08-26T23:14:38+02:00</time>
    </trkpt>    <trkpt lat="52.336244" lon="4.984086">
        <ele>0</ele>
        <time>2026-08-26T23:15:00+02:00</time>
    </trkpt>    <trkpt lat="52.336125" lon="4.983936">
        <ele>0</ele>
        <time>2026-08-26T23:15:13+02:00</time>
    </trkpt>    <trkpt lat="52.336039" lon="4.983936">
        <ele>0</ele>
        <time>2026-08-26T23:15:21+02:00</time>
    </trkpt>    <trkpt lat="52.335906" lon="4.983851">
        <ele>0</ele>
        <time>2026-08-26T23:15:34+02:00</time>
    </trkpt>    <trkpt lat="52.3358" lon="4.983638">
        <ele>0</ele>
        <time>2026-08-26T23:15:49+02:00</time>
    </trkpt>    <trkpt lat="52.335713" lon="4.983185">
        <ele>0</ele>
        <time>2026-08-26T23:16:15+02:00</time>
    </trkpt>    <trkpt lat="52.335593" lon="4.983015">
        <ele>0</ele>
        <time>2026-08-26T23:16:29+02:00</time>
    </trkpt>    <trkpt lat="52.33521" lon="4.982728">
        <ele>0</ele>
        <time>2026-08-26T23:17:06+02:00</time>
    </trkpt>    <trkpt lat="52.334945" lon="4.98246">
        <ele>0</ele>
        <time>2026-08-26T23:17:34+02:00</time>
    </trkpt>    <trkpt lat="52.334819" lon="4.982332">
        <ele>0</ele>
        <time>2026-08-26T23:17:47+02:00</time>
    </trkpt>    <trkpt lat="52.33472" lon="4.982246">
        <ele>0</ele>
        <time>2026-08-26T23:17:57+02:00</time>
    </trkpt>    <trkpt lat="52.334601" lon="4.982292">
        <ele>0</ele>
        <time>2026-08-26T23:18:08+02:00</time>
    </trkpt>    <trkpt lat="52.334356" lon="4.982066">
        <ele>0</ele>
        <time>2026-08-26T23:18:33+02:00</time>
    </trkpt>    <trkpt lat="52.334244" lon="4.981821">
        <ele>0</ele>
        <time>2026-08-26T23:18:50+02:00</time>
    </trkpt>    <trkpt lat="52.334098" lon="4.981639">
        <ele>0</ele>
        <time>2026-08-26T23:19:06+02:00</time>
    </trkpt>    <trkpt lat="52.333965" lon="4.981521">
        <ele>0</ele>
        <time>2026-08-26T23:19:19+02:00</time>
    </trkpt>    <trkpt lat="52.333807" lon="4.981448">
        <ele>0</ele>
        <time>2026-08-26T23:19:34+02:00</time>
    </trkpt>    <trkpt lat="52.333513" lon="4.981478">
        <ele>0</ele>
        <time>2026-08-26T23:20:00+02:00</time>
    </trkpt>    <trkpt lat="52.333452" lon="4.981791">
        <ele>0</ele>
        <time>2026-08-26T23:20:18+02:00</time>
    </trkpt>    <trkpt lat="52.333413" lon="4.983002">
        <ele>0</ele>
        <time>2026-08-26T23:21:24+02:00</time>
    </trkpt>    <trkpt lat="52.333431" lon="4.983728">
        <ele>0</ele>
        <time>2026-08-26T23:22:03+02:00</time>
    </trkpt>    <trkpt lat="52.33355" lon="4.983944">
        <ele>0</ele>
        <time>2026-08-26T23:22:19+02:00</time>
    </trkpt>    <trkpt lat="52.333403" lon="4.984189">
        <ele>0</ele>
        <time>2026-08-26T23:22:38+02:00</time>
    </trkpt>    <trkpt lat="52.333348" lon="4.985594">
        <ele>0</ele>
        <time>2026-08-26T23:23:55+02:00</time>
    </trkpt>    <trkpt lat="52.333313" lon="4.98681">
        <ele>0</ele>
        <time>2026-08-26T23:25:01+02:00</time>
    </trkpt>    <trkpt lat="52.332868" lon="4.987656">
        <ele>0</ele>
        <time>2026-08-26T23:26:02+02:00</time>
    </trkpt>    <trkpt lat="52.332836" lon="4.988918">
        <ele>0</ele>
        <time>2026-08-26T23:27:11+02:00</time>
    </trkpt>    <trkpt lat="52.332787" lon="4.989538">
        <ele>0</ele>
        <time>2026-08-26T23:27:45+02:00</time>
    </trkpt>            </trkseg>
        </trk>
    </gpx>