<gpx xmlns="http://www.topografix.com/GPX/1/1" creator="Wandelzoekpagina.nl" version="1.1" xmlns:xsi="http://www.w3.org/2001/XMLSchema-instance" xsi:schemaLocation="http://www.topografix.com/GPX/1/1 http://www.topografix.com/GPX/1/1/gpx.xsd">
<metadata>
<link href='http://www.garmin.com'>
<text>Garmin International</text>
</link>
<time>2026-05-11T07:59:36Z</time>
<bounds maxlat='52.246996751055121' maxlon='5.148017406463623' minlat='52.227570349350572' minlon='5.121345520019531'/>
</metadata>

<wpt lat="52.241714727133512" lon="5.121620446443558">
<ele>4</ele>
<time>2020-03-24T15:30:26Z</time>
<name><![CDATA[1]]></name>
<cmt><![CDATA[Bomenrij]]></cmt>
<desc><![CDATA[Bomenrij]]></desc>
<sym>Number 1, Blue</sym>
<extensions>
<gpxx:WaypointExtension xmlns:gpxx='http://www.garmin.com/xmlschemas/GpxExtensions/v3'>
<gpxx:DisplayMode>SymbolOnly</gpxx:DisplayMode>
</gpxx:WaypointExtension>
</extensions>
</wpt>

<wpt lat="52.238450646400452" lon="5.130658149719238">
<ele>9</ele>
<time>2020-03-24T15:29:58Z</time>
<name><![CDATA[2]]></name>
<cmt><![CDATA[Leeuwenlaan en Lokale Weg en Onverharde Weg en Weg]]></cmt>
<desc><![CDATA[Leeuwenlaan en Lokale Weg en Onverharde Weg en Weg]]></desc>
<sym>Number 2, Blue</sym>
<extensions>
<gpxx:WaypointExtension xmlns:gpxx='http://www.garmin.com/xmlschemas/GpxExtensions/v3'>
<gpxx:DisplayMode>SymbolOnly</gpxx:DisplayMode>
</gpxx:WaypointExtension>
</extensions>
</wpt>

<wpt lat="52.23574161529541" lon="5.140507221221924">
<ele>3</ele>
<time>2020-03-24T15:50:17Z</time>
<name><![CDATA[3]]></name>
<cmt><![CDATA['t Rondje Van Six en halfverharde weg]]></cmt>
<desc><![CDATA['t Rondje Van Six en halfverharde weg]]></desc>
<sym>Number 3, Blue</sym>
<extensions>
<gpxx:WaypointExtension xmlns:gpxx='http://www.garmin.com/xmlschemas/GpxExtensions/v3'>
<gpxx:DisplayMode>SymbolOnly</gpxx:DisplayMode>
</gpxx:WaypointExtension>
</extensions>
</wpt>

<wpt lat="52.230125656351447" lon="5.131169026717544">
<ele>11</ele>
<time>2020-03-24T16:03:43Z</time>
<name><![CDATA[4]]></name>
<cmt><![CDATA[straat]]></cmt>
<desc><![CDATA[straat]]></desc>
<sym>Number 4, Blue</sym>
<extensions>
<gpxx:WaypointExtension xmlns:gpxx='http://www.garmin.com/xmlschemas/GpxExtensions/v3'>
<gpxx:DisplayMode>SymbolOnly</gpxx:DisplayMode>
</gpxx:WaypointExtension>
</extensions>
</wpt>

<wpt lat="52.230337299406528" lon="5.141749503090978">
<ele>11</ele>
<time>2026-05-11T07:59:11Z</time>
<name><![CDATA[5]]></name>
<cmt><![CDATA[Corverslaan 3]]></cmt>
<desc><![CDATA[Corverslaan 3]]></desc>
<sym>Number 5, Blue</sym>
<extensions>
<gpxx:WaypointExtension xmlns:gpxx='http://www.garmin.com/xmlschemas/GpxExtensions/v3'>
<gpxx:DisplayMode>SymbolOnly</gpxx:DisplayMode>
</gpxx:WaypointExtension>
</extensions>
</wpt>

<wpt lat="52.243080139160156" lon="5.148017406463623">
<ele>10</ele>
<time>2020-03-25T08:01:22Z</time>
<name><![CDATA[6]]></name>
<cmt><![CDATA[pad (fietsen toegestaan)]]></cmt>
<desc><![CDATA[pad (fietsen toegestaan)]]></desc>
<sym>Number 6, Blue</sym>
<extensions>
<gpxx:WaypointExtension xmlns:gpxx='http://www.garmin.com/xmlschemas/GpxExtensions/v3'>
<gpxx:DisplayMode>SymbolOnly</gpxx:DisplayMode>
</gpxx:WaypointExtension>
</extensions>
</wpt>

<wpt lat="52.245584651827812" lon="5.128947990015149">
<ele>3</ele>
<time>2020-03-25T08:17:54Z</time>
<name><![CDATA[7]]></name>
<cmt><![CDATA[Loofhout]]></cmt>
<desc><![CDATA[Loofhout]]></desc>
<sym>Number 7, Blue</sym>
<extensions>
<gpxx:WaypointExtension xmlns:gpxx='http://www.garmin.com/xmlschemas/GpxExtensions/v3'>
<gpxx:DisplayMode>SymbolOnly</gpxx:DisplayMode>
</gpxx:WaypointExtension>
</extensions>
</wpt>

<wpt lat="52.242634724825621" lon="5.121432021260262">
<ele>1</ele>
<time>2020-03-23T15:36:06Z</time>
<name><![CDATA[bushalte Hilverbeek]]></name>
<cmt><![CDATA['s-Graveland]]></cmt>
<desc><![CDATA['s-Graveland]]></desc>
<sym>Ground Transportation</sym>
<extensions>
<gpxx:WaypointExtension xmlns:gpxx='http://www.garmin.com/xmlschemas/GpxExtensions/v3'>
<gpxx:DisplayMode>SymbolOnly</gpxx:DisplayMode>
</gpxx:WaypointExtension>
</extensions>
</wpt>

<wpt lat="52.237903894856572" lon="5.133951483294368">
<ele>7</ele>
<time>2020-03-24T15:40:41Z</time>
<name><![CDATA[De Serre]]></name>
<cmt><![CDATA[Overig]]></cmt>
<desc><![CDATA[Overig]]></desc>
<sym>Restaurant</sym>
<extensions>
<gpxx:WaypointExtension xmlns:gpxx='http://www.garmin.com/xmlschemas/GpxExtensions/v3'>
<gpxx:DisplayMode>SymbolOnly</gpxx:DisplayMode>
</gpxx:WaypointExtension>
</extensions>
</wpt>

<wpt lat="52.241964340209961" lon="5.12136697769165">
<ele>1</ele>
<time>2020-03-23T15:36:35Z</time>
<name><![CDATA[Noordereind]]></name>
<cmt><![CDATA[Cafetaria Noordereind]]></cmt>
<desc><![CDATA[Cafetaria Noordereind]]></desc>
<sym>Restaurant</sym>
<extensions>
<gpxx:WaypointExtension xmlns:gpxx='http://www.garmin.com/xmlschemas/GpxExtensions/v3'>
<gpxx:DisplayMode>SymbolOnly</gpxx:DisplayMode>
</gpxx:WaypointExtension>
</extensions>
</wpt>

<wpt lat="52.242715358734131" lon="5.121345520019531">
<ele>1</ele>
<time>2020-03-23T15:36:29Z</time>
<name><![CDATA[Vlaar]]></name>
<cmt><![CDATA[Vlaar]]></cmt>
<desc><![CDATA[Vlaar]]></desc>
<sym>Restaurant</sym>
<extensions>
<gpxx:WaypointExtension xmlns:gpxx='http://www.garmin.com/xmlschemas/GpxExtensions/v3'>
<gpxx:DisplayMode>SymbolOnly</gpxx:DisplayMode>
</gpxx:WaypointExtension>
</extensions>
</wpt>

<trk>
<name>s_Graveland</name>
<extensions>
<gpxx:TrackExtension xmlns:gpxx='http://www.garmin.com/xmlschemas/GpxExtensions/v3'>
<gpxx:DisplayColor>Red</gpxx:DisplayColor>
</gpxx:TrackExtension>
</extensions>
<trkseg>
<trkpt lat="52.241704668849707" lon="5.121649280190468">
<ele>2.71875</ele>
</trkpt>
<trkpt lat="52.241995520889759" lon="5.121638467535377">
<ele>2.421875</ele>
</trkpt>
<trkpt lat="52.24198923446238" lon="5.122080696746707">
<ele>3.9609375</ele>
</trkpt>
<trkpt lat="52.241957802325487" lon="5.122409770265222">
<ele>4.95703125</ele>
</trkpt>
<trkpt lat="52.241957802325487" lon="5.122718308120966">
<ele>5.82421875</ele>
</trkpt>
<trkpt lat="52.241869792342186" lon="5.122893154621124">
<ele>6.6015625</ele>
</trkpt>
<trkpt lat="52.241737693548203" lon="5.122975464910269">
<ele>7.5546875</ele>
</trkpt>
<trkpt lat="52.241731407120824" lon="5.12298577465117">
<ele>7.6171875</ele>
</trkpt>
<trkpt lat="52.241580532863736" lon="5.12300631031394">
<ele>8.58984375</ele>
</trkpt>
<trkpt lat="52.241574246436357" lon="5.123016620054841">
<ele>8.66015625</ele>
</trkpt>
<trkpt lat="52.241454720497131" lon="5.12323253788054">
<ele>9.4765625</ele>
</trkpt>
<trkpt lat="52.241435861214995" lon="5.123273693025112">
<ele>9.45703125</ele>
</trkpt>
<trkpt lat="52.241435861214995" lon="5.123284002766013">
<ele>9.4921875</ele>
</trkpt>
<trkpt lat="52.241391856223345" lon="5.123510230332613">
<ele>9.82421875</ele>
</trkpt>
<trkpt lat="52.241379283368587" lon="5.123530849814415">
<ele>9.76953125</ele>
</trkpt>
<trkpt lat="52.241347851231694" lon="5.1238804589957">
<ele>9.5859375</ele>
</trkpt>
<trkpt lat="52.241341564804316" lon="5.123901078477502">
<ele>9.53125</ele>
</trkpt>
<trkpt lat="52.241328991949558" lon="5.124117080122232">
<ele>9.47265625</ele>
</trkpt>
<trkpt lat="52.241573324427009" lon="5.124227637425065">
<ele>10.4765625</ele>
</trkpt>
<trkpt lat="52.241735011339188" lon="5.12433048337698">
<ele>9.3125</ele>
</trkpt>
<trkpt lat="52.241743979975581" lon="5.12433048337698">
<ele>9.24609375</ele>
</trkpt>
<trkpt lat="52.241690084338188" lon="5.124624352902174">
<ele>10.33984375</ele>
</trkpt>
<trkpt lat="52.241654125973582" lon="5.124830044806004">
<ele>11.24609375</ele>
</trkpt>
<trkpt lat="52.241654125973582" lon="5.124918138608336">
<ele>11.50390625</ele>
</trkpt>
<trkpt lat="52.241654125973582" lon="5.124932890757918">
<ele>11.546875</ele>
</trkpt>
<trkpt lat="52.241654125973582" lon="5.125167919322848">
<ele>12.2421875</ele>
</trkpt>
<trkpt lat="52.241654125973582" lon="5.125226676464081">
<ele>12.34765625</ele>
</trkpt>
<trkpt lat="52.241672147065401" lon="5.125329522415996">
<ele>12.02734375</ele>
</trkpt>
<trkpt lat="52.241672147065401" lon="5.12541770003736">
<ele>11.921875</ele>
</trkpt>
<trkpt lat="52.241672147065401" lon="5.125461788848043">
<ele>11.87109375</ele>
</trkpt>
<trkpt lat="52.241663178429008" lon="5.125594055280089">
<ele>11.80859375</ele>
</trkpt>
<trkpt lat="52.241663178429008" lon="5.125682149082422">
<ele>11.703125</ele>
</trkpt>
<trkpt lat="52.241663178429008" lon="5.125740906223655">
<ele>11.6328125</ele>
</trkpt>
<trkpt lat="52.241672147065401" lon="5.125917261466384">
<ele>11.32421875</ele>
</trkpt>
<trkpt lat="52.241681115701795" lon="5.125990686938167">
<ele>11.13671875</ele>
</trkpt>
<trkpt lat="52.241690084338188" lon="5.126034775748849">
<ele>10.98828125</ele>
</trkpt>
<trkpt lat="52.241699052974582" lon="5.126122953370214">
<ele>10.90234375</ele>
</trkpt>
<trkpt lat="52.241699052974582" lon="5.126211130991578">
<ele>10.9296875</ele>
</trkpt>
<trkpt lat="52.241699052974582" lon="5.126240467652679">
<ele>10.9375</ele>
</trkpt>
<trkpt lat="52.241708021610975" lon="5.126328645274043">
<ele>10.8671875</ele>
</trkpt>
<trkpt lat="52.241717074066401" lon="5.126343313604593">
<ele>10.77734375</ele>
</trkpt>
<trkpt lat="52.241735011339188" lon="5.126431491225958">
<ele>10.62109375</ele>
</trkpt>
<trkpt lat="52.241743979975581" lon="5.12649024836719">
<ele>10.55078125</ele>
</trkpt>
<trkpt lat="52.241752948611975" lon="5.126622514799237">
<ele>10.5078125</ele>
</trkpt>
<trkpt lat="52.241761917248368" lon="5.126725360751152">
<ele>10.45703125</ele>
</trkpt>
<trkpt lat="52.241743979975581" lon="5.12671060860157">
<ele>10.62890625</ele>
</trkpt>
<trkpt lat="52.241636188700795" lon="5.126651851460338">
<ele>11.67578125</ele>
</trkpt>
<trkpt lat="52.241627220064402" lon="5.126651851460338">
<ele>11.765625</ele>
</trkpt>
<trkpt lat="52.241519428789616" lon="5.126593094319105">
<ele>12.8359375</ele>
</trkpt>
<trkpt lat="52.24143854342401" lon="5.126593094319105">
<ele>12.43359375</ele>
</trkpt>
<trkpt lat="52.241429574787617" lon="5.126593094319105">
<ele>12.3515625</ele>
</trkpt>
<trkpt lat="52.241321783512831" lon="5.126593094319105">
<ele>11.40234375</ele>
</trkpt>
<trkpt lat="52.241231929510832" lon="5.126607762649655">
<ele>10.6171875</ele>
</trkpt>
<trkpt lat="52.241215752437711" lon="5.126698454841971">
<ele>10.51171875</ele>
</trkpt>
<trkpt lat="52.241165461018682" lon="5.127130458131433">
<ele>10.29296875</ele>
</trkpt>
<trkpt lat="52.241165461018682" lon="5.127140684053302">
<ele>10.30078125</ele>
</trkpt>
<trkpt lat="52.241159174591303" lon="5.127665223553777">
<ele>10.5625</ele>
</trkpt>
<trkpt lat="52.241178033873439" lon="5.12792238034308">
<ele>10.5546875</ele>
</trkpt>
<trkpt lat="52.24117174744606" lon="5.128148607909679">
<ele>10.49609375</ele>
</trkpt>
<trkpt lat="52.241215752437711" lon="5.128292609006167">
<ele>10.4375</ele>
</trkpt>
<trkpt lat="52.241259757429361" lon="5.128467455506325">
<ele>10.328125</ele>
</trkpt>
<trkpt lat="52.241240898147225" lon="5.128601146861911">
<ele>10.36328125</ele>
</trkpt>
<trkpt lat="52.24117174744606" lon="5.128745147958398">
<ele>10.54296875</ele>
</trkpt>
<trkpt lat="52.241165461018682" lon="5.128755373880267">
<ele>10.55859375</ele>
</trkpt>
<trkpt lat="52.241083737462759" lon="5.128858219832182">
<ele>10.69140625</ele>
</trkpt>
<trkpt lat="52.24107745103538" lon="5.128858219832182">
<ele>10.6953125</ele>
</trkpt>
<trkpt lat="52.240939065814018" lon="5.128940530121326">
<ele>10.83203125</ele>
</trkpt>
<trkpt lat="52.240800764411688" lon="5.128961065784097">
<ele>10.921875</ele>
</trkpt>
<trkpt lat="52.240719040855765" lon="5.129125686362386">
<ele>10.984375</ele>
</trkpt>
<trkpt lat="52.240719040855765" lon="5.129135912284255">
<ele>10.984375</ele>
</trkpt>
<trkpt lat="52.240719040855765" lon="5.129321068525314">
<ele>10.99609375</ele>
</trkpt>
<trkpt lat="52.240763045847416" lon="5.129423914477229">
<ele>11.125</ele>
</trkpt>
<trkpt lat="52.240788191556931" lon="5.129608986899257">
<ele>11.6015625</ele>
</trkpt>
<trkpt lat="52.240788191556931" lon="5.129619296640158">
<ele>11.62890625</ele>
</trkpt>
<trkpt lat="52.240731613710523" lon="5.129794143140316">
<ele>12.04296875</ele>
</trkpt>
<trkpt lat="52.240725327283144" lon="5.129794143140316">
<ele>12.0390625</ele>
</trkpt>
<trkpt lat="52.240624660626054" lon="5.129814678803086">
<ele>12.02734375</ele>
</trkpt>
<trkpt lat="52.240599514916539" lon="5.129814678803086">
<ele>12.01171875</ele>
</trkpt>
<trkpt lat="52.24045492708683" lon="5.12986614368856">
<ele>12.02734375</ele>
</trkpt>
<trkpt lat="52.240442354232073" lon="5.129876453429461">
<ele>12.0390625</ele>
</trkpt>
<trkpt lat="52.240228531882167" lon="5.129896989092231">
<ele>11.921875</ele>
</trkpt>
<trkpt lat="52.24021595902741" lon="5.129896989092231">
<ele>11.9140625</ele>
</trkpt>
<trkpt lat="52.240052428096533" lon="5.129938144236803">
<ele>11.8515625</ele>
</trkpt>
<trkpt lat="52.240039855241776" lon="5.129938144236803">
<ele>11.83984375</ele>
</trkpt>
<trkpt lat="52.239857632666826" lon="5.130041241645813">
<ele>11.8203125</ele>
</trkpt>
<trkpt lat="52.239675326272845" lon="5.130267469212413">
<ele>11.40234375</ele>
</trkpt>
<trkpt lat="52.239574743434787" lon="5.13043200597167">
<ele>10.96875</ele>
</trkpt>
<trkpt lat="52.239568373188376" lon="5.13043200597167">
<ele>10.9453125</ele>
</trkpt>
<trkpt lat="52.239492936059833" lon="5.130534851923585">
<ele>10.59765625</ele>
</trkpt>
<trkpt lat="52.239404926076531" lon="5.13062747195363">
<ele>10.1796875</ele>
</trkpt>
<trkpt lat="52.239398639649153" lon="5.13062747195363">
<ele>10.15234375</ele>
</trkpt>
<trkpt lat="52.239310629665852" lon="5.130668543279171">
<ele>9.75390625</ele>
</trkpt>
<trkpt lat="52.239159671589732" lon="5.130668543279171">
<ele>9.109375</ele>
</trkpt>
<trkpt lat="52.238920703530312" lon="5.13062747195363">
<ele>8.6484375</ele>
</trkpt>
<trkpt lat="52.238738397136331" lon="5.13062747195363">
<ele>8.98046875</ele>
</trkpt>
<trkpt lat="52.238537147641182" lon="5.130699472501874">
<ele>9.40234375</ele>
</trkpt>
<trkpt lat="52.238436564803123" lon="5.130678853020072">
<ele>9.59375</ele>
</trkpt>
<trkpt lat="52.238467996940017" lon="5.130678853020072">
<ele>9.52734375</ele>
</trkpt>
<trkpt lat="52.23821016959846" lon="5.130555471405387">
<ele>9.77734375</ele>
</trkpt>
<trkpt lat="52.23801520653069" lon="5.130493780598044">
<ele>9.05859375</ele>
</trkpt>
<trkpt lat="52.237600218504667" lon="5.130421780049801">
<ele>7.28125</ele>
</trkpt>
<trkpt lat="52.237248094752431" lon="5.130370315164328">
<ele>5.9765625</ele>
</trkpt>
<trkpt lat="52.236141264438629" lon="5.1304114703089">
<ele>5.12109375</ele>
</trkpt>
<trkpt lat="52.235826859250665" lon="5.13043200597167">
<ele>5.90234375</ele>
</trkpt>
<trkpt lat="52.235594177618623" lon="5.1304114703089">
<ele>6.6484375</ele>
</trkpt>
<trkpt lat="52.23556274548173" lon="5.130843389779329">
<ele>7.12109375</ele>
</trkpt>
<trkpt lat="52.235569031909108" lon="5.131337083876133">
<ele>6.9375</ele>
</trkpt>
<trkpt lat="52.235575318336487" lon="5.131871849298477">
<ele>6.35546875</ele>
</trkpt>
<trkpt lat="52.235575318336487" lon="5.132242161780596">
<ele>6.40625</ele>
</trkpt>
<trkpt lat="52.235581604763865" lon="5.132602080702782">
<ele>6.42578125</ele>
</trkpt>
<trkpt lat="52.235581604763865" lon="5.132643235847354">
<ele>6.43359375</ele>
</trkpt>
<trkpt lat="52.235594177618623" lon="5.133178001269698">
<ele>7.4609375</ele>
</trkpt>
<trkpt lat="52.235600464046001" lon="5.133208846673369">
<ele>7.50390625</ele>
</trkpt>
<trkpt lat="52.235606834292412" lon="5.133877387270331">
<ele>8.23828125</ele>
</trkpt>
<trkpt lat="52.235606834292412" lon="5.133918542414904">
<ele>8.23828125</ele>
</trkpt>
<trkpt lat="52.235625693574548" lon="5.134350461885333">
<ele>8.171875</ele>
</trkpt>
<trkpt lat="52.235625693574548" lon="5.134412152692676">
<ele>8.21484375</ele>
</trkpt>
<trkpt lat="52.235625693574548" lon="5.134782381355763">
<ele>8.609375</ele>
</trkpt>
<trkpt lat="52.235625693574548" lon="5.134823536500335">
<ele>8.65234375</ele>
</trkpt>
<trkpt lat="52.235625693574548" lon="5.13516291975975">
<ele>9.01171875</ele>
</trkpt>
<trkpt lat="52.235625693574548" lon="5.135204074904323">
<ele>9.0546875</ele>
</trkpt>
<trkpt lat="52.235638266429305" lon="5.135502303019166">
<ele>8.66796875</ele>
</trkpt>
<trkpt lat="52.23566341213882" lon="5.135728698223829">
<ele>8.375</ele>
</trkpt>
<trkpt lat="52.235669698566198" lon="5.136109236627817">
<ele>7.7421875</ele>
</trkpt>
<trkpt lat="52.235669698566198" lon="5.136273773387075">
<ele>7.1484375</ele>
</trkpt>
<trkpt lat="52.235751422122121" lon="5.136335548013449">
<ele>6.92578125</ele>
</trkpt>
<trkpt lat="52.235776567831635" lon="5.136376619338989">
<ele>6.77734375</ele>
</trkpt>
<trkpt lat="52.235795427113771" lon="5.136561775580049">
<ele>6.109375</ele>
</trkpt>
<trkpt lat="52.235795427113771" lon="5.136623466387391">
<ele>5.88671875</ele>
</trkpt>
<trkpt lat="52.235795427113771" lon="5.136633776128292">
<ele>5.8515625</ele>
</trkpt>
<trkpt lat="52.235807999968529" lon="5.136849777773023">
<ele>5.07421875</ele>
</trkpt>
<trkpt lat="52.235807999968529" lon="5.136870313435793">
<ele>5</ele>
</trkpt>
<trkpt lat="52.235807999968529" lon="5.137137696146965">
<ele>5</ele>
</trkpt>
<trkpt lat="52.235807999968529" lon="5.137302232906222">
<ele>5</ele>
</trkpt>
<trkpt lat="52.23580171354115" lon="5.137538854032755">
<ele>5</ele>
</trkpt>
<trkpt lat="52.23580171354115" lon="5.137713616713882">
<ele>4.9765625</ele>
</trkpt>
<trkpt lat="52.235814286395907" lon="5.13786792755127">
<ele>4.671875</ele>
</trkpt>
<trkpt lat="52.235921239480376" lon="5.137960631400347">
<ele>4.56640625</ele>
</trkpt>
<trkpt lat="52.236065827310085" lon="5.137960631400347">
<ele>4.671875</ele>
</trkpt>
<trkpt lat="52.236084686592221" lon="5.137960631400347">
<ele>4.6875</ele>
</trkpt>
<trkpt lat="52.236210498958826" lon="5.137940011918545">
<ele>4.796875</ele>
</trkpt>
<trkpt lat="52.236235644668341" lon="5.137960631400347">
<ele>4.80078125</ele>
</trkpt>
<trkpt lat="52.236336227506399" lon="5.137991476804018">
<ele>4.859375</ele>
</trkpt>
<trkpt lat="52.236361373215914" lon="5.137991476804018">
<ele>4.87890625</ele>
</trkpt>
<trkpt lat="52.236430523917079" lon="5.138001786544919">
<ele>4.93359375</ele>
</trkpt>
<trkpt lat="52.236461956053972" lon="5.138001786544919">
<ele>4.9609375</ele>
</trkpt>
<trkpt lat="52.236537477001548" lon="5.138001786544919">
<ele>4.9375</ele>
</trkpt>
<trkpt lat="52.236568909138441" lon="5.138001786544919">
<ele>4.875</ele>
</trkpt>
<trkpt lat="52.236638059839606" lon="5.138001786544919">
<ele>4.73828125</ele>
</trkpt>
<trkpt lat="52.236656919121742" lon="5.137991476804018">
<ele>4.69921875</ele>
</trkpt>
<trkpt lat="52.236726069822907" lon="5.137960631400347">
<ele>4.5546875</ele>
</trkpt>
<trkpt lat="52.236738642677665" lon="5.137960631400347">
<ele>4.52734375</ele>
</trkpt>
<trkpt lat="52.236820450052619" lon="5.137919476255775">
<ele>4.34375</ele>
</trkpt>
<trkpt lat="52.236833022907376" lon="5.137919476255775">
<ele>4.31640625</ele>
</trkpt>
<trkpt lat="52.236902173608541" lon="5.137919476255775">
<ele>4.171875</ele>
</trkpt>
<trkpt lat="52.2370027564466" lon="5.137919476255775">
<ele>3.9609375</ele>
</trkpt>
<trkpt lat="52.2370027564466" lon="5.138166323304176">
<ele>4.140625</ele>
</trkpt>
<trkpt lat="52.236971324309707" lon="5.138330860063434">
<ele>4.3046875</ele>
</trkpt>
<trkpt lat="52.236921032890677" lon="5.138546861708164">
<ele>4.4765625</ele>
</trkpt>
<trkpt lat="52.236921032890677" lon="5.138567397370935">
<ele>4.42578125</ele>
</trkpt>
<trkpt lat="52.23690846003592" lon="5.138762779533863">
<ele>3.98046875</ele>
</trkpt>
<trkpt lat="52.23690846003592" lon="5.138947935774922">
<ele>3.54296875</ele>
</trkpt>
<trkpt lat="52.236914746463299" lon="5.139091936871409">
<ele>3.1875</ele>
</trkpt>
<trkpt lat="52.2370027564466" lon="5.139205008745194">
<ele>2.640625</ele>
</trkpt>
<trkpt lat="52.237078193575144" lon="5.139174163341522">
<ele>2.4921875</ele>
</trkpt>
<trkpt lat="52.237078193575144" lon="5.139163937419653">
<ele>2.5234375</ele>
</trkpt>
<trkpt lat="52.237134855240583" lon="5.139081627130508">
<ele>2.6015625</ele>
</trkpt>
<trkpt lat="52.237172573804855" lon="5.138958245515823">
<ele>2.87890625</ele>
</trkpt>
<trkpt lat="52.237178860232234" lon="5.138958245515823">
<ele>2.8671875</ele>
</trkpt>
<trkpt lat="52.237241724506021" lon="5.138701088726521">
<ele>3.56640625</ele>
</trkpt>
<trkpt lat="52.237254297360778" lon="5.138701088726521">
<ele>3.546875</ele>
</trkpt>
<trkpt lat="52.237449260428548" lon="5.138587933033705">
<ele>4.09375</ele>
</trkpt>
<trkpt lat="52.237474406138062" lon="5.138557087630034">
<ele>4.2578125</ele>
</trkpt>
<trkpt lat="52.23772594705224" lon="5.13846455141902">
<ele>4.8828125</ele>
</trkpt>
<trkpt lat="52.237952258437872" lon="5.138454241678119">
<ele>5.4453125</ele>
</trkpt>
<trkpt lat="52.238172367215157" lon="5.138567397370935">
<ele>5.9609375</ele>
</trkpt>
<trkpt lat="52.238379903137684" lon="5.138598242774606">
<ele>5.67578125</ele>
</trkpt>
<trkpt lat="52.23844276741147" lon="5.138618862256408">
<ele>5.57421875</ele>
</trkpt>
<trkpt lat="52.238511918112636" lon="5.13868055306375">
<ele>5.41796875</ele>
</trkpt>
<trkpt lat="52.238555923104286" lon="5.138793624937534">
<ele>5.23046875</ele>
</trkpt>
<trkpt lat="52.238587439060211" lon="5.138989090919495">
<ele>4.95703125</ele>
</trkpt>
<trkpt lat="52.238587439060211" lon="5.138999316841364">
<ele>4.9453125</ele>
</trkpt>
<trkpt lat="52.238568579778075" lon="5.139215318486095">
<ele>4.70703125</ele>
</trkpt>
<trkpt lat="52.238574866205454" lon="5.139595856890082">
<ele>4.2421875</ele>
</trkpt>
<trkpt lat="52.238581152632833" lon="5.139770703390241">
<ele>4.02734375</ele>
</trkpt>
<trkpt lat="52.238587439060211" lon="5.139935240149498">
<ele>3.8203125</ele>
</trkpt>
<trkpt lat="52.238587439060211" lon="5.139945549890399">
<ele>3.80859375</ele>
</trkpt>
<trkpt lat="52.238581152632833" lon="5.140151241794229">
<ele>3.5703125</ele>
</trkpt>
<trkpt lat="52.238574866205454" lon="5.14016155153513">
<ele>3.5625</ele>
</trkpt>
<trkpt lat="52.238518204540014" lon="5.140284933149815">
<ele>3.94140625</ele>
</trkpt>
<trkpt lat="52.238499345257878" lon="5.140305468812585">
<ele>4.05859375</ele>
</trkpt>
<trkpt lat="52.23839876241982" lon="5.140377469360828">
<ele>4.515625</ele>
</trkpt>
<trkpt lat="52.238392475992441" lon="5.140377469360828">
<ele>4.5234375</ele>
</trkpt>
<trkpt lat="52.238260377198458" lon="5.1404083147645">
<ele>4.859375</ele>
</trkpt>
<trkpt lat="52.238254090771079" lon="5.140418624505401">
<ele>4.91796875</ele>
</trkpt>
<trkpt lat="52.238096930086613" lon="5.140490625053644">
<ele>5.33203125</ele>
</trkpt>
<trkpt lat="52.238090643659234" lon="5.140490625053644">
<ele>5.32421875</ele>
</trkpt>
<trkpt lat="52.237927112728357" lon="5.140490625053644">
<ele>5.1953125</ele>
</trkpt>
<trkpt lat="52.237920826300979" lon="5.140490625053644">
<ele>5.19140625</ele>
</trkpt>
<trkpt lat="52.237707087770104" lon="5.140356933698058">
<ele>4.29296875</ele>
</trkpt>
<trkpt lat="52.237518411129713" lon="5.140295242890716">
<ele>3.75390625</ele>
</trkpt>
<trkpt lat="52.237512124702334" lon="5.140295242890716">
<ele>3.74609375</ele>
</trkpt>
<trkpt lat="52.237373739480972" lon="5.140326088294387">
<ele>3.78515625</ele>
</trkpt>
<trkpt lat="52.237367453053594" lon="5.140326088294387">
<ele>3.77734375</ele>
</trkpt>
<trkpt lat="52.237285729497671" lon="5.140377469360828">
<ele>4.10546875</ele>
</trkpt>
<trkpt lat="52.237210292369127" lon="5.1404083147645">
<ele>4.359375</ele>
</trkpt>
<trkpt lat="52.237040475010872" lon="5.140459779649973">
<ele>4.796875</ele>
</trkpt>
<trkpt lat="52.236895887181163" lon="5.140470089390874">
<ele>4.97265625</ele>
</trkpt>
<trkpt lat="52.236782647669315" lon="5.140470089390874">
<ele>5.06640625</ele>
</trkpt>
<trkpt lat="52.236770074814558" lon="5.140470089390874">
<ele>5.07421875</ele>
</trkpt>
<trkpt lat="52.236600341275334" lon="5.140470089390874">
<ele>5.21484375</ele>
</trkpt>
<trkpt lat="52.236587768420577" lon="5.140459779649973">
<ele>5.171875</ele>
</trkpt>
<trkpt lat="52.236493472009897" lon="5.14039808884263">
<ele>4.90625</ele>
</trkpt>
<trkpt lat="52.236480815336108" lon="5.140387779101729">
<ele>4.8203125</ele>
</trkpt>
<trkpt lat="52.236342513933778" lon="5.140346623957157">
<ele>4.234375</ele>
</trkpt>
<trkpt lat="52.236323654651642" lon="5.140346623957157">
<ele>4.18359375</ele>
</trkpt>
<trkpt lat="52.236223071813583" lon="5.140377469360828">
<ele>4.0234375</ele>
</trkpt>
<trkpt lat="52.236204212531447" lon="5.140387779101729">
<ele>4.0078125</ele>
</trkpt>
<trkpt lat="52.236122405156493" lon="5.140470089390874">
<ele>4.0703125</ele>
</trkpt>
<trkpt lat="52.236109832301736" lon="5.140490625053644">
<ele>4.10546875</ele>
</trkpt>
<trkpt lat="52.23599667660892" lon="5.140511160716415">
<ele>3.80859375</ele>
</trkpt>
<trkpt lat="52.235770281404257" lon="5.140511160716415">
<ele>3.0625</ele>
</trkpt>
<trkpt lat="52.2357577085495" lon="5.141262179240584">
<ele>5.74609375</ele>
</trkpt>
<trkpt lat="52.235776567831635" lon="5.141488490626216">
<ele>7.15625</ele>
</trkpt>
<trkpt lat="52.234745342284441" lon="5.141539871692658">
<ele>5.96484375</ele>
</trkpt>
<trkpt lat="52.233789470046759" lon="5.141570800915361">
<ele>5.83984375</ele>
</trkpt>
<trkpt lat="52.232179641723633" lon="5.141632491722703">
<ele>8.59375</ele>
</trkpt>
<trkpt lat="52.230337131768465" lon="5.141683956608176">
<ele>10.89453125</ele>
</trkpt>
<trkpt lat="52.230330845341086" lon="5.140964034944773">
<ele>12.4140625</ele>
</trkpt>
<trkpt lat="52.230318272486329" lon="5.140172112733126">
<ele>9.79296875</ele>
</trkpt>
<trkpt lat="52.230293126776814" lon="5.139627037569881">
<ele>8.70703125</ele>
</trkpt>
<trkpt lat="52.230280553922057" lon="5.139133343473077">
<ele>8.5078125</ele>
</trkpt>
<trkpt lat="52.230280553922057" lon="5.138814495876432">
<ele>8.890625</ele>
</trkpt>
<trkpt lat="52.230274267494678" lon="5.137837501242757">
<ele>12.34765625</ele>
</trkpt>
<trkpt lat="52.2302679810673" lon="5.137642035260797">
<ele>13.07421875</ele>
</trkpt>
<trkpt lat="52.230343418195844" lon="5.137559808790684">
<ele>12.90625</ele>
</trkpt>
<trkpt lat="52.230406366288662" lon="5.137456962838769">
<ele>12.89453125</ele>
</trkpt>
<trkpt lat="52.230431511998177" lon="5.137384962290525">
<ele>12.984375</ele>
</trkpt>
<trkpt lat="52.230676766484976" lon="5.137374652549624">
<ele>12.1796875</ele>
</trkpt>
<trkpt lat="52.230683052912354" lon="5.137374652549624">
<ele>12.12890625</ele>
</trkpt>
<trkpt lat="52.230871645733714" lon="5.137374652549624">
<ele>10.58984375</ele>
</trkpt>
<trkpt lat="52.230877932161093" lon="5.137374652549624">
<ele>10.5390625</ele>
</trkpt>
<trkpt lat="52.230940796434879" lon="5.137302652001381">
<ele>10.23046875</ele>
</trkpt>
<trkpt lat="52.230928223580122" lon="5.136716421693564">
<ele>11.63671875</ele>
</trkpt>
<trkpt lat="52.230928223580122" lon="5.13639765791595">
<ele>11.75</ele>
</trkpt>
<trkpt lat="52.230928223580122" lon="5.136366812512279">
<ele>11.76171875</ele>
</trkpt>
<trkpt lat="52.230915650725365" lon="5.13599650003016">
<ele>11.98828125</ele>
</trkpt>
<trkpt lat="52.230915650725365" lon="5.135657116770744">
<ele>11.98828125</ele>
</trkpt>
<trkpt lat="52.230915650725365" lon="5.135646890848875">
<ele>11.98828125</ele>
</trkpt>
<trkpt lat="52.230903077870607" lon="5.135389734059572">
<ele>12.09375</ele>
</trkpt>
<trkpt lat="52.230896791443229" lon="5.13514288701117">
<ele>12</ele>
</trkpt>
<trkpt lat="52.23089050501585" lon="5.134937195107341">
<ele>11.55859375</ele>
</trkpt>
<trkpt lat="52.231110613793135" lon="5.1348961237818">
<ele>9.609375</ele>
</trkpt>
<trkpt lat="52.231318149715662" lon="5.134937195107341">
<ele>7.96484375</ele>
</trkpt>
<trkpt lat="52.231437591835856" lon="5.134875504299998">
<ele>6.8125</ele>
</trkpt>
<trkpt lat="52.231431305408478" lon="5.134484739974141">
<ele>5.92578125</ele>
</trkpt>
<trkpt lat="52.231399873271585" lon="5.134392119944096">
<ele>5.96875</ele>
</trkpt>
<trkpt lat="52.23128043115139" lon="5.134392119944096">
<ele>6.97265625</ele>
</trkpt>
<trkpt lat="52.231173478066921" lon="5.13425842858851">
<ele>7.84765625</ele>
</trkpt>
<trkpt lat="52.231028890237212" lon="5.133795663714409">
<ele>8.9296875</ele>
</trkpt>
<trkpt lat="52.23099117167294" lon="5.133559126406908">
<ele>9.1171875</ele>
</trkpt>
<trkpt lat="52.230984885245562" lon="5.133559126406908">
<ele>9.15234375</ele>
</trkpt>
<trkpt lat="52.230953369289637" lon="5.133445970714092">
<ele>9.3359375</ele>
</trkpt>
<trkpt lat="52.23099117167294" lon="5.133394505828619">
<ele>9.109375</ele>
</trkpt>
<trkpt lat="52.231028890237212" lon="5.133229969069362">
<ele>8.8828125</ele>
</trkpt>
<trkpt lat="52.231028890237212" lon="5.133065432310104">
<ele>8.8828125</ele>
</trkpt>
<trkpt lat="52.230972312390804" lon="5.132921431213617">
<ele>9.22265625</ele>
</trkpt>
<trkpt lat="52.230928223580122" lon="5.132818585261703">
<ele>9.48828125</ele>
</trkpt>
<trkpt lat="52.230859072878957" lon="5.132787739858031">
<ele>9.90234375</ele>
</trkpt>
<trkpt lat="52.230808781459928" lon="5.132787739858031">
<ele>10.203125</ele>
</trkpt>
<trkpt lat="52.230708198621869" lon="5.13273635879159">
<ele>10.80859375</ele>
</trkpt>
<trkpt lat="52.23055724054575" lon="5.132376356050372">
<ele>11.109375</ele>
</trkpt>
<trkpt lat="52.23036864772439" lon="5.131759280338883">
<ele>11.26171875</ele>
</trkpt>
<trkpt lat="52.230242835357785" lon="5.131358206272125">
<ele>10.9609375</ele>
</trkpt>
<trkpt lat="52.230148538947105" lon="5.131183359771967">
<ele>10.734375</ele>
</trkpt>
<trkpt lat="52.230029013007879" lon="5.131183359771967">
<ele>10.4453125</ele>
</trkpt>
<trkpt lat="52.229871852323413" lon="5.13103935867548">
<ele>10.0703125</ele>
</trkpt>
<trkpt lat="52.229865565896034" lon="5.131008513271809">
<ele>10.08984375</ele>
</trkpt>
<trkpt lat="52.229821560904384" lon="5.130802821367979">
<ele>10.24609375</ele>
</trkpt>
<trkpt lat="52.229808988049626" lon="5.130751356482506">
<ele>10.29296875</ele>
</trkpt>
<trkpt lat="52.229808988049626" lon="5.130730820819736">
<ele>10.3203125</ele>
</trkpt>
<trkpt lat="52.229808988049626" lon="5.130627974867821">
<ele>10.453125</ele>
</trkpt>
<trkpt lat="52.229802701622248" lon="5.130576593801379">
<ele>10.51171875</ele>
</trkpt>
<trkpt lat="52.22979012876749" lon="5.130514819175005">
<ele>10.58203125</ele>
</trkpt>
<trkpt lat="52.229771185666323" lon="5.130494283512235">
<ele>10.59765625</ele>
</trkpt>
<trkpt lat="52.229702034965158" lon="5.13041197322309">
<ele>10.671875</ele>
</trkpt>
<trkpt lat="52.2296894621104" lon="5.13041197322309">
<ele>10.6640625</ele>
</trkpt>
<trkpt lat="52.229337338358164" lon="5.130432592704892">
<ele>10.40234375</ele>
</trkpt>
<trkpt lat="52.229337338358164" lon="5.130442818626761">
<ele>10.375</ele>
</trkpt>
<trkpt lat="52.229192750528455" lon="5.130555974319577">
<ele>9.9296875</ele>
</trkpt>
<trkpt lat="52.22906693816185" lon="5.130699975416064">
<ele>9.3046875</ele>
</trkpt>
<trkpt lat="52.229048078879714" lon="5.130720511078835">
<ele>9.20703125</ele>
</trkpt>
<trkpt lat="52.228934923186898" lon="5.13105989433825">
<ele>7.8671875</ele>
</trkpt>
<trkpt lat="52.228796537965536" lon="5.131070204079151">
<ele>7.69140625</ele>
</trkpt>
<trkpt lat="52.228664522990584" lon="5.131029048934579">
<ele>7.6015625</ele>
</trkpt>
<trkpt lat="52.227847035974264" lon="5.13105989433825">
<ele>5.015625</ele>
</trkpt>
<trkpt lat="52.227652072906494" lon="5.13105989433825">
<ele>3.84375</ele>
</trkpt>
<trkpt lat="52.227633213624358" lon="5.131070204079151">
<ele>3.73046875</ele>
</trkpt>
<trkpt lat="52.22757663577795" lon="5.131090823560953">
<ele>3.390625</ele>
</trkpt>
<trkpt lat="52.22757663577795" lon="5.131111359223723">
<ele>3.390625</ele>
</trkpt>
<trkpt lat="52.22757663577795" lon="5.131419897079468">
<ele>3.390625</ele>
</trkpt>
<trkpt lat="52.22757663577795" lon="5.131440432742238">
<ele>3.390625</ele>
</trkpt>
<trkpt lat="52.22757663577795" lon="5.131707899272442">
<ele>3.390625</ele>
</trkpt>
<trkpt lat="52.227570349350572" lon="5.131759280338883">
<ele>3.3515625</ele>
</trkpt>
<trkpt lat="52.227570349350572" lon="5.131810745224357">
<ele>3.3515625</ele>
</trkpt>
<trkpt lat="52.227595495060086" lon="5.132057508453727">
<ele>3.28125</ele>
</trkpt>
<trkpt lat="52.227595495060086" lon="5.132119283080101">
<ele>3.20703125</ele>
</trkpt>
<trkpt lat="52.227595495060086" lon="5.132160354405642">
<ele>3.16015625</ele>
</trkpt>
<trkpt lat="52.227608067914844" lon="5.132355820387602">
<ele>3</ele>
</trkpt>
<trkpt lat="52.227608067914844" lon="5.132417511194944">
<ele>2.92578125</ele>
</trkpt>
<trkpt lat="52.227608067914844" lon="5.132427820935845">
<ele>2.9140625</ele>
</trkpt>
<trkpt lat="52.227620640769601" lon="5.132818585261703">
<ele>2.92578125</ele>
</trkpt>
<trkpt lat="52.227620640769601" lon="5.132880276069045">
<ele>3.07421875</ele>
</trkpt>
<trkpt lat="52.227620640769601" lon="5.132900895550847">
<ele>3.125</ele>
</trkpt>
<trkpt lat="52.22762692719698" lon="5.133034586906433">
<ele>3.4765625</ele>
</trkpt>
<trkpt lat="52.22762692719698" lon="5.133096277713776">
<ele>3.62109375</ele>
</trkpt>
<trkpt lat="52.22762692719698" lon="5.133127123117447">
<ele>3.6953125</ele>
</trkpt>
<trkpt lat="52.227633213624358" lon="5.133312279358506">
<ele>4.16015625</ele>
</trkpt>
<trkpt lat="52.227633213624358" lon="5.133373970165849">
<ele>4.3046875</ele>
</trkpt>
<trkpt lat="52.227633213624358" lon="5.133435660973191">
<ele>4.44921875</ele>
</trkpt>
<trkpt lat="52.227633213624358" lon="5.133600197732449">
<ele>5.01171875</ele>
</trkpt>
<trkpt lat="52.227633213624358" lon="5.133661972358823">
<ele>5.3359375</ele>
</trkpt>
<trkpt lat="52.227633213624358" lon="5.133672198280692">
<ele>5.38671875</ele>
</trkpt>
<trkpt lat="52.227633213624358" lon="5.13382650911808">
<ele>6.1953125</ele>
</trkpt>
<trkpt lat="52.227633213624358" lon="5.133888199925423">
<ele>6.515625</ele>
</trkpt>
<trkpt lat="52.227633213624358" lon="5.133949890732765">
<ele>6.8359375</ele>
</trkpt>
<trkpt lat="52.227633213624358" lon="5.134063046425581">
<ele>7.4296875</ele>
</trkpt>
<trkpt lat="52.227633213624358" lon="5.134124737232924">
<ele>7.75</ele>
</trkpt>
<trkpt lat="52.227633213624358" lon="5.134186428040266">
<ele>8.0703125</ele>
</trkpt>
<trkpt lat="52.227633213624358" lon="5.134196737781167">
<ele>8.125</ele>
</trkpt>
<trkpt lat="52.227639500051737" lon="5.134320119395852">
<ele>8.79296875</ele>
</trkpt>
<trkpt lat="52.227639500051737" lon="5.134381894022226">
<ele>9.09765625</ele>
</trkpt>
<trkpt lat="52.227639500051737" lon="5.134433275088668">
<ele>9.28125</ele>
</trkpt>
<trkpt lat="52.227639500051737" lon="5.134525811299682">
<ele>9.6171875</ele>
</trkpt>
<trkpt lat="52.227639500051737" lon="5.134587585926056">
<ele>9.83984375</ele>
</trkpt>
<trkpt lat="52.227639500051737" lon="5.134844658896327">
<ele>10.765625</ele>
</trkpt>
<trkpt lat="52.227652072906494" lon="5.134844658896327">
<ele>10.80859375</ele>
</trkpt>
<trkpt lat="52.227884754538536" lon="5.134834349155426">
<ele>11.609375</ele>
</trkpt>
<trkpt lat="52.227897327393293" lon="5.134834349155426">
<ele>11.65625</ele>
</trkpt>
<trkpt lat="52.22805448807776" lon="5.134834349155426">
<ele>12.22265625</ele>
</trkpt>
<trkpt lat="52.22809849306941" lon="5.134834349155426">
<ele>12.3828125</ele>
</trkpt>
<trkpt lat="52.228236878290772" lon="5.134834349155426">
<ele>12.4921875</ele>
</trkpt>
<trkpt lat="52.228274596855044" lon="5.134844658896327">
<ele>12.421875</ele>
</trkpt>
<trkpt lat="52.228280883282423" lon="5.134844658896327">
<ele>12.40234375</ele>
</trkpt>
<trkpt lat="52.228362606838346" lon="5.134854968637228">
<ele>12.203125</ele>
</trkpt>
<trkpt lat="52.228394038975239" lon="5.134865194559097">
<ele>12.15234375</ele>
</trkpt>
<trkpt lat="52.228563856333494" lon="5.134865194559097">
<ele>11.66015625</ele>
</trkpt>
<trkpt lat="52.22858271561563" lon="5.13515998609364">
<ele>12.00390625</ele>
</trkpt>
<trkpt lat="52.22858271561563" lon="5.135352099314332">
<ele>12.3984375</ele>
</trkpt>
<trkpt lat="52.22858271561563" lon="5.135362157598138">
<ele>12.40625</ele>
</trkpt>
<trkpt lat="52.228563856333494" lon="5.135483527556062">
<ele>12.49609375</ele>
</trkpt>
<trkpt lat="52.228519851341844" lon="5.135646890848875">
<ele>13.3984375</ele>
</trkpt>
<trkpt lat="52.228482132777572" lon="5.13579080812633">
<ele>13.52734375</ele>
</trkpt>
<trkpt lat="52.228482132777572" lon="5.13597596436739">
<ele>13.609375</ele>
</trkpt>
<trkpt lat="52.228438127785921" lon="5.136171346530318">
<ele>13.515625</ele>
</trkpt>
<trkpt lat="52.228412982076406" lon="5.136305037885904">
<ele>13.34765625</ele>
</trkpt>
<trkpt lat="52.228406611829996" lon="5.136325657367706">
<ele>13.31640625</ele>
</trkpt>
<trkpt lat="52.228337461128831" lon="5.136572504416108">
<ele>12.89453125</ele>
</trkpt>
<trkpt lat="52.228287169709802" lon="5.136870732530952">
<ele>12.26171875</ele>
</trkpt>
<trkpt lat="52.228262024000287" lon="5.13704557903111">
<ele>12.22265625</ele>
</trkpt>
<trkpt lat="52.228243164718151" lon="5.137199806049466">
<ele>12.1875</ele>
</trkpt>
<trkpt lat="52.228230591863394" lon="5.137436343356967">
<ele>12.171875</ele>
</trkpt>
<trkpt lat="52.228205446153879" lon="5.137590654194355">
<ele>12.09375</ele>
</trkpt>
<trkpt lat="52.228205446153879" lon="5.137816881760955">
<ele>12.23828125</ele>
</trkpt>
<trkpt lat="52.228167727589607" lon="5.138248885050416">
<ele>12.63671875</ele>
</trkpt>
<trkpt lat="52.22809849306941" lon="5.138269420713186">
<ele>12.5234375</ele>
</trkpt>
<trkpt lat="52.228092206642032" lon="5.138269420713186">
<ele>12.51171875</ele>
</trkpt>
<trkpt lat="52.2278658952564" lon="5.138243352994323">
<ele>13.1796875</ele>
</trkpt>
<trkpt lat="52.227702364325523" lon="5.138223068788648">
<ele>12.984375</ele>
</trkpt>
<trkpt lat="52.227714937180281" lon="5.13870838098228">
<ele>13.2890625</ele>
</trkpt>
<trkpt lat="52.227727510035038" lon="5.139345237985253">
<ele>13.125</ele>
</trkpt>
<trkpt lat="52.227727510035038" lon="5.13981026597321">
<ele>12.5234375</ele>
</trkpt>
<trkpt lat="52.227727510035038" lon="5.139820324257016">
<ele>12.5078125</ele>
</trkpt>
<trkpt lat="52.227733796462417" lon="5.140022579580545">
<ele>12.14453125</ele>
</trkpt>
<trkpt lat="52.227752655744553" lon="5.140366237610579">
<ele>11.4453125</ele>
</trkpt>
<trkpt lat="52.227752655744553" lon="5.140406722202897">
<ele>11.35546875</ele>
</trkpt>
<trkpt lat="52.22776522859931" lon="5.140659436583519">
<ele>10.8515625</ele>
</trkpt>
<trkpt lat="52.227771515026689" lon="5.140679636970162">
<ele>10.83203125</ele>
</trkpt>
<trkpt lat="52.227834463119507" lon="5.140922293066979">
<ele>10.51953125</ele>
</trkpt>
<trkpt lat="52.227840749546885" lon="5.140942493453622">
<ele>10.4921875</ele>
</trkpt>
<trkpt lat="52.227884754538536" lon="5.141073921695352">
<ele>10.3203125</ele>
</trkpt>
<trkpt lat="52.227903613820672" lon="5.141094122081995">
<ele>10.33984375</ele>
</trkpt>
<trkpt lat="52.228029342368245" lon="5.141215408220887">
<ele>10.56640625</ele>
</trkpt>
<trkpt lat="52.228048201650381" lon="5.141215408220887">
<ele>10.6484375</ele>
</trkpt>
<trkpt lat="52.228136295452714" lon="5.141245750710368">
<ele>10.97265625</ele>
</trkpt>
<trkpt lat="52.228142581880093" lon="5.141245750710368">
<ele>11</ele>
</trkpt>
<trkpt lat="52.228199159726501" lon="5.141235608607531">
<ele>11.26953125</ele>
</trkpt>
<trkpt lat="52.228211732581258" lon="5.141225550323725">
<ele>11.33984375</ele>
</trkpt>
<trkpt lat="52.228255737572908" lon="5.1411750074476">
<ele>11.61328125</ele>
</trkpt>
<trkpt lat="52.228274596855044" lon="5.141154807060957">
<ele>11.7265625</ele>
</trkpt>
<trkpt lat="52.228337461128831" lon="5.141094122081995">
<ele>12.0703125</ele>
</trkpt>
<trkpt lat="52.228362606838346" lon="5.141094122081995">
<ele>12.171875</ele>
</trkpt>
<trkpt lat="52.228438127785921" lon="5.141083979979157">
<ele>12.41015625</ele>
</trkpt>
<trkpt lat="52.228475846350193" lon="5.141083979979157">
<ele>12.51953125</ele>
</trkpt>
<trkpt lat="52.22858271561563" lon="5.141195207834244">
<ele>12.5859375</ele>
</trkpt>
<trkpt lat="52.228601574897766" lon="5.141235608607531">
<ele>12.53515625</ele>
</trkpt>
<trkpt lat="52.228658152744174" lon="5.141265951097012">
<ele>12.58984375</ele>
</trkpt>
<trkpt lat="52.228695871308446" lon="5.141276093199849">
<ele>12.64453125</ele>
</trkpt>
<trkpt lat="52.228702157735825" lon="5.141276093199849">
<ele>12.65625</ele>
</trkpt>
<trkpt lat="52.228758819401264" lon="5.141286151483655">
<ele>12.74609375</ele>
</trkpt>
<trkpt lat="52.2287776786834" lon="5.14130643568933">
<ele>12.72265625</ele>
</trkpt>
<trkpt lat="52.22887197509408" lon="5.141296293586493">
<ele>12.9453125</ele>
</trkpt>
<trkpt lat="52.228959985077381" lon="5.141205349937081">
<ele>13.41796875</ele>
</trkpt>
<trkpt lat="52.22896627150476" lon="5.1411750074476">
<ele>13.53125</ele>
</trkpt>
<trkpt lat="52.229004073888063" lon="5.141063779592514">
<ele>13.96875</ele>
</trkpt>
<trkpt lat="52.229016646742821" lon="5.141053637489677">
<ele>14.02734375</ele>
</trkpt>
<trkpt lat="52.229117229580879" lon="5.141033437103033">
<ele>14.29296875</ele>
</trkpt>
<trkpt lat="52.2293561976403" lon="5.141077106818557">
<ele>15.90234375</ele>
</trkpt>
<trkpt lat="52.229362484067678" lon="5.141097726300359">
<ele>15.76171875</ele>
</trkpt>
<trkpt lat="52.229544790461659" lon="5.141221107915044">
<ele>14.66015625</ele>
</trkpt>
<trkpt lat="52.229702034965158" lon="5.141169726848602">
<ele>14.6328125</ele>
</trkpt>
<trkpt lat="52.229720894247293" lon="5.141169726848602">
<ele>14.59765625</ele>
</trkpt>
<trkpt lat="52.229827763512731" lon="5.141190262511373">
<ele>14.28125</ele>
</trkpt>
<trkpt lat="52.229852909222245" lon="5.141221107915044">
<ele>14.06640625</ele>
</trkpt>
<trkpt lat="52.229859195649624" lon="5.141221107915044">
<ele>14.0390625</ele>
</trkpt>
<trkpt lat="52.229953575879335" lon="5.141262263059616">
<ele>13.484375</ele>
</trkpt>
<trkpt lat="52.229959862306714" lon="5.141262263059616">
<ele>13.4609375</ele>
</trkpt>
<trkpt lat="52.230010153725743" lon="5.141262263059616">
<ele>13.26953125</ele>
</trkpt>
<trkpt lat="52.230035299435258" lon="5.141262263059616">
<ele>13.171875</ele>
</trkpt>
<trkpt lat="52.230110736563802" lon="5.141262263059616">
<ele>12.8828125</ele>
</trkpt>
<trkpt lat="52.230129595845938" lon="5.141272572800517">
<ele>12.77734375</ele>
</trkpt>
<trkpt lat="52.230198830366135" lon="5.141385644674301">
<ele>12.14453125</ele>
</trkpt>
<trkpt lat="52.23031198605895" lon="5.141406264156103">
<ele>11.71875</ele>
</trkpt>
<trkpt lat="52.230337131768465" lon="5.141704492270947">
<ele>10.83984375</ele>
</trkpt>
<trkpt lat="52.230341322720051" lon="5.142512591555715">
<ele>7.765625</ele>
</trkpt>
<trkpt lat="52.230368228629231" lon="5.144496001303196">
<ele>3.62890625</ele>
</trkpt>
<trkpt lat="52.230390692129731" lon="5.146001977846026">
<ele>4.62109375</ele>
</trkpt>
<trkpt lat="52.230417681857944" lon="5.147405108436942">
<ele>7.4375</ele>
</trkpt>
<trkpt lat="52.23043117672205" lon="5.147662181407213">
<ele>8.296875</ele>
</trkpt>
<trkpt lat="52.230504769831896" lon="5.147626977413893">
<ele>8.35546875</ele>
</trkpt>
<trkpt lat="52.230506613850594" lon="5.147624043747783">
<ele>8.34765625</ele>
</trkpt>
<trkpt lat="52.230689842253923" lon="5.147421285510063">
<ele>8.02734375</ele>
</trkpt>
<trkpt lat="52.230898216366768" lon="5.147194974124432">
<ele>7.62109375</ele>
</trkpt>
<trkpt lat="52.231349078938365" lon="5.146683678030968">
<ele>7.3984375</ele>
</trkpt>
<trkpt lat="52.231557117775083" lon="5.14646633528173">
<ele>7.63671875</ele>
</trkpt>
<trkpt lat="52.232022397220135" lon="5.146003486588597">
<ele>8.25390625</ele>
</trkpt>
<trkpt lat="52.232028683647513" lon="5.145993176847696">
<ele>8.27734375</ele>
</trkpt>
<trkpt lat="52.232569484040141" lon="5.145489256829023">
<ele>9.47265625</ele>
</trkpt>
<trkpt lat="52.232594629749656" lon="5.145478947088122">
<ele>9.4609375</ele>
</trkpt>
<trkpt lat="52.233003415167332" lon="5.144995646551251">
<ele>9.8359375</ele>
</trkpt>
<trkpt lat="52.233015988022089" lon="5.144995646551251">
<ele>9.828125</ele>
</trkpt>
<trkpt lat="52.233418403193355" lon="5.144635643810034">
<ele>10.7421875</ele>
</trkpt>
<trkpt lat="52.233424689620733" lon="5.144635643810034">
<ele>10.734375</ele>
</trkpt>
<trkpt lat="52.233990635722876" lon="5.144080258905888">
<ele>12.6796875</ele>
</trkpt>
<trkpt lat="52.23401578143239" lon="5.144049413502216">
<ele>12.71484375</ele>
</trkpt>
<trkpt lat="52.234040927141905" lon="5.144008258357644">
<ele>12.6796875</ele>
</trkpt>
<trkpt lat="52.234424483031034" lon="5.143627719953656">
<ele>11.32421875</ele>
</trkpt>
<trkpt lat="52.234933935105801" lon="5.143103264272213">
<ele>9.86328125</ele>
</trkpt>
<trkpt lat="52.235147673636675" lon="5.142897572368383">
<ele>10.0703125</ele>
</trkpt>
<trkpt lat="52.235160246491432" lon="5.142876952886581">
<ele>10.109375</ele>
</trkpt>
<trkpt lat="52.235763911157846" lon="5.142331877723336">
<ele>9.82421875</ele>
</trkpt>
<trkpt lat="52.236078316345811" lon="5.142013113945723">
<ele>10.55078125</ele>
</trkpt>
<trkpt lat="52.23608460277319" lon="5.142013113945723">
<ele>10.5703125</ele>
</trkpt>
<trkpt lat="52.236355002969503" lon="5.141745647415519">
<ele>10.84765625</ele>
</trkpt>
<trkpt lat="52.236361289396882" lon="5.141745647415519">
<ele>10.87109375</ele>
</trkpt>
<trkpt lat="52.23661283031106" lon="5.141498884186149">
<ele>10.3046875</ele>
</trkpt>
<trkpt lat="52.237562416121364" lon="5.141385728493333">
<ele>9.65625</ele>
</trkpt>
<trkpt lat="52.237983774393797" lon="5.141416573897004">
<ele>8.875</ele>
</trkpt>
<trkpt lat="52.238008920103312" lon="5.141416573897004">
<ele>8.81640625</ele>
</trkpt>
<trkpt lat="52.238184940069914" lon="5.141447419300675">
<ele>8.48046875</ele>
</trkpt>
<trkpt lat="52.23820379935205" lon="5.141457729041576">
<ele>8.46875</ele>
</trkpt>
<trkpt lat="52.238373616710305" lon="5.14152972958982">
<ele>8.3984375</ele>
</trkpt>
<trkpt lat="52.238524490967393" lon="5.141683956608176">
<ele>8.59375</ele>
</trkpt>
<trkpt lat="52.238669162616134" lon="5.141848493367434">
<ele>8.94921875</ele>
</trkpt>
<trkpt lat="52.238681735470891" lon="5.141858803108335">
<ele>8.9765625</ele>
</trkpt>
<trkpt lat="52.238889271393418" lon="5.142033649608493">
<ele>8.80078125</ele>
</trkpt>
<trkpt lat="52.239014999940991" lon="5.142640415579081">
<ele>8.0078125</ele>
</trkpt>
<trkpt lat="52.239153301343322" lon="5.143586648628116">
<ele>6.0234375</ele>
</trkpt>
<trkpt lat="52.239247681573033" lon="5.14456364326179">
<ele>7.25390625</ele>
</trkpt>
<trkpt lat="52.239341977983713" lon="5.145355565473437">
<ele>9.70703125</ele>
</trkpt>
<trkpt lat="52.239511795341969" lon="5.145705258473754">
<ele>9.98046875</ele>
</trkpt>
<trkpt lat="52.239606091752648" lon="5.145787484943867">
<ele>9.74609375</ele>
</trkpt>
<trkpt lat="52.239801054820418" lon="5.145684638991952">
<ele>7.39453125</ele>
</trkpt>
<trkpt lat="52.239819914102554" lon="5.145684638991952">
<ele>7.234375</ele>
</trkpt>
<trkpt lat="52.24012803286314" lon="5.145674413070083">
<ele>7.1015625</ele>
</trkpt>
<trkpt lat="52.240297850221395" lon="5.145715568214655">
<ele>7.421875</ele>
</trkpt>
<trkpt lat="52.24032299593091" lon="5.145725794136524">
<ele>7.4921875</ele>
</trkpt>
<trkpt lat="52.240486443042755" lon="5.145725794136524">
<ele>7.51171875</ele>
</trkpt>
<trkpt lat="52.240499015897512" lon="5.145725794136524">
<ele>7.51171875</ele>
</trkpt>
<trkpt lat="52.240719124674797" lon="5.145715568214655">
<ele>7.8671875</ele>
</trkpt>
<trkpt lat="52.240763129666448" lon="5.145725794136524">
<ele>8.25390625</ele>
</trkpt>
<trkpt lat="52.240951806306839" lon="5.145725794136524">
<ele>9.71875</ele>
</trkpt>
<trkpt lat="52.240958092734218" lon="5.145725794136524">
<ele>9.76953125</ele>
</trkpt>
<trkpt lat="52.241153055801988" lon="5.145705258473754">
<ele>11.2421875</ele>
</trkpt>
<trkpt lat="52.241165628656745" lon="5.145694948732853">
<ele>11.3203125</ele>
</trkpt>
<trkpt lat="52.241209633648396" lon="5.14563325792551">
<ele>11.56640625</ele>
</trkpt>
<trkpt lat="52.241215920075774" lon="5.145622948184609">
<ele>11.6015625</ele>
</trkpt>
<trkpt lat="52.24123477935791" lon="5.14541725628078">
<ele>11.44140625</ele>
</trkpt>
<trkpt lat="52.241228492930532" lon="5.145407030358911">
<ele>11.36328125</ele>
</trkpt>
<trkpt lat="52.241184487938881" lon="5.145077873021364">
<ele>10.1796875</ele>
</trkpt>
<trkpt lat="52.241178201511502" lon="5.145026491954923">
<ele>9.953125</ele>
</trkpt>
<trkpt lat="52.241153055801988" lon="5.144759025424719">
<ele>8.85546875</ele>
</trkpt>
<trkpt lat="52.24114048294723" lon="5.144717954099178">
<ele>8.6015625</ele>
</trkpt>
<trkpt lat="52.24114048294723" lon="5.144707644358277">
<ele>8.5703125</ele>
</trkpt>
<trkpt lat="52.241134196519852" lon="5.144512262195349">
<ele>7.90625</ele>
</trkpt>
<trkpt lat="52.241134196519852" lon="5.144450487568975">
<ele>7.71875</ele>
</trkpt>
<trkpt lat="52.241134196519852" lon="5.144440261647105">
<ele>7.6875</ele>
</trkpt>
<trkpt lat="52.241134196519852" lon="5.144316796213388">
<ele>7.54296875</ele>
</trkpt>
<trkpt lat="52.241134196519852" lon="5.144296260550618">
<ele>7.578125</ele>
</trkpt>
<trkpt lat="52.24119077436626" lon="5.143926031887531">
<ele>8.7265625</ele>
</trkpt>
<trkpt lat="52.241354221478105" lon="5.143607184290886">
<ele>10.64453125</ele>
</trkpt>
<trkpt lat="52.241555470973253" lon="5.143391182646155">
<ele>11.8515625</ele>
</trkpt>
<trkpt lat="52.241574330255389" lon="5.143370646983385">
<ele>11.796875</ele>
</trkpt>
<trkpt lat="52.241800725460052" lon="5.143257491290569">
<ele>11.046875</ele>
</trkpt>
<trkpt lat="52.241838444024324" lon="5.14326780103147">
<ele>10.9375</ele>
</trkpt>
<trkpt lat="52.24185730330646" lon="5.14326780103147">
<ele>10.87890625</ele>
</trkpt>
<trkpt lat="52.241995688527822" lon="5.143350111320615">
<ele>10.55859375</ele>
</trkpt>
<trkpt lat="52.242014547809958" lon="5.143380956724286">
<ele>10.546875</ele>
</trkpt>
<trkpt lat="52.242045979946852" lon="5.143401492387056">
<ele>10.4921875</ele>
</trkpt>
<trkpt lat="52.24214656278491" lon="5.143514648079872">
<ele>10.421875</ele>
</trkpt>
<trkpt lat="52.242171708494425" lon="5.143545493483543">
<ele>10.390625</ele>
</trkpt>
<trkpt lat="52.242335239425302" lon="5.143751185387373">
<ele>10</ele>
</trkpt>
<trkpt lat="52.24234152585268" lon="5.143751185387373">
<ele>9.984375</ele>
</trkpt>
<trkpt lat="52.242448395118117" lon="5.143967187032104">
<ele>9.73046875</ele>
</trkpt>
<trkpt lat="52.242448395118117" lon="5.143987722694874">
<ele>9.73046875</ele>
</trkpt>
<trkpt lat="52.242486197501421" lon="5.144152259454131">
<ele>9.640625</ele>
</trkpt>
<trkpt lat="52.242473540827632" lon="5.144625334069133">
<ele>9.98046875</ele>
</trkpt>
<trkpt lat="52.242442108690739" lon="5.144964717328548">
<ele>10.46484375</ele>
</trkpt>
<trkpt lat="52.242442108690739" lon="5.144995646551251">
<ele>10.5</ele>
</trkpt>
<trkpt lat="52.242379244416952" lon="5.145520102232695">
<ele>11.6484375</ele>
</trkpt>
<trkpt lat="52.242372957989573" lon="5.145520102232695">
<ele>11.66796875</ele>
</trkpt>
<trkpt lat="52.242379244416952" lon="5.145705258473754">
<ele>12.08203125</ele>
</trkpt>
<trkpt lat="52.242379244416952" lon="5.145715568214655">
<ele>12.10546875</ele>
</trkpt>
<trkpt lat="52.242429535835981" lon="5.145880104973912">
<ele>12.3203125</ele>
</trkpt>
<trkpt lat="52.242555348202586" lon="5.146353263407946">
<ele>11.5390625</ele>
</trkpt>
<trkpt lat="52.242643358185887" lon="5.146620646119118">
<ele>10.73828125</ele>
</trkpt>
<trkpt lat="52.242706306278706" lon="5.146744111552835">
<ele>10.3359375</ele>
</trkpt>
<trkpt lat="52.242712592706084" lon="5.146754337474704">
<ele>10.30078125</ele>
</trkpt>
<trkpt lat="52.242775456979871" lon="5.146949803456664">
<ele>9.9453125</ele>
</trkpt>
<trkpt lat="52.242781743407249" lon="5.146970339119434">
<ele>9.9296875</ele>
</trkpt>
<trkpt lat="52.2428257483989" lon="5.147145185619593">
<ele>9.82421875</ele>
</trkpt>
<trkpt lat="52.242832034826279" lon="5.147155495360494">
<ele>9.80859375</ele>
</trkpt>
<trkpt lat="52.242901185527444" lon="5.147381722927094">
<ele>9.640625</ele>
</trkpt>
<trkpt lat="52.242901185527444" lon="5.147392032667995">
<ele>9.640625</ele>
</trkpt>
<trkpt lat="52.242957763373852" lon="5.14753594994545">
<ele>9.5078125</ele>
</trkpt>
<trkpt lat="52.242989195510745" lon="5.147659415379167">
<ele>9.4296875</ele>
</trkpt>
<trkpt lat="52.242995565757155" lon="5.147679951041937">
<ele>9.4140625</ele>
</trkpt>
<trkpt lat="52.243052143603563" lon="5.147906262427568">
<ele>9.4609375</ele>
</trkpt>
<trkpt lat="52.243077289313078" lon="5.147988488897681">
<ele>9.4921875</ele>
</trkpt>
<trkpt lat="52.243083575740457" lon="5.147988488897681">
<ele>9.484375</ele>
</trkpt>
<trkpt lat="52.243184158578515" lon="5.147885642945766">
<ele>9.2578125</ele>
</trkpt>
<trkpt lat="52.243284741416574" lon="5.14775195159018">
<ele>9.3359375</ele>
</trkpt>
<trkpt lat="52.2434042673558" lon="5.147587414830923">
<ele>9.4921875</ele>
</trkpt>
<trkpt lat="52.243441985920072" lon="5.14730972237885">
<ele>9.3515625</ele>
</trkpt>
<trkpt lat="52.243441985920072" lon="5.147299412637949">
<ele>9.34375</ele>
</trkpt>
<trkpt lat="52.243347689509392" lon="5.146970339119434">
<ele>9.0546875</ele>
</trkpt>
<trkpt lat="52.24330997094512" lon="5.146723492071033">
<ele>9.11328125</ele>
</trkpt>
<trkpt lat="52.243291111662984" lon="5.146713182330132">
<ele>9.12890625</ele>
</trkpt>
<trkpt lat="52.243221877142787" lon="5.14643557369709">
<ele>9.44921875</ele>
</trkpt>
<trkpt lat="52.243215590715408" lon="5.14643557369709">
<ele>9.45703125</ele>
</trkpt>
<trkpt lat="52.243215590715408" lon="5.146229881793261">
<ele>9.67578125</ele>
</trkpt>
<trkpt lat="52.243247022852302" lon="5.145849343389273">
<ele>9.61328125</ele>
</trkpt>
<trkpt lat="52.243322543799877" lon="5.145520186051726">
<ele>9.12890625</ele>
</trkpt>
<trkpt lat="52.243322543799877" lon="5.145499650388956">
<ele>9.109375</ele>
</trkpt>
<trkpt lat="52.2434042673558" lon="5.144995730370283">
<ele>8.61328125</ele>
</trkpt>
<trkpt lat="52.243410553783178" lon="5.143895270302892">
<ele>7.9609375</ele>
</trkpt>
<trkpt lat="52.243391694501042" lon="5.143514731898904">
<ele>7.7421875</ele>
</trkpt>
<trkpt lat="52.243341403082013" lon="5.143154729157686">
<ele>7.98046875</ele>
</trkpt>
<trkpt lat="52.243316257372499" lon="5.142655335366726">
<ele>8.26953125</ele>
</trkpt>
<trkpt lat="52.243322543799877" lon="5.14264527708292">
<ele>8.2578125</ele>
</trkpt>
<trkpt lat="52.24354893900454" lon="5.142392478883266">
<ele>8.37109375</ele>
</trkpt>
<trkpt lat="52.243693526834249" lon="5.142159964889288">
<ele>8.4375</ele>
</trkpt>
<trkpt lat="52.243945067748427" lon="5.141765763983131">
<ele>8.2265625</ele>
</trkpt>
<trkpt lat="52.243963927030563" lon="5.141755621880293">
<ele>8.25</ele>
</trkpt>
<trkpt lat="52.244240613654256" lon="5.14147256501019">
<ele>7.55859375</ele>
</trkpt>
<trkpt lat="52.24461168050766" lon="5.141199650242925">
<ele>5.73046875</ele>
</trkpt>
<trkpt lat="52.244617966935039" lon="5.141199650242925">
<ele>5.70703125</ele>
</trkpt>
<trkpt lat="52.244863137602806" lon="5.14098733663559">
<ele>4.8203125</ele>
</trkpt>
<trkpt lat="52.245051814243197" lon="5.140835708007217">
<ele>4.578125</ele>
</trkpt>
<trkpt lat="52.245070673525333" lon="5.140825565904379">
<ele>4.5859375</ele>
</trkpt>
<trkpt lat="52.245297068729997" lon="5.140663795173168">
<ele>4.69140625</ele>
</trkpt>
<trkpt lat="52.245517177507281" lon="5.140471765771508">
<ele>4.84375</ele>
</trkpt>
<trkpt lat="52.245611473917961" lon="5.14040102250874">
<ele>4.94921875</ele>
</trkpt>
<trkpt lat="52.245605187490582" lon="5.1401078235358">
<ele>4.90625</ele>
</trkpt>
<trkpt lat="52.245636619627476" lon="5.139956194907427">
<ele>4.8828125</ele>
</trkpt>
<trkpt lat="52.245636619627476" lon="5.139511367306113">
<ele>4.6015625</ele>
</trkpt>
<trkpt lat="52.245611473917961" lon="5.138288196176291">
<ele>4.84765625</ele>
</trkpt>
<trkpt lat="52.245624046772718" lon="5.13750976882875">
<ele>8.42578125</ele>
</trkpt>
<trkpt lat="52.245642906054854" lon="5.136953797191382">
<ele>11.23828125</ele>
</trkpt>
<trkpt lat="52.245642906054854" lon="5.136610055342317">
<ele>12.1875</ele>
</trkpt>
<trkpt lat="52.245632261037827" lon="5.136391706764698">
<ele>11.91015625</ele>
</trkpt>
<trkpt lat="52.245971811935306" lon="5.136196324601769">
<ele>12.75</ele>
</trkpt>
<trkpt lat="52.245978098362684" lon="5.136196324601769">
<ele>12.765625</ele>
</trkpt>
<trkpt lat="52.246399372816086" lon="5.136124324053526">
<ele>14.1796875</ele>
</trkpt>
<trkpt lat="52.246437091380358" lon="5.136124324053526">
<ele>14.2890625</ele>
</trkpt>
<trkpt lat="52.246449664235115" lon="5.136124324053526">
<ele>14.328125</ele>
</trkpt>
<trkpt lat="52.2466697730124" lon="5.136052323505282">
<ele>12.890625</ele>
</trkpt>
<trkpt lat="52.246688632294536" lon="5.136052323505282">
<ele>12.6640625</ele>
</trkpt>
<trkpt lat="52.246858449652791" lon="5.135826095938683">
<ele>10.83984375</ele>
</trkpt>
<trkpt lat="52.246877308934927" lon="5.135805476456881">
<ele>10.62109375</ele>
</trkpt>
<trkpt lat="52.246959032490849" lon="5.135404402390122">
<ele>9.828125</ele>
</trkpt>
<trkpt lat="52.246959032490849" lon="5.135383866727352">
<ele>9.83984375</ele>
</trkpt>
<trkpt lat="52.246952746063471" lon="5.134993018582463">
<ele>9.859375</ele>
</trkpt>
<trkpt lat="52.246952746063471" lon="5.134982708841562">
<ele>9.8515625</ele>
</trkpt>
<trkpt lat="52.246915027499199" lon="5.134396478533745">
<ele>10.0390625</ele>
</trkpt>
<trkpt lat="52.246915027499199" lon="5.134386252611876">
<ele>10.03125</ele>
</trkpt>
<trkpt lat="52.246915027499199" lon="5.13406740501523">
<ele>9.83984375</ele>
</trkpt>
<trkpt lat="52.246921313926578" lon="5.133995404466987">
<ele>9.6953125</ele>
</trkpt>
<trkpt lat="52.246933886781335" lon="5.133563484996557">
<ele>9.2421875</ele>
</trkpt>
<trkpt lat="52.246984178200364" lon="5.133141791447997">
<ele>7.2421875</ele>
</trkpt>
<trkpt lat="52.246996751055121" lon="5.13299779035151">
<ele>6.671875</ele>
</trkpt>
<trkpt lat="52.246858449652791" lon="5.133234327659011">
<ele>9.15625</ele>
</trkpt>
<trkpt lat="52.246525185182691" lon="5.133553175255656">
<ele>15.62109375</ele>
</trkpt>
<trkpt lat="52.246116399765015" lon="5.133676556870341">
<ele>16.01171875</ele>
</trkpt>
<trkpt lat="52.245739130303264" lon="5.133830867707729">
<ele>15.7109375</ele>
</trkpt>
<trkpt lat="52.245588256046176" lon="5.13384117744863">
<ele>15.72265625</ele>
</trkpt>
<trkpt lat="52.245586328208447" lon="5.133718801662326">
<ele>14.43359375</ele>
</trkpt>
<trkpt lat="52.245529750362039" lon="5.132618928328157">
<ele>9.91015625</ele>
</trkpt>
<trkpt lat="52.245517177507281" lon="5.132104698568583">
<ele>5.53515625</ele>
</trkpt>
<trkpt lat="52.245517177507281" lon="5.132094388827682">
<ele>5.4453125</ele>
</trkpt>
<trkpt lat="52.245592614635825" lon="5.131909316405654">
<ele>3.57421875</ele>
</trkpt>
<trkpt lat="52.245605187490582" lon="5.131683005020022">
<ele>3.171875</ele>
</trkpt>
<trkpt lat="52.245605187490582" lon="5.131662469357252">
<ele>3.16796875</ele>
</trkpt>
<trkpt lat="52.245605187490582" lon="5.131353931501508">
<ele>3.0859375</ele>
</trkpt>
<trkpt lat="52.245605187490582" lon="5.131333312019706">
<ele>3.078125</ele>
</trkpt>
<trkpt lat="52.24561776034534" lon="5.131004238501191">
<ele>3</ele>
</trkpt>
<trkpt lat="52.245624046772718" lon="5.130459163337946">
<ele>3</ele>
</trkpt>
<trkpt lat="52.245624046772718" lon="5.129821551963687">
<ele>3.0703125</ele>
</trkpt>
<trkpt lat="52.245611473917961" lon="5.129441013559699">
<ele>3.18359375</ele>
</trkpt>
<trkpt lat="52.245586328208447" lon="5.129122165963054">
<ele>2.95703125</ele>
</trkpt>
<trkpt lat="52.245567468926311" lon="5.128967855125666">
<ele>2.8125</ele>
</trkpt>
<trkpt lat="52.245403937995434" lon="5.128937009721994">
<ele>3.2578125</ele>
</trkpt>
<trkpt lat="52.245315928012133" lon="5.128947319462895">
<ele>3.53515625</ele>
</trkpt>
<trkpt lat="52.245240490883589" lon="5.128957629203796">
<ele>3.78125</ele>
</trkpt>
<trkpt lat="52.24523420445621" lon="5.128957629203796">
<ele>3.796875</ele>
</trkpt>
<trkpt lat="52.245127251371741" lon="5.128988474607468">
<ele>4.1796875</ele>
</trkpt>
<trkpt lat="52.245120964944363" lon="5.128988474607468">
<ele>4.19921875</ele>
</trkpt>
<trkpt lat="52.244976377114654" lon="5.128988474607468">
<ele>4.640625</ele>
</trkpt>
<trkpt lat="52.244963804259896" lon="5.128988474607468">
<ele>4.6796875</ele>
</trkpt>
<trkpt lat="52.244881996884942" lon="5.129009010270238">
<ele>4.9765625</ele>
</trkpt>
<trkpt lat="52.244793986901641" lon="5.128967855125666">
<ele>5</ele>
</trkpt>
<trkpt lat="52.244674544781446" lon="5.128978164866567">
<ele>4.9453125</ele>
</trkpt>
<trkpt lat="52.244668258354068" lon="5.128978164866567">
<ele>4.94140625</ele>
</trkpt>
<trkpt lat="52.244561305269599" lon="5.128978164866567">
<ele>4.875</ele>
</trkpt>
<trkpt lat="52.244548732414842" lon="5.128998784348369">
<ele>4.91015625</ele>
</trkpt>
<trkpt lat="52.24446072243154" lon="5.129070701077581">
<ele>4.984375</ele>
</trkpt>
<trkpt lat="52.244303561747074" lon="5.129070701077581">
<ele>4.8671875</ele>
</trkpt>
<trkpt lat="52.244297275319695" lon="5.129070701077581">
<ele>4.859375</ele>
</trkpt>
<trkpt lat="52.244158890098333" lon="5.129009010270238">
<ele>4.66796875</ele>
</trkpt>
<trkpt lat="52.244152603670955" lon="5.129009010270238">
<ele>4.6640625</ele>
</trkpt>
<trkpt lat="52.243875917047262" lon="5.129142701625824">
<ele>4.203125</ele>
</trkpt>
<trkpt lat="52.243875917047262" lon="5.129153011366725">
<ele>4.2109375</ele>
</trkpt>
<trkpt lat="52.24383819848299" lon="5.129348393529654">
<ele>4.1953125</ele>
</trkpt>
<trkpt lat="52.243831912055612" lon="5.129358703270555">
<ele>4.17578125</ele>
</trkpt>
<trkpt lat="52.243706183508039" lon="5.129574704915285">
<ele>3.1328125</ele>
</trkpt>
<trkpt lat="52.243699813261628" lon="5.129595240578055">
<ele>3.06640625</ele>
</trkpt>
<trkpt lat="52.243561511859298" lon="5.129759777337313">
<ele>2.50390625</ele>
</trkpt>
<trkpt lat="52.243561511859298" lon="5.129770087078214">
<ele>2.4921875</ele>
</trkpt>
<trkpt lat="52.243391694501042" lon="5.12988324277103">
<ele>2.3125</ele>
</trkpt>
<trkpt lat="52.243391694501042" lon="5.129893468692899">
<ele>2.31640625</ele>
</trkpt>
<trkpt lat="52.243165383115411" lon="5.130099160596728">
<ele>2.76171875</ele>
</trkpt>
<trkpt lat="52.243077289313078" lon="5.130150625482202">
<ele>3.515625</ele>
</trkpt>
<trkpt lat="52.242989279329777" lon="5.130243161693215">
<ele>4.31640625</ele>
</trkpt>
<trkpt lat="52.242989279329777" lon="5.130263781175017">
<ele>4.33203125</ele>
</trkpt>
<trkpt lat="52.242989279329777" lon="5.13076770119369">
<ele>4.67578125</ele>
</trkpt>
<trkpt lat="52.242989279329777" lon="5.130778010934591">
<ele>4.68359375</ele>
</trkpt>
<trkpt lat="52.242989279329777" lon="5.131137929856777">
<ele>5.11328125</ele>
</trkpt>
<trkpt lat="52.242989279329777" lon="5.131168775260449">
<ele>5.19140625</ele>
</trkpt>
<trkpt lat="52.242989279329777" lon="5.131549313664436">
<ele>6.16796875</ele>
</trkpt>
<trkpt lat="52.242989279329777" lon="5.131559623405337">
<ele>6.1953125</ele>
</trkpt>
<trkpt lat="52.242989279329777" lon="5.131796160712838">
<ele>6.80078125</ele>
</trkpt>
<trkpt lat="52.242989279329777" lon="5.131816696375608">
<ele>6.85546875</ele>
</trkpt>
<trkpt lat="52.242995565757155" lon="5.132001852616668">
<ele>7.6171875</ele>
</trkpt>
<trkpt lat="52.242995565757155" lon="5.132053233683109">
<ele>7.86328125</ele>
</trkpt>
<trkpt lat="52.243008138611913" lon="5.132279545068741">
<ele>8.953125</ele>
</trkpt>
<trkpt lat="52.243008138611913" lon="5.132300080731511">
<ele>9.05078125</ele>
</trkpt>
<trkpt lat="52.243026997894049" lon="5.132382391020656">
<ele>9.4453125</ele>
</trkpt>
<trkpt lat="52.243033284321427" lon="5.132413236424327">
<ele>9.59375</ele>
</trkpt>
<trkpt lat="52.243039570748806" lon="5.132516082376242">
<ele>10.0859375</ele>
</trkpt>
<trkpt lat="52.243052143603563" lon="5.132660083472729">
<ele>10.78125</ele>
</trkpt>
<trkpt lat="52.243052143603563" lon="5.132680619135499">
<ele>10.87890625</ele>
</trkpt>
<trkpt lat="52.243026997894049" lon="5.132793774828315">
<ele>11.296875</ele>
</trkpt>
<trkpt lat="52.24302071146667" lon="5.132824620231986">
<ele>11.40234375</ele>
</trkpt>
<trkpt lat="52.243001852184534" lon="5.132886311039329">
<ele>11.60546875</ele>
</trkpt>
<trkpt lat="52.242995565757155" lon="5.13289662078023">
<ele>11.640625</ele>
</trkpt>
<trkpt lat="52.242788029834628" lon="5.132906930521131">
<ele>11.61328125</ele>
</trkpt>
<trkpt lat="52.242756597697735" lon="5.132937775924802">
<ele>11.6953125</ele>
</trkpt>
<trkpt lat="52.242599437013268" lon="5.132978847250342">
<ele>11.7578125</ele>
</trkpt>
<trkpt lat="52.242580577731133" lon="5.133009776473045">
<ele>11.8359375</ele>
</trkpt>
<trkpt lat="52.242574291303754" lon="5.133020002394915">
<ele>11.86328125</ele>
</trkpt>
<trkpt lat="52.242486197501421" lon="5.133174313232303">
<ele>12.2265625</ele>
</trkpt>
<trkpt lat="52.242473624646664" lon="5.133215468376875">
<ele>12.32421875</ele>
</trkpt>
<trkpt lat="52.242473624646664" lon="5.133236004039645">
<ele>12.37890625</ele>
</trkpt>
<trkpt lat="52.242461051791906" lon="5.133400540798903">
<ele>12.79296875</ele>
</trkpt>
<trkpt lat="52.242461051791906" lon="5.133421160280705">
<ele>12.84765625</ele>
</trkpt>
<trkpt lat="52.242310177534819" lon="5.133431386202574">
<ele>12.6640625</ele>
</trkpt>
<trkpt lat="52.242285031825304" lon="5.133431386202574">
<ele>12.58984375</ele>
</trkpt>
<trkpt lat="52.242127787321806" lon="5.133431386202574">
<ele>12.12109375</ele>
</trkpt>
<trkpt lat="52.24210892803967" lon="5.133441695943475">
<ele>12.078125</ele>
</trkpt>
<trkpt lat="52.24197062663734" lon="5.133328540250659">
<ele>11.62109375</ele>
</trkpt>
<trkpt lat="52.24197062663734" lon="5.13331831432879">
<ele>11.62109375</ele>
</trkpt>
<trkpt lat="52.241832241415977" lon="5.133143467828631">
<ele>11.38671875</ele>
</trkpt>
<trkpt lat="52.241825954988599" lon="5.133143467828631">
<ele>11.375</ele>
</trkpt>
<trkpt lat="52.241643648594618" lon="5.133050847798586">
<ele>11.28125</ele>
</trkpt>
<trkpt lat="52.241612719371915" lon="5.132999382913113">
<ele>11.34765625</ele>
</trkpt>
<trkpt lat="52.241612719371915" lon="5.132773071527481">
<ele>11.75</ele>
</trkpt>
<trkpt lat="52.241619005799294" lon="5.132577689364553">
<ele>11.90625</ele>
</trkpt>
<trkpt lat="52.241663010790944" lon="5.132371997460723">
<ele>11.82421875</ele>
</trkpt>
<trkpt lat="52.241663010790944" lon="5.132361687719822">
<ele>11.82421875</ele>
</trkpt>
<trkpt lat="52.241738447919488" lon="5.13186807744205">
<ele>11.30859375</ele>
</trkpt>
<trkpt lat="52.241744734346867" lon="5.131693230941892">
<ele>11.47265625</ele>
</trkpt>
<trkpt lat="52.241744734346867" lon="5.131652075797319">
<ele>11.5234375</ele>
</trkpt>
<trkpt lat="52.241707015782595" lon="5.131394919008017">
<ele>12.10546875</ele>
</trkpt>
<trkpt lat="52.2415875736624" lon="5.131220072507858">
<ele>13.17578125</ele>
</trkpt>
<trkpt lat="52.241581287235022" lon="5.131209846585989">
<ele>13.234375</ele>
</trkpt>
<trkpt lat="52.241499479860067" lon="5.13102469034493">
<ele>14</ele>
</trkpt>
<trkpt lat="52.24148690700531" lon="5.130983535200357">
<ele>14</ele>
</trkpt>
<trkpt lat="52.241436615586281" lon="5.130860153585672">
<ele>13.984375</ele>
</trkpt>
<trkpt lat="52.241417756304145" lon="5.1308189984411">
<ele>13.97265625</ele>
</trkpt>
<trkpt lat="52.241411469876766" lon="5.130808688700199">
<ele>13.96875</ele>
</trkpt>
<trkpt lat="52.241373751312494" lon="5.130674997344613">
<ele>13.93359375</ele>
</trkpt>
<trkpt lat="52.24134860560298" lon="5.13060299679637">
<ele>13.90234375</ele>
</trkpt>
<trkpt lat="52.241505766287446" lon="5.130438460037112">
<ele>13.984375</ele>
</trkpt>
<trkpt lat="52.241518339142203" lon="5.130428234115243">
<ele>13.90234375</ele>
</trkpt>
<trkpt lat="52.241650437936187" lon="5.130325388163328">
<ele>13.08984375</ele>
</trkpt>
<trkpt lat="52.241669297218323" lon="5.130325388163328">
<ele>12.97265625</ele>
</trkpt>
<trkpt lat="52.241744734346867" lon="5.130253387615085">
<ele>12.53125</ele>
</trkpt>
<trkpt lat="52.241751020774245" lon="5.130253387615085">
<ele>12.49609375</ele>
</trkpt>
<trkpt lat="52.241864176467061" lon="5.13015054166317">
<ele>11.625</ele>
</trkpt>
<trkpt lat="52.241864176467061" lon="5.130006540566683">
<ele>11.109375</ele>
</trkpt>
<trkpt lat="52.241851603612304" lon="5.12995507568121">
<ele>10.99609375</ele>
</trkpt>
<trkpt lat="52.24182017147541" lon="5.129780229181051">
<ele>10.5546875</ele>
</trkpt>
<trkpt lat="52.241801312193274" lon="5.12972884811461">
<ele>10.484375</ele>
</trkpt>
<trkpt lat="52.241795025765896" lon="5.129677383229137">
<ele>10.3359375</ele>
</trkpt>
<trkpt lat="52.241782452911139" lon="5.129656847566366">
<ele>10.33984375</ele>
</trkpt>
<trkpt lat="52.241738447919488" lon="5.129245463758707">
<ele>9.34375</ele>
</trkpt>
<trkpt lat="52.241732161492109" lon="5.129183772951365">
<ele>9.26953125</ele>
</trkpt>
<trkpt lat="52.241725875064731" lon="5.129132308065891">
<ele>9.21484375</ele>
</trkpt>
<trkpt lat="52.241725875064731" lon="5.128864925354719">
<ele>8.72265625</ele>
</trkpt>
<trkpt lat="52.241725875064731" lon="5.128834079951048">
<ele>8.6640625</ele>
</trkpt>
<trkpt lat="52.241744734346867" lon="5.128628388047218">
<ele>8.1328125</ele>
</trkpt>
<trkpt lat="52.241744734346867" lon="5.128607852384448">
<ele>8.09375</ele>
</trkpt>
<trkpt lat="52.241813885048032" lon="5.128237539902329">
<ele>7.6171875</ele>
</trkpt>
<trkpt lat="52.24182017147541" lon="5.128175849094987">
<ele>7.60546875</ele>
</trkpt>
<trkpt lat="52.24182017147541" lon="5.128134693950415">
<ele>7.63671875</ele>
</trkpt>
<trkpt lat="52.241864176467061" lon="5.127620464190841">
<ele>7.7421875</ele>
</trkpt>
<trkpt lat="52.241864176467061" lon="5.12759992852807">
<ele>7.79296875</ele>
</trkpt>
<trkpt lat="52.24187683314085" lon="5.12736339122057">
<ele>8.23828125</ele>
</trkpt>
<trkpt lat="52.241857890039682" lon="5.127054853364825">
<ele>9.16015625</ele>
</trkpt>
<trkpt lat="52.241851603612304" lon="5.127054853364825">
<ele>9.22265625</ele>
</trkpt>
<trkpt lat="52.24177616648376" lon="5.126838851720095">
<ele>10.359375</ele>
</trkpt>
<trkpt lat="52.241763593629003" lon="5.126787470653653">
<ele>10.46484375</ele>
</trkpt>
<trkpt lat="52.241763593629003" lon="5.126777160912752">
<ele>10.4609375</ele>
</trkpt>
<trkpt lat="52.241732161492109" lon="5.126602314412594">
<ele>10.70703125</ele>
</trkpt>
<trkpt lat="52.241719588637352" lon="5.126561159268022">
<ele>10.8203125</ele>
</trkpt>
<trkpt lat="52.241694442927837" lon="5.126345241442323">
<ele>11.015625</ele>
</trkpt>
<trkpt lat="52.241688156500459" lon="5.126314396038652">
<ele>11.0703125</ele>
</trkpt>
<trkpt lat="52.241675583645701" lon="5.126118930056691">
<ele>11.15234375</ele>
</trkpt>
<trkpt lat="52.241675583645701" lon="5.126108704134822">
<ele>11.15234375</ele>
</trkpt>
<trkpt lat="52.241675583645701" lon="5.125872083008289">
<ele>11.33984375</ele>
</trkpt>
<trkpt lat="52.241675583645701" lon="5.125851547345519">
<ele>11.3671875</ele>
</trkpt>
<trkpt lat="52.241656724363565" lon="5.125635545700789">
<ele>11.828125</ele>
</trkpt>
<trkpt lat="52.241694442927837" lon="5.125481318682432">
<ele>11.60546875</ele>
</trkpt>
<trkpt lat="52.241694442927837" lon="5.125471008941531">
<ele>11.6171875</ele>
</trkpt>
<trkpt lat="52.241669297218323" lon="5.125285936519504">
<ele>12.11328125</ele>
</trkpt>
<trkpt lat="52.241663010790944" lon="5.125255007296801">
<ele>12.21875</ele>
</trkpt>
<trkpt lat="52.241637865081429" lon="5.125100780278444">
<ele>12.2109375</ele>
</trkpt>
<trkpt lat="52.241637865081429" lon="5.125069934874773">
<ele>12.1171875</ele>
</trkpt>
<trkpt lat="52.241637865081429" lon="5.124936243519187">
<ele>11.71484375</ele>
</trkpt>
<trkpt lat="52.241637865081429" lon="5.124905398115516">
<ele>11.62109375</ele>
</trkpt>
<trkpt lat="52.241669297218323" lon="5.124709932133555">
<ele>10.7578125</ele>
</trkpt>
<trkpt lat="52.241675583645701" lon="5.124709932133555">
<ele>10.70703125</ele>
</trkpt>
<trkpt lat="52.241713302209973" lon="5.124596860259771">
<ele>10.07421875</ele>
</trkpt>
<trkpt lat="52.241725875064731" lon="5.1245660148561">
<ele>9.890625</ele>
</trkpt>
<trkpt lat="52.241763593629003" lon="5.124401394277811">
<ele>9.1796875</ele>
</trkpt>
<trkpt lat="52.241763593629003" lon="5.12435001321137">
<ele>9.11328125</ele>
</trkpt>
<trkpt lat="52.241769880056381" lon="5.124103166162968">
<ele>8.97265625</ele>
</trkpt>
<trkpt lat="52.241763593629003" lon="5.124072320759296">
<ele>9.0078125</ele>
</trkpt>
<trkpt lat="52.241744734346867" lon="5.123753473162651">
<ele>9.0390625</ele>
</trkpt>
<trkpt lat="52.241744734346867" lon="5.12372262775898">
<ele>9.03125</ele>
</trkpt>
<trkpt lat="52.241744734346867" lon="5.123372934758663">
<ele>8.52734375</ele>
</trkpt>
<trkpt lat="52.241826457902789" lon="5.12309524230659">
<ele>7.2890625</ele>
</trkpt>
<trkpt lat="52.241895692422986" lon="5.122889550402761">
<ele>6.453125</ele>
</trkpt>
<trkpt lat="52.241945900022984" lon="5.122704645618796">
<ele>5.8515625</ele>
</trkpt>
<trkpt lat="52.241958472877741" lon="5.122704645618796">
<ele>5.79296875</ele>
</trkpt>
<trkpt lat="52.241971045732498" lon="5.122375572100282">
<ele>4.81640625</ele>
</trkpt>
<trkpt lat="52.241971045732498" lon="5.122077343985438">
<ele>3.98828125</ele>
</trkpt>
<trkpt lat="52.241977332159877" lon="5.121665960177779">
<ele>2.55078125</ele>
</trkpt>
<trkpt lat="52.241965178400278" lon="5.121640479192138">
<ele>2.45703125</ele>
</trkpt>
<trkpt lat="52.241706512868404" lon="5.121646346524358">
<ele>2.70703125</ele>
</trkpt>
</trkseg>
</trk>

</gpx>