<?xml version="1.0" encoding="UTF-8"?>
<gpx version="1.1" creator="GPSBabel - http://www.gpsbabel.org" xmlns="http://www.topografix.com/GPX/1/1" xmlns:xsi="http://www.w3.org/2001/XMLSchema-instance">
  <metadata>
    <time>2024-01-09T13:38:43.079Z</time>
    <bounds minlat="52.239420000" minlon="5.173400000" maxlat="52.260930000" maxlon="5.201080000"/>
  </metadata>
  <wpt lat="52.239420000" lon="5.200050000">
    <name>Waterwinput</name>
    <cmt>Vanwege de goede kwaliteit van het grondwater in het Gooi werd in de 19e eeuw al drinkwater uit de bodem omhoog gepompt. Aan het pompstation in een diepe groeve kunt u zien dat de pompen in die tijd nog niet zo veel capaciteit hadden: men moest de pomp steeds dieper plaatsen om bij het water te kunnen komen. De diepe kuil ligt in het waterwingebied langs de Hilversumseweg, achter de omheining. Dat is te bekijken als u ongeveer 50 meter vóór de Hilversumseweg het pad verlaat en even naar het hek aan uw rechterhand loopt. Het waterwingebied is alleen af en toe toegankelijk tijdens rondleidingen door het drinkwaterbedrijf.&lt;br/&gt;&lt;br/&gt;&lt;a href=&quot;https://www.routeyou.com/location/view/48826249.nl?toptext=2508981&quot;&gt;Meer informatie&lt;/a&gt;</cmt>
    <desc>Vanwege de goede kwaliteit van het grondwater in het Gooi werd in de 19e eeuw al drinkwater uit de bodem omhoog gepompt. Aan het pompstation in een diepe groeve kunt u zien dat de pompen in die tijd nog niet zo veel capaciteit hadden: men moest de pomp steeds dieper plaatsen om bij het water te kunnen komen. De diepe kuil ligt in het waterwingebied langs de Hilversumseweg, achter de omheining. Dat is te bekijken als u ongeveer 50 meter vóór de Hilversumseweg het pad verlaat en even naar het hek aan uw rechterhand loopt. Het waterwingebied is alleen af en toe toegankelijk tijdens rondleidingen door het drinkwaterbedrijf.&lt;br/&gt;&lt;br/&gt;&lt;a href=&quot;https://www.routeyou.com/location/view/48826249.nl?toptext=2508981&quot;&gt;Meer informatie&lt;/a&gt;</desc>
    <type>Groeve</type>
  </wpt>
  <wpt lat="52.260930000" lon="5.175960000">
    <name>Werk nummer 2 van het Offensief van Naarden</name>
    <cmt>Beluister de audiotour: https://523.myt.li/tours/101125684/stops/1346368413/index.html

Werk nummer 2 werd, net zoals Werk nummer 1, in 1879 gebouwd als onderdeel van het Offensief van Naarden. Werk nummer 2 werd ook wel 'Batterij bij Bussum' genoemd. Na de Eerste Wereldoorlog is de batterij in verval geraakt. Alleen een deel van de droge gracht en twee grenspalen zijn overgebleven. Deze zijn nu nog zichtbaar aan de oppervlakte.&lt;br/&gt;&lt;br/&gt;&lt;a href=&quot;https://www.routeyou.com/location/view/48864736.nl?toptext=2551809&quot;&gt;Meer informatie&lt;/a&gt;</cmt>
    <desc>Beluister de audiotour: https://523.myt.li/tours/101125684/stops/1346368413/index.html

Werk nummer 2 werd, net zoals Werk nummer 1, in 1879 gebouwd als onderdeel van het Offensief van Naarden. Werk nummer 2 werd ook wel 'Batterij bij Bussum' genoemd. Na de Eerste Wereldoorlog is de batterij in verval geraakt. Alleen een deel van de droge gracht en twee grenspalen zijn overgebleven. Deze zijn nu nog zichtbaar aan de oppervlakte.&lt;br/&gt;&lt;br/&gt;&lt;a href=&quot;https://www.routeyou.com/location/view/48864736.nl?toptext=2551809&quot;&gt;Meer informatie&lt;/a&gt;</desc>
    <type>Archeologisch site</type>
  </wpt>
  <wpt lat="52.260810000" lon="5.177070000">
    <name>Dodenweg naar het St.Janskerkhof</name>
    <cmt>Beluister de audiotour: https://523.myt.li/tours/101125684/stops/832870848/index.html

Rond het St. Janskerkhof in Laren lopen kilometers lange kaarsrechte wegen recht op het kerkhof af. Dit zijn zogenaamde doodwegen en dit pad is er één van. Langs deze paden werden de overledenen vroeger naar het kerkhof gebracht vanuit omliggende dorpen. Uit de hoeveelheid doodwegen die nu nog terug te vinden zijn blijkt dat de St. Janskerk voorheen een belangrijke plaats is geweest voor alle bewoners van het Gooi. Het feit dat er nog zoveel van deze wegen bewaard zijn,is bijzonder én uniek in Nederland.&lt;br/&gt;&lt;br/&gt;&lt;a href=&quot;https://www.routeyou.com/location/view/48864745.nl?toptext=2551821&quot;&gt;Meer informatie&lt;/a&gt;</cmt>
    <desc>Beluister de audiotour: https://523.myt.li/tours/101125684/stops/832870848/index.html

Rond het St. Janskerkhof in Laren lopen kilometers lange kaarsrechte wegen recht op het kerkhof af. Dit zijn zogenaamde doodwegen en dit pad is er één van. Langs deze paden werden de overledenen vroeger naar het kerkhof gebracht vanuit omliggende dorpen. Uit de hoeveelheid doodwegen die nu nog terug te vinden zijn blijkt dat de St. Janskerk voorheen een belangrijke plaats is geweest voor alle bewoners van het Gooi. Het feit dat er nog zoveel van deze wegen bewaard zijn,is bijzonder én uniek in Nederland.&lt;br/&gt;&lt;br/&gt;&lt;a href=&quot;https://www.routeyou.com/location/view/48864745.nl?toptext=2551821&quot;&gt;Meer informatie&lt;/a&gt;</desc>
    <type>Archeologisch site</type>
  </wpt>
  <wpt lat="52.256120000" lon="5.184810000">
    <name>Renbaan van Bussum</name>
    <cmt>Beluister de audiotour: https://523.myt.li/tours/101125684/stops/1185130838/index.html

De Renbaan van Bussum lag een halve kilometer van de Engweg, nu de Randweg, in Bussum. Op zaterdag 28 augustus 1880 vonden hier de eerste wedstrijden plaats georganiseerd door de Harddraverij Vereeniging. De jury zat in vier hoge torens en kon goed in de gaten houden of de wedstrijd volgens de regels verliep. Vanaf de twee houten tribunes die bovenop de heuvel van De Lange Heul waren gebouwd,kon het publiek de wedstrijd mooi volgen. De renbaan ondervond veel concurrentie van de drie kilometer verderop gelegen Renbaan Cruysbergen. In 1895 sloot de Renbaan van Bussum door gebrek aan inkomsten.

Tijdens de Olympische Spelen in 1928 werd er toch nog één keer gebruik gemaakt van de Renbaan van Bussum. Het Olympisch parcours leidde ook door de directe omgeving van de renbaan en wie goed kijkt ziet het tracé nog terug in het landschap van de Gooise heide.&lt;br/&gt;&lt;br/&gt;&lt;a href=&quot;https://www.routeyou.com/location/view/48864755.nl?toptext=2551830&quot;&gt;Meer informatie&lt;/a&gt;</cmt>
    <desc>Beluister de audiotour: https://523.myt.li/tours/101125684/stops/1185130838/index.html

De Renbaan van Bussum lag een halve kilometer van de Engweg, nu de Randweg, in Bussum. Op zaterdag 28 augustus 1880 vonden hier de eerste wedstrijden plaats georganiseerd door de Harddraverij Vereeniging. De jury zat in vier hoge torens en kon goed in de gaten houden of de wedstrijd volgens de regels verliep. Vanaf de twee houten tribunes die bovenop de heuvel van De Lange Heul waren gebouwd,kon het publiek de wedstrijd mooi volgen. De renbaan ondervond veel concurrentie van de drie kilometer verderop gelegen Renbaan Cruysbergen. In 1895 sloot de Renbaan van Bussum door gebrek aan inkomsten.

Tijdens de Olympische Spelen in 1928 werd er toch nog één keer gebruik gemaakt van de Renbaan van Bussum. Het Olympisch parcours leidde ook door de directe omgeving van de renbaan en wie goed kijkt ziet het tracé nog terug in het landschap van de Gooise heide.&lt;br/&gt;&lt;br/&gt;&lt;a href=&quot;https://www.routeyou.com/location/view/48864755.nl?toptext=2551830&quot;&gt;Meer informatie&lt;/a&gt;</desc>
    <type>Renbaan</type>
  </wpt>
  <wpt lat="52.256250000" lon="5.187510000">
    <name>Bomen langs de Nieuwe Crailoseweg</name>
    <cmt>Beluister de audiotour: https://523.myt.li/tours/101125684/stops/542443284/index.html

Eind 18e eeuw ging men onder invloed van de romantische beweging op zoek naar bossen en lanen om in te wandelen. De kale en woeste heidevlaktes in het Gooi waren hiervoor niet in trek en dit leidde in 1838 tot de oprichting van de Maatschappij tot Bevordering van de Cultuur in Gooiland. De Maatschappij wilde de woeste en schaars gebruikte heidegronden veranderen in bossen. Bossen verfraaiden niet alleen het landschap en waren geschikt voor het wandelen, ze waren ook van belang voor de houtindustrie. De Maatschappij heeft uiteindelijk slechts één project gerealiseerd: de aanleg van de bomen langs de Nieuwe Crailoseweg. Deze vier kilometer lange laan was een prachtige route om te wandelen, maar voor sommigen te lang. De Nieuwe Crailoseweg werd daardoor ook wel bekend als het 'Gebed zonder End', waarschijnlijk omdat het een kaarsrechte weg was met weinig afwisseling.&lt;br/&gt;&lt;br/&gt;&lt;a href=&quot;https://www.routeyou.com/location/view/48864779.nl?toptext=2551856&quot;&gt;Meer informatie&lt;/a&gt;</cmt>
    <desc>Beluister de audiotour: https://523.myt.li/tours/101125684/stops/542443284/index.html

Eind 18e eeuw ging men onder invloed van de romantische beweging op zoek naar bossen en lanen om in te wandelen. De kale en woeste heidevlaktes in het Gooi waren hiervoor niet in trek en dit leidde in 1838 tot de oprichting van de Maatschappij tot Bevordering van de Cultuur in Gooiland. De Maatschappij wilde de woeste en schaars gebruikte heidegronden veranderen in bossen. Bossen verfraaiden niet alleen het landschap en waren geschikt voor het wandelen, ze waren ook van belang voor de houtindustrie. De Maatschappij heeft uiteindelijk slechts één project gerealiseerd: de aanleg van de bomen langs de Nieuwe Crailoseweg. Deze vier kilometer lange laan was een prachtige route om te wandelen, maar voor sommigen te lang. De Nieuwe Crailoseweg werd daardoor ook wel bekend als het 'Gebed zonder End', waarschijnlijk omdat het een kaarsrechte weg was met weinig afwisseling.&lt;br/&gt;&lt;br/&gt;&lt;a href=&quot;https://www.routeyou.com/location/view/48864779.nl?toptext=2551856&quot;&gt;Meer informatie&lt;/a&gt;</desc>
    <type>Laan</type>
  </wpt>
  <wpt lat="52.252210000" lon="5.199840000">
    <name>Eerste Larense Kamp</name>
    <cmt>Beluister de audiotour: https://523.myt.li/tours/101125684/stops/1465005958/index.html

Op de Gooise heide zijn zogenaamde 'kampen' aangetroffen. In de negentiende eeuw waren dat er nog zes, maar tegenwoordig zijn er nog van vier over. De kampen zijn omwallingen uit de late Middeleeuwen van een halve meter hoog in de vorm van een rechthoek of een ruit. Het zijn raadselachtige elementen in het landschap waarvan de ouderdom en het gebruik niet goed bekend zijn. Waarschijnlijk zijn de kampen gebruikt voor het bijeenbrengen van schapen. De Naardense textielindustrie in de vijftiende en de zestiende eeuw vroeg om een intensieve schapenhouderij in de nabijheid. De kampen hebben een omwalling van circa één meter hoog en daaromheen een greppel. Drie van de vier overgebleven kampen liggen op één lijn, wat suggereert dat er vroeger een verbinding was tussen de verschillende kampen.&lt;br/&gt;&lt;br/&gt;&lt;a href=&quot;https://www.routeyou.com/location/view/48864796.nl?toptext=2551871&quot;&gt;Meer informatie&lt;/a&gt;</cmt>
    <desc>Beluister de audiotour: https://523.myt.li/tours/101125684/stops/1465005958/index.html

Op de Gooise heide zijn zogenaamde 'kampen' aangetroffen. In de negentiende eeuw waren dat er nog zes, maar tegenwoordig zijn er nog van vier over. De kampen zijn omwallingen uit de late Middeleeuwen van een halve meter hoog in de vorm van een rechthoek of een ruit. Het zijn raadselachtige elementen in het landschap waarvan de ouderdom en het gebruik niet goed bekend zijn. Waarschijnlijk zijn de kampen gebruikt voor het bijeenbrengen van schapen. De Naardense textielindustrie in de vijftiende en de zestiende eeuw vroeg om een intensieve schapenhouderij in de nabijheid. De kampen hebben een omwalling van circa één meter hoog en daaromheen een greppel. Drie van de vier overgebleven kampen liggen op één lijn, wat suggereert dat er vroeger een verbinding was tussen de verschillende kampen.&lt;br/&gt;&lt;br/&gt;&lt;a href=&quot;https://www.routeyou.com/location/view/48864796.nl?toptext=2551871&quot;&gt;Meer informatie&lt;/a&gt;</desc>
    <type>Archeologisch site</type>
  </wpt>
  <wpt lat="52.249080000" lon="5.179120000">
    <name>De Aardjesberg</name>
    <cmt>Beluister de audiotour: https://523.myt.li/tours/101125684/stops/1605933079/index.html

De Aardjesberg op de Westerheide in Hilversum is een plek waar archeologische vondsten zijn gedaan uit nagenoeg alle tijden. Vooral de vondsten uit de Late Bronstijd en de Vroege IJzertijd zijn voor Nederland uniek. Dit waren vondsten uit ca. 1100 tot 700 v. Chr. De Aardjesberg is gelegen tussen de stuwwal van Hilversum en die van Laren en Huizen en is op het hoogste punt 15,50 m boven NAP. De Aardjesberg was een zeer aantrekkelijke vestigingsplaats. De aantrekkelijkheid van dit gebied kwam mede doordat er op korte afstand van elkaar meerdere soorten landschappen te vinden waren, zoals bos en heide. Ook was er veel oppervlaktewater aanwezig.&lt;br/&gt;&lt;br/&gt;&lt;a href=&quot;https://www.routeyou.com/location/view/48864823.nl?toptext=2551897&quot;&gt;Meer informatie&lt;/a&gt;</cmt>
    <desc>Beluister de audiotour: https://523.myt.li/tours/101125684/stops/1605933079/index.html

De Aardjesberg op de Westerheide in Hilversum is een plek waar archeologische vondsten zijn gedaan uit nagenoeg alle tijden. Vooral de vondsten uit de Late Bronstijd en de Vroege IJzertijd zijn voor Nederland uniek. Dit waren vondsten uit ca. 1100 tot 700 v. Chr. De Aardjesberg is gelegen tussen de stuwwal van Hilversum en die van Laren en Huizen en is op het hoogste punt 15,50 m boven NAP. De Aardjesberg was een zeer aantrekkelijke vestigingsplaats. De aantrekkelijkheid van dit gebied kwam mede doordat er op korte afstand van elkaar meerdere soorten landschappen te vinden waren, zoals bos en heide. Ook was er veel oppervlaktewater aanwezig.&lt;br/&gt;&lt;br/&gt;&lt;a href=&quot;https://www.routeyou.com/location/view/48864823.nl?toptext=2551897&quot;&gt;Meer informatie&lt;/a&gt;</desc>
    <type>Archeologisch site</type>
  </wpt>
  <wpt lat="52.247080000" lon="5.180190000">
    <name>Urnenveld</name>
    <cmt>Beluister de audiotour: https://523.myt.li/tours/101125684/stops/683649153/index.html

In de oostelijke punt van de Westerheide bevindt zich een terrein van zeer hoge archeologische waarde. Het bevat een urnenveld dat in gebruik is geweest in het Neolithicum tot en met de IJzertijd,ongeveer 6000 tot 800 v. Chr. Ook zijn er bewoningssporen uit deze periode en uit de Middeleeuwen, een vierde kamp en de banscheiding tussen Hilversum en Laren uit 1428.

In de Bronstijd en de IJzertijd begon men met het cremeren van overledenen. Hoewel echte grafheuvels toen niet meer werden opgeworpen, zijn er op de Westerheide toch nog drie heuvels aangetroffen waarin zich vele bijzettingen van urnen met crematieresten bevonden. Er werden daarnaast vooral vele kleine heuvels opgeworpen waarin een as-urn werd ingegraven. Hierdoor wordt ook wel gesproken over de 'Urnenveldencultuur'. Door  verschillende archeologische vondsten vanaf de jaren 1930, gaat men ervan uit dat de Westerheide qua oppervlakte een van de grootst bewaard gebleven urnenvelden van Nederland omvat van circa 700 bij 900 meter.&lt;br/&gt;&lt;br/&gt;&lt;a href=&quot;https://www.routeyou.com/location/view/48864833.nl?toptext=2551913&quot;&gt;Meer informatie&lt;/a&gt;</cmt>
    <desc>Beluister de audiotour: https://523.myt.li/tours/101125684/stops/683649153/index.html

In de oostelijke punt van de Westerheide bevindt zich een terrein van zeer hoge archeologische waarde. Het bevat een urnenveld dat in gebruik is geweest in het Neolithicum tot en met de IJzertijd,ongeveer 6000 tot 800 v. Chr. Ook zijn er bewoningssporen uit deze periode en uit de Middeleeuwen, een vierde kamp en de banscheiding tussen Hilversum en Laren uit 1428.

In de Bronstijd en de IJzertijd begon men met het cremeren van overledenen. Hoewel echte grafheuvels toen niet meer werden opgeworpen, zijn er op de Westerheide toch nog drie heuvels aangetroffen waarin zich vele bijzettingen van urnen met crematieresten bevonden. Er werden daarnaast vooral vele kleine heuvels opgeworpen waarin een as-urn werd ingegraven. Hierdoor wordt ook wel gesproken over de 'Urnenveldencultuur'. Door  verschillende archeologische vondsten vanaf de jaren 1930, gaat men ervan uit dat de Westerheide qua oppervlakte een van de grootst bewaard gebleven urnenvelden van Nederland omvat van circa 700 bij 900 meter.&lt;br/&gt;&lt;br/&gt;&lt;a href=&quot;https://www.routeyou.com/location/view/48864833.nl?toptext=2551913&quot;&gt;Meer informatie&lt;/a&gt;</desc>
    <type>Archeologisch site</type>
  </wpt>
  <trk>
    <name>Wester- en Bussummerheide</name>
    <desc>&lt;p&gt;Mooie wandelroute over de Wester- en Bussummerheide, het grootste aaneengesloten heidegebied van het Gooi.&lt;/p&gt;

&lt;p&gt;Bron en meer info op &lt;a href=&quot;http://www.gnr.nl/&quot; rel=&quot;nofollow&quot; target=&quot;_blank&quot;&gt; www.gnr.nl &lt;/a&gt;&lt;/p&gt;

&lt;p&gt;&lt;strong&gt;Meer informatie &amp;amp; inspiratie&lt;/strong&gt;&lt;br/&gt;
Kijk voor routetips en meer toeristisch-recreatieve informatie op &lt;a href=&quot;https://www.visitgooivecht.nl/&quot; rel=&quot;nofollow&quot; target=&quot;_blank&quot;&gt;www.visitgooivecht.nl &lt;/a&gt;en ontdek Gooi &amp;amp; Vecht, de streek voor levensgenieters.&lt;/p&gt;</desc>
    <trkseg>
      <trkpt lat="52.241420000" lon="5.199130000">
        <ele>14.000</ele>
      </trkpt>
      <trkpt lat="52.241390000" lon="5.199080000">
        <ele>14.000</ele>
      </trkpt>
      <trkpt lat="52.241330000" lon="5.198900000">
        <ele>14.000</ele>
      </trkpt>
      <trkpt lat="52.241280000" lon="5.198810000">
        <ele>14.000</ele>
      </trkpt>
      <trkpt lat="52.241160000" lon="5.198220000">
        <ele>18.000</ele>
      </trkpt>
      <trkpt lat="52.241170000" lon="5.198130000">
        <ele>18.000</ele>
      </trkpt>
      <trkpt lat="52.241420000" lon="5.197830000">
        <ele>16.000</ele>
      </trkpt>
      <trkpt lat="52.242110000" lon="5.196850000">
        <ele>14.000</ele>
      </trkpt>
      <trkpt lat="52.242410000" lon="5.196460000">
        <ele>14.000</ele>
      </trkpt>
      <trkpt lat="52.242710000" lon="5.196010000">
        <ele>13.000</ele>
      </trkpt>
      <trkpt lat="52.243050000" lon="5.195580000">
        <ele>12.000</ele>
      </trkpt>
      <trkpt lat="52.243650000" lon="5.194590000">
        <ele>13.000</ele>
      </trkpt>
      <trkpt lat="52.243760000" lon="5.194460000">
        <ele>14.000</ele>
      </trkpt>
      <trkpt lat="52.243840000" lon="5.194390000">
        <ele>14.000</ele>
      </trkpt>
      <trkpt lat="52.243880000" lon="5.194360000">
        <ele>14.000</ele>
      </trkpt>
      <trkpt lat="52.244030000" lon="5.194300000">
        <ele>14.000</ele>
      </trkpt>
      <trkpt lat="52.244080000" lon="5.194260000">
        <ele>14.000</ele>
      </trkpt>
      <trkpt lat="52.244160000" lon="5.194140000">
        <ele>14.000</ele>
      </trkpt>
      <trkpt lat="52.244450000" lon="5.193590000">
        <ele>14.000</ele>
      </trkpt>
      <trkpt lat="52.244590000" lon="5.193100000">
        <ele>13.000</ele>
      </trkpt>
      <trkpt lat="52.244940000" lon="5.192240000">
        <ele>11.000</ele>
      </trkpt>
      <trkpt lat="52.244940000" lon="5.192110000">
        <ele>11.000</ele>
      </trkpt>
      <trkpt lat="52.244760000" lon="5.190420000">
        <ele>10.000</ele>
      </trkpt>
      <trkpt lat="52.244690000" lon="5.190040000">
        <ele>10.000</ele>
      </trkpt>
      <trkpt lat="52.244670000" lon="5.189730000">
        <ele>10.000</ele>
      </trkpt>
      <trkpt lat="52.244530000" lon="5.188770000">
        <ele>10.000</ele>
      </trkpt>
      <trkpt lat="52.244520000" lon="5.188440000">
        <ele>9.000</ele>
      </trkpt>
      <trkpt lat="52.244460000" lon="5.188220000">
        <ele>9.000</ele>
      </trkpt>
      <trkpt lat="52.244390000" lon="5.187700000">
        <ele>9.000</ele>
      </trkpt>
      <trkpt lat="52.244400000" lon="5.187530000">
        <ele>9.000</ele>
      </trkpt>
      <trkpt lat="52.244460000" lon="5.187180000">
        <ele>9.000</ele>
      </trkpt>
      <trkpt lat="52.244480000" lon="5.186830000">
        <ele>9.000</ele>
      </trkpt>
      <trkpt lat="52.244430000" lon="5.186160000">
        <ele>10.000</ele>
      </trkpt>
      <trkpt lat="52.244980000" lon="5.184570000">
        <ele>7.000</ele>
      </trkpt>
      <trkpt lat="52.245080000" lon="5.184430000">
        <ele>7.000</ele>
      </trkpt>
      <trkpt lat="52.245350000" lon="5.183670000">
        <ele>8.000</ele>
      </trkpt>
      <trkpt lat="52.245570000" lon="5.183480000">
        <ele>9.000</ele>
      </trkpt>
      <trkpt lat="52.245600000" lon="5.183390000">
        <ele>9.000</ele>
      </trkpt>
      <trkpt lat="52.245670000" lon="5.183090000">
        <ele>9.000</ele>
      </trkpt>
      <trkpt lat="52.245900000" lon="5.182580000">
        <ele>10.000</ele>
      </trkpt>
      <trkpt lat="52.245940000" lon="5.182450000">
        <ele>10.000</ele>
      </trkpt>
      <trkpt lat="52.245970000" lon="5.182270000">
        <ele>10.000</ele>
      </trkpt>
      <trkpt lat="52.246100000" lon="5.181930000">
        <ele>11.000</ele>
      </trkpt>
      <trkpt lat="52.246150000" lon="5.181430000">
        <ele>11.000</ele>
      </trkpt>
      <trkpt lat="52.246130000" lon="5.181020000">
        <ele>12.000</ele>
      </trkpt>
      <trkpt lat="52.246080000" lon="5.180780000">
        <ele>12.000</ele>
      </trkpt>
      <trkpt lat="52.246070000" lon="5.180620000">
        <ele>12.000</ele>
      </trkpt>
      <trkpt lat="52.246050000" lon="5.180590000">
        <ele>12.000</ele>
      </trkpt>
      <trkpt lat="52.245950000" lon="5.180580000">
        <ele>12.000</ele>
      </trkpt>
      <trkpt lat="52.245250000" lon="5.179970000">
        <ele>15.000</ele>
      </trkpt>
      <trkpt lat="52.245240000" lon="5.179940000">
        <ele>15.000</ele>
      </trkpt>
      <trkpt lat="52.245720000" lon="5.178530000">
        <ele>10.000</ele>
      </trkpt>
      <trkpt lat="52.245700000" lon="5.178210000">
        <ele>10.000</ele>
      </trkpt>
      <trkpt lat="52.246360000" lon="5.175740000">
        <ele>10.000</ele>
      </trkpt>
      <trkpt lat="52.246510000" lon="5.175120000">
        <ele>12.000</ele>
      </trkpt>
      <trkpt lat="52.246620000" lon="5.174780000">
        <ele>12.000</ele>
      </trkpt>
      <trkpt lat="52.246710000" lon="5.174050000">
        <ele>13.000</ele>
      </trkpt>
      <trkpt lat="52.246740000" lon="5.173990000">
        <ele>13.000</ele>
      </trkpt>
      <trkpt lat="52.246770000" lon="5.173750000">
        <ele>13.000</ele>
      </trkpt>
      <trkpt lat="52.246850000" lon="5.173410000">
        <ele>14.000</ele>
      </trkpt>
      <trkpt lat="52.246880000" lon="5.173400000">
        <ele>14.000</ele>
      </trkpt>
      <trkpt lat="52.246910000" lon="5.173420000">
        <ele>14.000</ele>
      </trkpt>
      <trkpt lat="52.248110000" lon="5.175240000">
        <ele>14.000</ele>
      </trkpt>
      <trkpt lat="52.248520000" lon="5.175840000">
        <ele>16.000</ele>
      </trkpt>
      <trkpt lat="52.248560000" lon="5.175830000">
        <ele>16.000</ele>
      </trkpt>
      <trkpt lat="52.248680000" lon="5.175640000">
        <ele>16.000</ele>
      </trkpt>
      <trkpt lat="52.248710000" lon="5.175640000">
        <ele>16.000</ele>
      </trkpt>
      <trkpt lat="52.249150000" lon="5.176330000">
        <ele>17.000</ele>
      </trkpt>
      <trkpt lat="52.249260000" lon="5.176430000">
        <ele>17.000</ele>
      </trkpt>
      <trkpt lat="52.249400000" lon="5.176640000">
        <ele>17.000</ele>
      </trkpt>
      <trkpt lat="52.249630000" lon="5.177020000">
        <ele>13.000</ele>
      </trkpt>
      <trkpt lat="52.250060000" lon="5.177670000">
        <ele>15.000</ele>
      </trkpt>
      <trkpt lat="52.250130000" lon="5.177800000">
        <ele>15.000</ele>
      </trkpt>
      <trkpt lat="52.250450000" lon="5.178260000">
        <ele>16.000</ele>
      </trkpt>
      <trkpt lat="52.250860000" lon="5.178900000">
        <ele>17.000</ele>
      </trkpt>
      <trkpt lat="52.251100000" lon="5.179250000">
        <ele>17.000</ele>
      </trkpt>
      <trkpt lat="52.251290000" lon="5.179590000">
        <ele>17.000</ele>
      </trkpt>
      <trkpt lat="52.251590000" lon="5.180040000">
        <ele>17.000</ele>
      </trkpt>
      <trkpt lat="52.251750000" lon="5.180240000">
        <ele>17.000</ele>
      </trkpt>
      <trkpt lat="52.251810000" lon="5.180380000">
        <ele>17.000</ele>
      </trkpt>
      <trkpt lat="52.251950000" lon="5.180610000">
        <ele>19.000</ele>
      </trkpt>
      <trkpt lat="52.252070000" lon="5.180700000">
        <ele>19.000</ele>
      </trkpt>
      <trkpt lat="52.252210000" lon="5.180990000">
        <ele>16.000</ele>
      </trkpt>
      <trkpt lat="52.252530000" lon="5.181470000">
        <ele>19.000</ele>
      </trkpt>
      <trkpt lat="52.252560000" lon="5.181490000">
        <ele>19.000</ele>
      </trkpt>
      <trkpt lat="52.252620000" lon="5.181470000">
        <ele>19.000</ele>
      </trkpt>
      <trkpt lat="52.252660000" lon="5.181430000">
        <ele>19.000</ele>
      </trkpt>
      <trkpt lat="52.252690000" lon="5.181330000">
        <ele>19.000</ele>
      </trkpt>
      <trkpt lat="52.253040000" lon="5.178460000">
        <ele>12.000</ele>
      </trkpt>
      <trkpt lat="52.253090000" lon="5.178030000">
        <ele>12.000</ele>
      </trkpt>
      <trkpt lat="52.253110000" lon="5.177490000">
        <ele>14.000</ele>
      </trkpt>
      <trkpt lat="52.253420000" lon="5.176570000">
        <ele>16.000</ele>
      </trkpt>
      <trkpt lat="52.253590000" lon="5.176140000">
        <ele>15.000</ele>
      </trkpt>
      <trkpt lat="52.253560000" lon="5.176050000">
        <ele>15.000</ele>
      </trkpt>
      <trkpt lat="52.253570000" lon="5.175860000">
        <ele>15.000</ele>
      </trkpt>
      <trkpt lat="52.253520000" lon="5.175580000">
        <ele>15.000</ele>
      </trkpt>
      <trkpt lat="52.253550000" lon="5.175500000">
        <ele>15.000</ele>
      </trkpt>
      <trkpt lat="52.253600000" lon="5.175480000">
        <ele>15.000</ele>
      </trkpt>
      <trkpt lat="52.253730000" lon="5.175560000">
        <ele>15.000</ele>
      </trkpt>
      <trkpt lat="52.253830000" lon="5.175550000">
        <ele>11.000</ele>
      </trkpt>
      <trkpt lat="52.254410000" lon="5.175380000">
        <ele>11.000</ele>
      </trkpt>
      <trkpt lat="52.254600000" lon="5.175600000">
        <ele>9.000</ele>
      </trkpt>
      <trkpt lat="52.254840000" lon="5.175780000">
        <ele>9.000</ele>
      </trkpt>
      <trkpt lat="52.254950000" lon="5.175890000">
        <ele>9.000</ele>
      </trkpt>
      <trkpt lat="52.255730000" lon="5.176380000">
        <ele>10.000</ele>
      </trkpt>
      <trkpt lat="52.256390000" lon="5.176840000">
        <ele>9.000</ele>
      </trkpt>
      <trkpt lat="52.256520000" lon="5.176920000">
        <ele>9.000</ele>
      </trkpt>
      <trkpt lat="52.256940000" lon="5.177090000">
        <ele>10.000</ele>
      </trkpt>
      <trkpt lat="52.257220000" lon="5.177300000">
        <ele>9.000</ele>
      </trkpt>
      <trkpt lat="52.257240000" lon="5.177300000">
        <ele>9.000</ele>
      </trkpt>
      <trkpt lat="52.257390000" lon="5.177190000">
        <ele>9.000</ele>
      </trkpt>
      <trkpt lat="52.257630000" lon="5.177000000">
        <ele>7.000</ele>
      </trkpt>
      <trkpt lat="52.257770000" lon="5.176930000">
        <ele>7.000</ele>
      </trkpt>
      <trkpt lat="52.258120000" lon="5.176680000">
        <ele>8.000</ele>
      </trkpt>
      <trkpt lat="52.258850000" lon="5.176290000">
        <ele>11.000</ele>
      </trkpt>
      <trkpt lat="52.259390000" lon="5.175800000">
        <ele>11.000</ele>
      </trkpt>
      <trkpt lat="52.259580000" lon="5.175670000">
        <ele>11.000</ele>
      </trkpt>
      <trkpt lat="52.259800000" lon="5.175480000">
        <ele>11.000</ele>
      </trkpt>
      <trkpt lat="52.260070000" lon="5.175280000">
        <ele>11.000</ele>
      </trkpt>
      <trkpt lat="52.260500000" lon="5.175030000">
        <ele>11.000</ele>
      </trkpt>
      <trkpt lat="52.260410000" lon="5.175460000">
        <ele>11.000</ele>
      </trkpt>
      <trkpt lat="52.260360000" lon="5.175800000">
        <ele>11.000</ele>
      </trkpt>
      <trkpt lat="52.260370000" lon="5.176550000">
        <ele>11.000</ele>
      </trkpt>
      <trkpt lat="52.260400000" lon="5.177050000">
        <ele>11.000</ele>
      </trkpt>
      <trkpt lat="52.260390000" lon="5.177520000">
        <ele>11.000</ele>
      </trkpt>
      <trkpt lat="52.260360000" lon="5.177700000">
        <ele>11.000</ele>
      </trkpt>
      <trkpt lat="52.260210000" lon="5.177960000">
        <ele>10.000</ele>
      </trkpt>
      <trkpt lat="52.259900000" lon="5.178730000">
        <ele>10.000</ele>
      </trkpt>
      <trkpt lat="52.258620000" lon="5.181570000">
        <ele>11.000</ele>
      </trkpt>
      <trkpt lat="52.258400000" lon="5.182110000">
        <ele>11.000</ele>
      </trkpt>
      <trkpt lat="52.258290000" lon="5.182280000">
        <ele>11.000</ele>
      </trkpt>
      <trkpt lat="52.258200000" lon="5.182520000">
        <ele>11.000</ele>
      </trkpt>
      <trkpt lat="52.258010000" lon="5.182740000">
        <ele>11.000</ele>
      </trkpt>
      <trkpt lat="52.257930000" lon="5.182860000">
        <ele>11.000</ele>
      </trkpt>
      <trkpt lat="52.257810000" lon="5.183190000">
        <ele>14.000</ele>
      </trkpt>
      <trkpt lat="52.257330000" lon="5.184230000">
        <ele>14.000</ele>
      </trkpt>
      <trkpt lat="52.257100000" lon="5.184800000">
        <ele>15.000</ele>
      </trkpt>
      <trkpt lat="52.256930000" lon="5.185120000">
        <ele>13.000</ele>
      </trkpt>
      <trkpt lat="52.256680000" lon="5.185760000">
        <ele>14.000</ele>
      </trkpt>
      <trkpt lat="52.256220000" lon="5.186730000">
        <ele>15.000</ele>
      </trkpt>
      <trkpt lat="52.256040000" lon="5.187280000">
        <ele>15.000</ele>
      </trkpt>
      <trkpt lat="52.255660000" lon="5.188100000">
        <ele>14.000</ele>
      </trkpt>
      <trkpt lat="52.254560000" lon="5.190620000">
        <ele>12.000</ele>
      </trkpt>
      <trkpt lat="52.254510000" lon="5.190790000">
        <ele>12.000</ele>
      </trkpt>
      <trkpt lat="52.254480000" lon="5.191020000">
        <ele>12.000</ele>
      </trkpt>
      <trkpt lat="52.254480000" lon="5.191340000">
        <ele>14.000</ele>
      </trkpt>
      <trkpt lat="52.254530000" lon="5.192990000">
        <ele>14.000</ele>
      </trkpt>
      <trkpt lat="52.254440000" lon="5.194200000">
        <ele>15.000</ele>
      </trkpt>
      <trkpt lat="52.254320000" lon="5.195180000">
        <ele>16.000</ele>
      </trkpt>
      <trkpt lat="52.254320000" lon="5.195360000">
        <ele>16.000</ele>
      </trkpt>
      <trkpt lat="52.254350000" lon="5.195630000">
        <ele>16.000</ele>
      </trkpt>
      <trkpt lat="52.254430000" lon="5.195890000">
        <ele>16.000</ele>
      </trkpt>
      <trkpt lat="52.254530000" lon="5.196110000">
        <ele>16.000</ele>
      </trkpt>
      <trkpt lat="52.254710000" lon="5.196860000">
        <ele>16.000</ele>
      </trkpt>
      <trkpt lat="52.254740000" lon="5.197700000">
        <ele>16.000</ele>
      </trkpt>
      <trkpt lat="52.254730000" lon="5.197750000">
        <ele>16.000</ele>
      </trkpt>
      <trkpt lat="52.254580000" lon="5.197770000">
        <ele>15.000</ele>
      </trkpt>
      <trkpt lat="52.254360000" lon="5.197600000">
        <ele>15.000</ele>
      </trkpt>
      <trkpt lat="52.254220000" lon="5.197570000">
        <ele>15.000</ele>
      </trkpt>
      <trkpt lat="52.253820000" lon="5.197400000">
        <ele>15.000</ele>
      </trkpt>
      <trkpt lat="52.253600000" lon="5.197380000">
        <ele>16.000</ele>
      </trkpt>
      <trkpt lat="52.253560000" lon="5.197330000">
        <ele>16.000</ele>
      </trkpt>
      <trkpt lat="52.253550000" lon="5.197280000">
        <ele>16.000</ele>
      </trkpt>
      <trkpt lat="52.253410000" lon="5.197050000">
        <ele>16.000</ele>
      </trkpt>
      <trkpt lat="52.253170000" lon="5.196600000">
        <ele>16.000</ele>
      </trkpt>
      <trkpt lat="52.253120000" lon="5.196550000">
        <ele>16.000</ele>
      </trkpt>
      <trkpt lat="52.252840000" lon="5.196480000">
        <ele>17.000</ele>
      </trkpt>
      <trkpt lat="52.252660000" lon="5.196390000">
        <ele>17.000</ele>
      </trkpt>
      <trkpt lat="52.252510000" lon="5.196240000">
        <ele>16.000</ele>
      </trkpt>
      <trkpt lat="52.252420000" lon="5.196200000">
        <ele>16.000</ele>
      </trkpt>
      <trkpt lat="52.252050000" lon="5.196260000">
        <ele>21.000</ele>
      </trkpt>
      <trkpt lat="52.251990000" lon="5.196320000">
        <ele>21.000</ele>
      </trkpt>
      <trkpt lat="52.251670000" lon="5.197020000">
        <ele>21.000</ele>
      </trkpt>
      <trkpt lat="52.251330000" lon="5.197840000">
        <ele>20.000</ele>
      </trkpt>
      <trkpt lat="52.251050000" lon="5.198410000">
        <ele>19.000</ele>
      </trkpt>
      <trkpt lat="52.250770000" lon="5.199100000">
        <ele>19.000</ele>
      </trkpt>
      <trkpt lat="52.250490000" lon="5.199660000">
        <ele>19.000</ele>
      </trkpt>
      <trkpt lat="52.250430000" lon="5.199730000">
        <ele>19.000</ele>
      </trkpt>
      <trkpt lat="52.249830000" lon="5.199470000">
        <ele>17.000</ele>
      </trkpt>
      <trkpt lat="52.248810000" lon="5.198910000">
        <ele>16.000</ele>
      </trkpt>
      <trkpt lat="52.248210000" lon="5.198590000">
        <ele>15.000</ele>
      </trkpt>
      <trkpt lat="52.248050000" lon="5.198520000">
        <ele>15.000</ele>
      </trkpt>
      <trkpt lat="52.248010000" lon="5.199140000">
        <ele>15.000</ele>
      </trkpt>
      <trkpt lat="52.247990000" lon="5.199730000">
        <ele>15.000</ele>
      </trkpt>
      <trkpt lat="52.247970000" lon="5.199840000">
        <ele>15.000</ele>
      </trkpt>
      <trkpt lat="52.247940000" lon="5.199850000">
        <ele>15.000</ele>
      </trkpt>
      <trkpt lat="52.247850000" lon="5.199840000">
        <ele>13.000</ele>
      </trkpt>
      <trkpt lat="52.247670000" lon="5.199760000">
        <ele>13.000</ele>
      </trkpt>
      <trkpt lat="52.247580000" lon="5.199750000">
        <ele>13.000</ele>
      </trkpt>
      <trkpt lat="52.247470000" lon="5.199780000">
        <ele>13.000</ele>
      </trkpt>
      <trkpt lat="52.247170000" lon="5.199910000">
        <ele>13.000</ele>
      </trkpt>
      <trkpt lat="52.246900000" lon="5.199940000">
        <ele>14.000</ele>
      </trkpt>
      <trkpt lat="52.246580000" lon="5.200010000">
        <ele>14.000</ele>
      </trkpt>
      <trkpt lat="52.246320000" lon="5.200020000">
        <ele>14.000</ele>
      </trkpt>
      <trkpt lat="52.246110000" lon="5.200060000">
        <ele>13.000</ele>
      </trkpt>
      <trkpt lat="52.245890000" lon="5.200140000">
        <ele>13.000</ele>
      </trkpt>
      <trkpt lat="52.245810000" lon="5.200190000">
        <ele>13.000</ele>
      </trkpt>
      <trkpt lat="52.245500000" lon="5.200290000">
        <ele>13.000</ele>
      </trkpt>
      <trkpt lat="52.245450000" lon="5.200290000">
        <ele>13.000</ele>
      </trkpt>
      <trkpt lat="52.245360000" lon="5.200240000">
        <ele>12.000</ele>
      </trkpt>
      <trkpt lat="52.245290000" lon="5.200250000">
        <ele>12.000</ele>
      </trkpt>
      <trkpt lat="52.245200000" lon="5.200340000">
        <ele>12.000</ele>
      </trkpt>
      <trkpt lat="52.245130000" lon="5.200440000">
        <ele>12.000</ele>
      </trkpt>
      <trkpt lat="52.245040000" lon="5.200500000">
        <ele>12.000</ele>
      </trkpt>
      <trkpt lat="52.245000000" lon="5.200500000">
        <ele>12.000</ele>
      </trkpt>
      <trkpt lat="52.244900000" lon="5.200460000">
        <ele>12.000</ele>
      </trkpt>
      <trkpt lat="52.244720000" lon="5.200310000">
        <ele>12.000</ele>
      </trkpt>
      <trkpt lat="52.244620000" lon="5.200260000">
        <ele>12.000</ele>
      </trkpt>
      <trkpt lat="52.244040000" lon="5.200130000">
        <ele>11.000</ele>
      </trkpt>
      <trkpt lat="52.243700000" lon="5.200100000">
        <ele>11.000</ele>
      </trkpt>
      <trkpt lat="52.243690000" lon="5.200120000">
        <ele>11.000</ele>
      </trkpt>
      <trkpt lat="52.243610000" lon="5.200410000">
        <ele>11.000</ele>
      </trkpt>
      <trkpt lat="52.243580000" lon="5.200650000">
        <ele>13.000</ele>
      </trkpt>
      <trkpt lat="52.243540000" lon="5.200760000">
        <ele>13.000</ele>
      </trkpt>
      <trkpt lat="52.243400000" lon="5.200980000">
        <ele>13.000</ele>
      </trkpt>
      <trkpt lat="52.243270000" lon="5.201080000">
        <ele>13.000</ele>
      </trkpt>
      <trkpt lat="52.243250000" lon="5.201080000">
        <ele>13.000</ele>
      </trkpt>
      <trkpt lat="52.243220000" lon="5.201060000">
        <ele>13.000</ele>
      </trkpt>
      <trkpt lat="52.243180000" lon="5.200950000">
        <ele>13.000</ele>
      </trkpt>
      <trkpt lat="52.242980000" lon="5.200290000">
        <ele>11.000</ele>
      </trkpt>
      <trkpt lat="52.242790000" lon="5.199740000">
        <ele>13.000</ele>
      </trkpt>
      <trkpt lat="52.242740000" lon="5.199670000">
        <ele>13.000</ele>
      </trkpt>
      <trkpt lat="52.242580000" lon="5.199510000">
        <ele>12.000</ele>
      </trkpt>
      <trkpt lat="52.242410000" lon="5.199230000">
        <ele>12.000</ele>
      </trkpt>
      <trkpt lat="52.242300000" lon="5.199130000">
        <ele>12.000</ele>
      </trkpt>
      <trkpt lat="52.242260000" lon="5.199120000">
        <ele>12.000</ele>
      </trkpt>
      <trkpt lat="52.241930000" lon="5.199200000">
        <ele>14.000</ele>
      </trkpt>
      <trkpt lat="52.241800000" lon="5.199180000">
        <ele>14.000</ele>
      </trkpt>
      <trkpt lat="52.241650000" lon="5.199170000">
        <ele>14.000</ele>
      </trkpt>
      <trkpt lat="52.241550000" lon="5.199190000">
        <ele>14.000</ele>
      </trkpt>
      <trkpt lat="52.241460000" lon="5.199160000">
        <ele>14.000</ele>
      </trkpt>
      <trkpt lat="52.241420000" lon="5.199130000">
        <ele>14.000</ele>
      </trkpt>
    </trkseg>
  </trk>
</gpx>
