<?xml version="1.0" encoding="UTF-8"?>
<gpx version="1.0" xmlns:xsi="http://www.w3.org/2001/XMLSchema-instance" xmlns="http://www.topografix.com/GPX/1/0" xsi:schemaLocation="http://www.topografix.com/GPX/1/0 http://www.topografix.com/GPX/1/0/gpx.xsd" creator="routemaker.nl">
<trk>
<name>Nieuwkoop</name>
<trkseg>
<trkpt lat="52.179050000000004" lon="4.834039999999998"><ele>0</ele></trkpt>
<trkpt lat="52.17910107949426" lon="4.833931711936353"><ele>0</ele></trkpt>
<trkpt lat="52.17909376961463" lon="4.833758858430117"><ele>0</ele></trkpt>
<trkpt lat="52.1790511286931" lon="4.833484677045964"><ele>0</ele></trkpt>
<trkpt lat="52.17923999999999" lon="4.833389999999995"><ele>0</ele></trkpt>
<trkpt lat="52.17943367673756" lon="4.83402906634314"><ele>0</ele></trkpt>
<trkpt lat="52.17976748978539" lon="4.833766805924323"><ele>0</ele></trkpt>
<trkpt lat="52.179913684518056" lon="4.83365554373985"><ele>0</ele></trkpt>
<trkpt lat="52.17995388799961" lon="4.833534347640939"><ele>0</ele></trkpt>
<trkpt lat="52.18005622387469" lon="4.833409177832339"><ele>0</ele></trkpt>
<trkpt lat="52.18025845847267" lon="4.83329394221609"><ele>0</ele></trkpt>
<trkpt lat="52.180369321588415" lon="4.8332641398846095"><ele>0</ele></trkpt>
<trkpt lat="52.180878557552255" lon="4.832934327674129"><ele>0</ele></trkpt>
<trkpt lat="52.180538661522775" lon="4.831589249156871"><ele>0</ele></trkpt>
<trkpt lat="52.1805398797631" lon="4.831559446907236"><ele>0</ele></trkpt>
<trkpt lat="52.18204999999996" lon="4.830550000000004"><ele>0</ele></trkpt>
<trkpt lat="52.18204441790163" lon="4.8304408663005995"><ele>0</ele></trkpt>
<trkpt lat="52.18206269133587" lon="4.830337551649678"><ele>0</ele></trkpt>
<trkpt lat="52.18197497883274" lon="4.829884556282717"><ele>0</ele></trkpt>
<trkpt lat="52.181915285488756" lon="4.829745478735795"><ele>0</ele></trkpt>
<trkpt lat="52.18130999999998" lon="4.829530000000004"><ele>0</ele></trkpt>
<trkpt lat="52.18082739061071" lon="4.830168671746464"><ele>0</ele></trkpt>
<trkpt lat="52.180734802546446" lon="4.830268012845874"><ele>0</ele></trkpt>
<trkpt lat="52.18025" lon="4.83065"><ele>0</ele></trkpt>
<trkpt lat="52.179892973606044" lon="4.830879953902095"><ele>0</ele></trkpt>
<trkpt lat="52.17950799298325" lon="4.831110425274126"><ele>0</ele></trkpt>
<trkpt lat="52.17885619856964" lon="4.831140227601538"><ele>0</ele></trkpt>
<trkpt lat="52.1786978171634" lon="4.830691205774464"><ele>0</ele></trkpt>
<trkpt lat="52.178649084352024" lon="4.830496497437967"><ele>0</ele></trkpt>
<trkpt lat="52.17854796348388" lon="4.830101119791183"><ele>0</ele></trkpt>
<trkpt lat="52.17846999063711" lon="4.82995409507047"><ele>0</ele></trkpt>
<trkpt lat="52.17835912276502" lon="4.829818991220596"><ele>0</ele></trkpt>
<trkpt lat="52.17842369417592" lon="4.829119629940031"><ele>0</ele></trkpt>
<trkpt lat="52.17851263206881" lon="4.828678555532315"><ele>0</ele></trkpt>
<trkpt lat="52.17861009801248" lon="4.828434176561488"><ele>0</ele></trkpt>
<trkpt lat="52.17889152971821" lon="4.828193771136649"><ele>0</ele></trkpt>
<trkpt lat="52.17876726138098" lon="4.8277030260887095"><ele>0</ele></trkpt>
<trkpt lat="52.17871121870319" lon="4.827349371820598"><ele>0</ele></trkpt>
<trkpt lat="52.17871243701866" lon="4.827206320891416"><ele>0</ele></trkpt>
<trkpt lat="52.17877944459411" lon="4.827047374959801"><ele>0</ele></trkpt>
<trkpt lat="52.17878675450031" lon="4.826842732430954"><ele>0</ele></trkpt>
<trkpt lat="52.17877700794172" lon="4.826707628430012"><ele>0</ele></trkpt>
<trkpt lat="52.17874533164919" lon="4.826532788150791"><ele>0</ele></trkpt>
<trkpt lat="52.178696598864775" lon="4.82635794787158"><ele>0</ele></trkpt>
<trkpt lat="52.17860999999996" lon="4.826159999999998"><ele>0</ele></trkpt>
<trkpt lat="52.178551618475474" lon="4.826091713691142"><ele>0</ele></trkpt>
<trkpt lat="52.17846511733014" lon="4.826048003703193"><ele>0</ele></trkpt>
<trkpt lat="52.17836521439382" lon="4.825928794377267"><ele>0</ele></trkpt>
<trkpt lat="52.17817515456571" lon="4.825191683591417"><ele>0</ele></trkpt>
<trkpt lat="52.178069159338236" lon="4.824754582811526"><ele>0</ele></trkpt>
<trkpt lat="52.17803139081054" lon="4.8246890176888595"><ele>0</ele></trkpt>
<trkpt lat="52.17798" lon="4.8246299999999955"><ele>0</ele></trkpt>
<trkpt lat="52.177821836047386" lon="4.824633386735575"><ele>0</ele></trkpt>
<trkpt lat="52.17742709062887" lon="4.824605571238243"><ele>0</ele></trkpt>
<trkpt lat="52.177299163148774" lon="4.824597623818877"><ele>0</ele></trkpt>
<trkpt lat="52.17712006404864" lon="4.824506230146964"><ele>0</ele></trkpt>
<trkpt lat="52.17687882734498" lon="4.824379073565389"><ele>0</ele></trkpt>
<trkpt lat="52.17671069191028" lon="4.8242996005698515"><ele>0</ele></trkpt>
<trkpt lat="52.17654621099055" lon="4.824269798320225"><ele>0</ele></trkpt>
<trkpt lat="52.17573841800604" lon="4.824182378187887"><ele>0</ele></trkpt>
<trkpt lat="52.17553616289139" lon="4.824307547820533"><ele>0</ele></trkpt>
<trkpt lat="52.17547767928415" lon="4.824361192000833"><ele>0</ele></trkpt>
<trkpt lat="52.17533268843811" lon="4.824611531618032"><ele>0</ele></trkpt>
<trkpt lat="52.17529248079007" lon="4.824851937059526"><ele>0</ele></trkpt>
<trkpt lat="52.17531319382014" lon="4.825529443223276"><ele>0</ele></trkpt>
<trkpt lat="52.17529126235395" lon="4.826097674212577"><ele>0</ele></trkpt>
<trkpt lat="52.17532999999999" lon="4.82633"><ele>0</ele></trkpt>
<trkpt lat="52.17542163244682" lon="4.826413579053503"><ele>0</ele></trkpt>
<trkpt lat="52.175553220583105" lon="4.8264572888777435"><ele>0</ele></trkpt>
<trkpt lat="52.17562145129303" lon="4.826528814506043"><ele>0</ele></trkpt>
<trkpt lat="52.175617796079976" lon="4.827128834681665"><ele>0</ele></trkpt>
<trkpt lat="52.17567384269309" lon="4.8273612928654535"><ele>0</ele></trkpt>
<trkpt lat="52.175725015609125" lon="4.827456660260717"><ele>0</ele></trkpt>
<trkpt lat="52.17593579866764" lon="4.82762752683025"><ele>0</ele></trkpt>
<trkpt lat="52.17607104043524" lon="4.827889787265102"><ele>0</ele></trkpt>
<trkpt lat="52.17622" lon="4.827900000000004"><ele>0</ele></trkpt>
<trkpt lat="52.176736277771354" lon="4.829115656583058"><ele>0</ele></trkpt>
<trkpt lat="52.17654999999997" lon="4.829299999999999"><ele>0</ele></trkpt>
<trkpt lat="52.176224557665584" lon="4.828549412192028"><ele>0</ele></trkpt>
<trkpt lat="52.17612586802919" lon="4.828410334549814"><ele>0</ele></trkpt>
<trkpt lat="52.17603205185875" lon="4.8283407958582085"><ele>0</ele></trkpt>
<trkpt lat="52.17589000000003" lon="4.828330000000004"><ele>0</ele></trkpt>
<trkpt lat="52.174360384419074" lon="4.82847788655814"><ele>0</ele></trkpt>
<trkpt lat="52.174275093572305" lon="4.828515636063426"><ele>0</ele></trkpt>
<trkpt lat="52.17403999999999" lon="4.82855"><ele>0</ele></trkpt>
<trkpt lat="52.17016266266591" lon="4.827772564863624"><ele>0</ele></trkpt>
<trkpt lat="52.17006030397739" lon="4.8279176028932085"><ele>0</ele></trkpt>
<trkpt lat="52.16995999999998" lon="4.827990000000002"><ele>0</ele></trkpt>
<trkpt lat="52.16963380694059" lon="4.827919589671727"><ele>0</ele></trkpt>
<trkpt lat="52.16959724983493" lon="4.828569280386495"><ele>0</ele></trkpt>
<trkpt lat="52.169587501312904" lon="4.828956710613912"><ele>0</ele></trkpt>
<trkpt lat="52.16914424802882" lon="4.835563532197581"><ele>0</ele></trkpt>
<trkpt lat="52.16912231347734" lon="4.835956922743962"><ele>0</ele></trkpt>
<trkpt lat="52.16897852047383" lon="4.83739538174707"><ele>0</ele></trkpt>
<trkpt lat="52.16895999999998" lon="4.837879999999997"><ele>0</ele></trkpt>
<trkpt lat="52.16864919240956" lon="4.8378656186318505"><ele>0</ele></trkpt>
<trkpt lat="52.16845909104124" lon="4.837871579278232"><ele>0</ele></trkpt>
<trkpt lat="52.16824705394486" lon="4.837692765116308"><ele>0</ele></trkpt>
<trkpt lat="52.16614856350793" lon="4.838318614149416"><ele>0</ele></trkpt>
<trkpt lat="52.1657476211264" lon="4.838471599396506"><ele>0</ele></trkpt>
<trkpt lat="52.16531011459459" lon="4.8386305451999485"><ele>0</ele></trkpt>
<trkpt lat="52.16629462523644" lon="4.851238907689358"><ele>0</ele></trkpt>
<trkpt lat="52.16636359049707" lon="4.85136613840989"><ele>0</ele></trkpt>
<trkpt lat="52.16642166649746" lon="4.851765583972452"><ele>0</ele></trkpt>
<trkpt lat="52.16618028776649" lon="4.852389902200167"><ele>0</ele></trkpt>
<trkpt lat="52.16574076232744" lon="4.853315345780987"><ele>0</ele></trkpt>
<trkpt lat="52.165531739547845" lon="4.8536402354669566"><ele>0</ele></trkpt>
<trkpt lat="52.16535824479508" lon="4.853856768179397"><ele>0</ele></trkpt>
<trkpt lat="52.16512565951842" lon="4.853975546787273"><ele>0</ele></trkpt>
<trkpt lat="52.164287684822845" lon="4.854224098268204"><ele>0</ele></trkpt>
<trkpt lat="52.1634125780327" lon="4.854467500392727"><ele>0</ele></trkpt>
<trkpt lat="52.16210953222925" lon="4.854898609896831"><ele>0</ele></trkpt>
<trkpt lat="52.16078745163937" lon="4.855318144131593"><ele>0</ele></trkpt>
<trkpt lat="52.160782543659465" lon="4.8558466189936125"><ele>0</ele></trkpt>
<trkpt lat="52.160525943231036" lon="4.8585767151424655"><ele>0</ele></trkpt>
<trkpt lat="52.16016278527766" lon="4.862314010357188"><ele>0</ele></trkpt>
<trkpt lat="52.16003906565901" lon="4.863871397520833"><ele>0</ele></trkpt>
<trkpt lat="52.16003677458667" lon="4.86403572621744"><ele>0</ele></trkpt>
<trkpt lat="52.16026359363653" lon="4.864846165304108"><ele>0</ele></trkpt>
<trkpt lat="52.1605343169228" lon="4.865830030320185"><ele>0</ele></trkpt>
<trkpt lat="52.1605791876407" lon="4.866068877142674"><ele>0</ele></trkpt>
<trkpt lat="52.160567217637045" lon="4.866285993616059"><ele>0</ele></trkpt>
<trkpt lat="52.160488812585136" lon="4.866315871196232"><ele>0</ele></trkpt>
<trkpt lat="52.16025593144875" lon="4.866243392141706"><ele>0</ele></trkpt>
<trkpt lat="52.16013000000003" lon="4.866190000000001"><ele>0</ele></trkpt>
<trkpt lat="52.16002313513521" lon="4.865828146437638"><ele>0</ele></trkpt>
<trkpt lat="52.1599731630112" lon="4.865716884367369"><ele>0</ele></trkpt>
<trkpt lat="52.159931722615575" lon="4.865689068890726"><ele>0</ele></trkpt>
<trkpt lat="52.159874437401164" lon="4.865710923884695"><ele>0</ele></trkpt>
<trkpt lat="52.15992562849114" lon="4.865945368826879"><ele>0</ele></trkpt>
<trkpt lat="52.15993000000004" lon="4.866090000000003"><ele>0</ele></trkpt>
<trkpt lat="52.159898814072584" lon="4.866146037809749"><ele>0</ele></trkpt>
<trkpt lat="52.15979" lon="4.866149999999998"><ele>0</ele></trkpt>
<trkpt lat="52.15809002554062" lon="4.8657586076970825"><ele>0</ele></trkpt>
<trkpt lat="52.15746595204934" lon="4.865655292902836"><ele>0</ele></trkpt>
<trkpt lat="52.15744401179123" lon="4.865655292902836"><ele>0</ele></trkpt>
<trkpt lat="52.1571916982268" lon="4.865677148032254"><ele>0</ele></trkpt>
<trkpt lat="52.15700276683193" lon="4.865651319328595"><ele>0</ele></trkpt>
<trkpt lat="52.15676629672636" lon="4.86563145108226"><ele>0</ele></trkpt>
<trkpt lat="52.15634000000001" lon="4.865729999999999"><ele>0</ele></trkpt>
<trkpt lat="52.1562836013111" lon="4.865712910615693"><ele>0</ele></trkpt>
<trkpt lat="52.15621412199883" lon="4.865512241796524"><ele>0</ele></trkpt>
<trkpt lat="52.15615195619126" lon="4.865500320831197"><ele>0</ele></trkpt>
<trkpt lat="52.156027624365855" lon="4.865609596128482"><ele>0</ele></trkpt>
<trkpt lat="52.15542546317614" lon="4.865593701312188"><ele>0</ele></trkpt>
<trkpt lat="52.15519386057683" lon="4.86553608352416"><ele>0</ele></trkpt>
<trkpt lat="52.15492690660168" lon="4.865323493739663"><ele>0</ele></trkpt>
<trkpt lat="52.154585593251" lon="4.864820827802187"><ele>0</ele></trkpt>
<trkpt lat="52.154469789882064" lon="4.8645724751216814"><ele>0</ele></trkpt>
<trkpt lat="52.154464913964226" lon="4.864292333254855"><ele>0</ele></trkpt>
<trkpt lat="52.15445394312201" lon="4.864077756533664"><ele>0</ele></trkpt>
<trkpt lat="52.154385679897956" lon="4.863962520917416"><ele>0</ele></trkpt>
<trkpt lat="52.1542613431392" lon="4.863833377562846"><ele>0</ele></trkpt>
<trkpt lat="52.154060000000015" lon="4.86454"><ele>0</ele></trkpt>
<trkpt lat="52.15412000000001" lon="4.865210000000005"><ele>0</ele></trkpt>
<trkpt lat="52.15517923299656" lon="4.868762681987649"><ele>0</ele></trkpt>
<trkpt lat="52.155307224136465" lon="4.868941495976539"><ele>0</ele></trkpt>
<trkpt lat="52.155633610814014" lon="4.870028218829159"><ele>0</ele></trkpt>
<trkpt lat="52.15734986267324" lon="4.868772548179464"><ele>0</ele></trkpt>
<trkpt lat="52.157398619069404" lon="4.86850234050499"><ele>0</ele></trkpt>
<trkpt lat="52.15706220031517" lon="4.867477140105529"><ele>0</ele></trkpt>
<trkpt lat="52.15693999999996" lon="4.866790000000001"><ele>0</ele></trkpt>
<trkpt lat="52.15777999999998" lon="4.86618"><ele>0</ele></trkpt>
<trkpt lat="52.15984999999999" lon="4.866699999999995"><ele>0</ele></trkpt>
<trkpt lat="52.16022" lon="4.866950000000003"><ele>0</ele></trkpt>
<trkpt lat="52.16059999999998" lon="4.8668799999999965"><ele>0</ele></trkpt>
<trkpt lat="52.161303815901924" lon="4.867055933983475"><ele>0</ele></trkpt>
<trkpt lat="52.16188883454642" lon="4.867318194566011"><ele>0</ele></trkpt>
<trkpt lat="52.1628102235439" lon="4.8675486658870994"><ele>0</ele></trkpt>
<trkpt lat="52.16320000000002" lon="4.867580000000004"><ele>0</ele></trkpt>
<trkpt lat="52.163969999999985" lon="4.867880000000005"><ele>0</ele></trkpt>
<trkpt lat="52.16419470826107" lon="4.868224185073292"><ele>0</ele></trkpt>
<trkpt lat="52.16431999999997" lon="4.868290000000001"><ele>0</ele></trkpt>
<trkpt lat="52.165" lon="4.86825"><ele>0</ele></trkpt>
<trkpt lat="52.16632" lon="4.868509999999996"><ele>0</ele></trkpt>
<trkpt lat="52.16711000000002" lon="4.868349999999997"><ele>0</ele></trkpt>
<trkpt lat="52.167689999999965" lon="4.868539999999999"><ele>0</ele></trkpt>
<trkpt lat="52.16865499215231" lon="4.868542077032075"><ele>0</ele></trkpt>
<trkpt lat="52.17054000000001" lon="4.8686599999999975"><ele>0</ele></trkpt>
<trkpt lat="52.170950767058685" lon="4.868486446082266"><ele>0</ele></trkpt>
<trkpt lat="52.17301429691569" lon="4.867555334041416"><ele>0</ele></trkpt>
<trkpt lat="52.173243369776486" lon="4.867551360495446"><ele>0</ele></trkpt>
<trkpt lat="52.17345050924088" lon="4.867467913738102"><ele>0</ele></trkpt>
<trkpt lat="52.173510000000014" lon="4.86737"><ele>0</ele></trkpt>
<trkpt lat="52.17364058933259" lon="4.867165917041013"><ele>0</ele></trkpt>
<trkpt lat="52.174184018780494" lon="4.8659698503993845"><ele>0</ele></trkpt>
<trkpt lat="52.17805362920171" lon="4.857780171693945"><ele>0</ele></trkpt>
<trkpt lat="52.17884310546154" lon="4.856115214951759"><ele>0</ele></trkpt>
<trkpt lat="52.17908189480087" lon="4.855717850859409"><ele>0</ele></trkpt>
<trkpt lat="52.17914037361913" lon="4.855451616730903"><ele>0</ele></trkpt>
<trkpt lat="52.17913999999996" lon="4.855269999999996"><ele>0</ele></trkpt>
<trkpt lat="52.17903316241033" lon="4.854629072414723"><ele>0</ele></trkpt>
<trkpt lat="52.17902341585554" lon="4.8541959454263734"><ele>0</ele></trkpt>
<trkpt lat="52.1790477821883" lon="4.853925737751898"><ele>0</ele></trkpt>
<trkpt lat="52.17911999999998" lon="4.85355"><ele>0</ele></trkpt>
<trkpt lat="52.179303626772224" lon="4.853285981134296"><ele>0</ele></trkpt>
<trkpt lat="52.17968617254171" lon="4.853023720490514"><ele>0</ele></trkpt>
<trkpt lat="52.17986647951787" lon="4.8528449066653225"><ele>0</ele></trkpt>
<trkpt lat="52.18000049119091" lon="4.852344227758351"><ele>0</ele></trkpt>
<trkpt lat="52.179961506007636" lon="4.85206607266451"><ele>0</ele></trkpt>
<trkpt lat="52.17956000000001" lon="4.851320000000001"><ele>0</ele></trkpt>
<trkpt lat="52.1794961182976" lon="4.851021004264206"><ele>0</ele></trkpt>
<trkpt lat="52.17950000000001" lon="4.850679999999999"><ele>0</ele></trkpt>
<trkpt lat="52.17956921617782" lon="4.850091171914846"><ele>0</ele></trkpt>
<trkpt lat="52.179596018741464" lon="4.849526914454445"><ele>0</ele></trkpt>
<trkpt lat="52.17956000000001" lon="4.848990000000003"><ele>0</ele></trkpt>
<trkpt lat="52.179700792117195" lon="4.848573240174421"><ele>0</ele></trkpt>
<trkpt lat="52.17973490427911" lon="4.8481917702659585"><ele>0</ele></trkpt>
<trkpt lat="52.179737340904126" lon="4.847746722312271"><ele>0</ele></trkpt>
<trkpt lat="52.17984455046569" lon="4.847202333417352"><ele>0</ele></trkpt>
<trkpt lat="52.179949323155554" lon="4.846832784474225"><ele>0</ele></trkpt>
<trkpt lat="52.18011988298832" lon="4.846133423209264"><ele>0</ele></trkpt>
<trkpt lat="52.18016" lon="4.845629999999997"><ele>0</ele></trkpt>
<trkpt lat="52.18019541634289" lon="4.845497640137633"><ele>0</ele></trkpt>
<trkpt lat="52.180200289441935" lon="4.844794305474798"><ele>0</ele></trkpt>
<trkpt lat="52.18021999999999" lon="4.844500000000001"><ele>0</ele></trkpt>
<trkpt lat="52.18033999999998" lon="4.84433"><ele>0</ele></trkpt>
<trkpt lat="52.180650000000014" lon="4.844390000000003"><ele>0</ele></trkpt>
<trkpt lat="52.18081917104077" lon="4.844333362846095"><ele>0</ele></trkpt>
<trkpt lat="52.18088739379704" lon="4.844257863614056"><ele>0</ele></trkpt>
<trkpt lat="52.18094587024136" lon="4.844178390730098"><ele>0</ele></trkpt>
<trkpt lat="52.18116759281962" lon="4.843570423462528"><ele>0</ele></trkpt>
<trkpt lat="52.18183275392203" lon="4.842390251332268"><ele>0</ele></trkpt>
<trkpt lat="52.1820276710503" lon="4.8419928868401305"><ele>0</ele></trkpt>
<trkpt lat="52.18228999999998" lon="4.841700000000004"><ele>0</ele></trkpt>
<trkpt lat="52.18182300809938" lon="4.840343825019421"><ele>0</ele></trkpt>
<trkpt lat="52.181730422002424" lon="4.840284220192748"><ele>0</ele></trkpt>
<trkpt lat="52.1802027260218" lon="4.836819203401957"><ele>0</ele></trkpt>
<trkpt lat="52.18002485691768" lon="4.836850992424578"><ele>0</ele></trkpt>
<trkpt lat="52.17993" lon="4.836790000000003"><ele>0</ele></trkpt>
<trkpt lat="52.179790000000004" lon="4.8366"><ele>0</ele></trkpt>
<trkpt lat="52.179179359578974" lon="4.8351780886359155"><ele>0</ele></trkpt>
<trkpt lat="52.179098951229435" lon="4.834363491739103"><ele>0</ele></trkpt>
<trkpt lat="52.179050000000004" lon="4.834049999999999"><ele>0</ele></trkpt>
</trkseg>
</trk>
</gpx>
