<?xml version="1.0"?>
<gpx xmlns="http://www.topografix.com/GPX/1/1" xmlns:xsi="http://www.w3.org/2001/XMLSchema-instance" creator="geoPHP" version="1.1" xsi:schemaLocation="http://www.topografix.com/GPX/1/1 http://www.topografix.com/GPX/1/1/gpx.xsd"><trk><trkseg><trkpt lat="52.431474802781" lon="4.6228784745743"/><trkpt lat="52.4316383394" lon="4.6228731101563"/><trkpt lat="52.432112592162" lon="4.6233451789429"/><trkpt lat="52.432374246674" lon="4.6237957900574"/><trkpt lat="52.432514885332" lon="4.6228623813203"/><trkpt lat="52.433391413831" lon="4.6234524673035"/><trkpt lat="52.433568025672" lon="4.6234685605576"/><trkpt lat="52.433711931094" lon="4.6236241286805"/><trkpt lat="52.433926615597" lon="4.6237381310682"/><trkpt lat="52.434005108883" lon="4.6235074610929"/><trkpt lat="52.434126119091" lon="4.6231480450849"/><trkpt lat="52.43429618693" lon="4.622987112544"/><trkpt lat="52.434423737379" lon="4.6227886290769"/><trkpt lat="52.434544746438" lon="4.6228369088392"/><trkpt lat="52.434672296167" lon="4.6229441971998"/><trkpt lat="52.434793304543" lon="4.6230997653226"/><trkpt lat="52.435130163949" lon="4.6230783076505"/><trkpt lat="52.43533947335" lon="4.6230353923063"/><trkpt lat="52.435702491986" lon="4.6233948083143"/><trkpt lat="52.43590852826" lon="4.6238132329206"/><trkpt lat="52.436036074042" lon="4.6242745728712"/><trkpt lat="52.435924880304" lon="4.6250685067396"/><trkpt lat="52.435856201678" lon="4.6257229657392"/><trkpt lat="52.435872553742" lon="4.6259160847883"/><trkpt lat="52.435937961934" lon="4.6260877461652"/><trkpt lat="52.435934691527" lon="4.6261843056898"/><trkpt lat="52.435807145452" lon="4.6263881535749"/><trkpt lat="52.436032803642" lon="4.6264650177354"/><trkpt lat="52.436179971404" lon="4.626566941678"/><trkpt lat="52.436343490563" lon="4.6265132974977"/><trkpt lat="52.436523360937" lon="4.6264006447191"/><trkpt lat="52.436807639036" lon="4.6270602786169"/><trkpt lat="52.437278565865" lon="4.6276289069281"/><trkpt lat="52.437841055202" lon="4.6281868064032"/><trkpt lat="52.438364294651" lon="4.627800568305"/><trkpt lat="52.438632452461" lon="4.6275323474035"/><trkpt lat="52.438609561004" lon="4.6271461093054"/><trkpt lat="52.438678235338" lon="4.6268349730597"/><trkpt lat="52.438828664458" lon="4.6264916503058"/><trkpt lat="52.43888098751" lon="4.6262985312567"/><trkpt lat="52.438802502909" lon="4.6262127005682"/><trkpt lat="52.438998714149" lon="4.6260410391913"/><trkpt lat="52.439152412344" lon="4.625987395011"/><trkpt lat="52.439299569687" lon="4.6262878024206"/><trkpt lat="52.440669744469" lon="4.6292918765173"/><trkpt lat="52.440854694355" lon="4.6290910259878"/><trkpt lat="52.441727786999" lon="4.6284151093161"/><trkpt lat="52.442646641096" lon="4.6277391926443"/><trkpt lat="52.442698959613" lon="4.6273958698904"/><trkpt lat="52.442787246971" lon="4.6273100392019"/><trkpt lat="52.44282648574" lon="4.6267950550711"/><trkpt lat="52.442882073936" lon="4.626430274645"/><trkpt lat="52.442751278069" lon="4.6261298672354"/><trkpt lat="52.442659720731" lon="4.6255719677603"/><trkpt lat="52.442577972947" lon="4.625335933367"/><trkpt lat="52.44239485736" lon="4.6249711529409"/><trkpt lat="52.442345808412" lon="4.6247297541296"/><trkpt lat="52.442237900536" lon="4.6241021172201"/><trkpt lat="52.442322918885" lon="4.6235924975073"/><trkpt lat="52.442129992396" lon="4.6233242766058"/><trkpt lat="52.442018814036" lon="4.622648359934"/><trkpt lat="52.442012274123" lon="4.6222513929998"/><trkpt lat="52.442084213105" lon="4.6210712210333"/><trkpt lat="52.442051513583" lon="4.6209102884924"/><trkpt lat="52.441848776001" lon="4.6205776945745"/><trkpt lat="52.441829156185" lon="4.620298744837"/><trkpt lat="52.441750676836" lon="4.6200412527716"/><trkpt lat="52.44162641758" lon="4.6196764723455"/><trkpt lat="52.441574097788" lon="4.6191400305426"/><trkpt lat="52.441659117418" lon="4.6186143175756"/><trkpt lat="52.441796456473" lon="4.6181207911169"/><trkpt lat="52.441809536361" lon="4.6177560106909"/><trkpt lat="52.441979574547" lon="4.6172517553961"/><trkpt lat="52.442502764851" lon="4.6146768347418"/><trkpt lat="52.442967091042" lon="4.6127778307592"/><trkpt lat="52.443267919483" lon="4.6123057619726"/><trkpt lat="52.44340063507" lon="4.6117762298769"/><trkpt lat="52.443458482193" lon="4.6114747757515"/><trkpt lat="52.443799874379" lon="4.6110107317854"/><trkpt lat="52.444303424352" lon="4.6105976715971"/><trkpt lat="52.444234758785" lon="4.6099968567778"/><trkpt lat="52.444120315937" lon="4.6095247879912"/><trkpt lat="52.443927397319" lon="4.6090795412947"/><trkpt lat="52.443855461347" lon="4.6088220492293"/><trkpt lat="52.443816223494" lon="4.6085216418196"/><trkpt lat="52.443741017513" lon="4.608231963246"/><trkpt lat="52.443656001901" lon="4.6079959288527"/><trkpt lat="52.443656001901" lon="4.6074648514677"/><trkpt lat="52.443642922561" lon="4.6072610035826"/><trkpt lat="52.443570986124" lon="4.6070196047713"/><trkpt lat="52.443482700337" lon="4.6067782059599"/><trkpt lat="52.44337152539" lon="4.6065153494765"/><trkpt lat="52.443208032312" lon="4.6063329592635"/><trkpt lat="52.443060888022" lon="4.6061559334685"/><trkpt lat="52.442952981898" lon="4.6059306279112"/><trkpt lat="52.442815646448" lon="4.6056194916655"/><trkpt lat="52.442675040663" lon="4.6052547112395"/><trkpt lat="52.442550784014" lon="4.6049167529036"/><trkpt lat="52.442485385637" lon="4.6046431675841"/><trkpt lat="52.442446146564" lon="4.6041603699614"/><trkpt lat="52.442475575872" lon="4.6039618864943"/><trkpt lat="52.442511545" lon="4.6036936655928"/><trkpt lat="52.442482115716" lon="4.6035327330519"/><trkpt lat="52.442361128454" lon="4.6032913342406"/><trkpt lat="52.442220521218" lon="4.6030606642653"/><trkpt lat="52.442135502672" lon="4.6027924433638"/><trkpt lat="52.442125692829" lon="4.602642239659"/><trkpt lat="52.442060293821" lon="4.6025564089705"/><trkpt lat="52.442063563774" lon="4.6024437561919"/><trkpt lat="52.442034134191" lon="4.6023311034132"/><trkpt lat="52.4419883548" lon="4.6021594420363"/><trkpt lat="52.441962195127" lon="4.6019931450774"/><trkpt lat="52.441870636149" lon="4.6017624751021"/><trkpt lat="52.441821586618" lon="4.601574720471"/><trkpt lat="52.441736567302" lon="4.6013118639876"/><trkpt lat="52.441645007855" lon="4.6010114565779"/><trkpt lat="52.441648277838" lon="4.6008612528731"/><trkpt lat="52.441612308006" lon="4.6007432356764"/><trkpt lat="52.441504398334" lon="4.6006037608076"/><trkpt lat="52.441438998404" lon="4.6003462687422"/><trkpt lat="52.441419378405" lon="4.6000136748244"/><trkpt lat="52.441327854736" lon="4.5998513517609"/><trkpt lat="52.441210068591" lon="4.5997754412023"/><trkpt lat="52.441096488796" lon="4.5997547383226"/><trkpt lat="52.440978702032" lon="4.5997823421621"/><trkpt lat="52.440911395169" lon="4.5997478373628"/><trkpt lat="52.440877741699" lon="4.5996236200849"/><trkpt lat="52.440856708267" lon="4.5994510960879"/><trkpt lat="52.440818848064" lon="4.5994165912887"/><trkpt lat="52.440490724943" lon="4.5994165912887"/><trkpt lat="52.440368729826" lon="4.5995132047269"/><trkpt lat="52.440078464225" lon="4.5998306488813"/><trkpt lat="52.43993964087" lon="4.5999134603998"/><trkpt lat="52.439788196712" lon="4.5998858565603"/><trkpt lat="52.439561029497" lon="4.5996305210448"/><trkpt lat="52.439426411336" lon="4.5994579970479"/><trkpt lat="52.439285679704" lon="4.5992486230035"/><trkpt lat="52.439272599067" lon="4.5989643088479"/><trkpt lat="52.439236627295" lon="4.5987819186349"/><trkpt lat="52.439154873159" lon="4.5986478081842"/><trkpt lat="52.439004445153" lon="4.5985136977334"/><trkpt lat="52.438883448341" lon="4.598610257258"/><trkpt lat="52.438752640602" lon="4.5987068167825"/><trkpt lat="52.438667615364" lon="4.5986263505121"/><trkpt lat="52.438582589962" lon="4.598427867045"/><trkpt lat="52.438536806985" lon="4.5983474007745"/><trkpt lat="52.438461591991" lon="4.5983634940286"/><trkpt lat="52.438337323459" lon="4.5984868756433"/><trkpt lat="52.43813783903" lon="4.5986907235284"/><trkpt lat="52.437699624162" lon="4.5983313075204"/><trkpt lat="52.4373954874" lon="4.5983044854303"/><trkpt lat="52.437078267251" lon="4.5981864682336"/><trkpt lat="52.436810099983" lon="4.5981006375451"/><trkpt lat="52.436335897771" lon="4.5977680436273"/><trkpt lat="52.435806093402" lon="4.5973764411111"/><trkpt lat="52.435685087807" lon="4.5973657122751"/><trkpt lat="52.435596786217" lon="4.5973925343652"/><trkpt lat="52.435341691741" lon="4.5972101441522"/><trkpt lat="52.435011374905" lon="4.5968775502344"/><trkpt lat="52.434818416399" lon="4.5966576090951"/><trkpt lat="52.434674514591" lon="4.596448396792"/><trkpt lat="52.43461891604" lon="4.5960621586938"/><trkpt lat="52.434546964868" lon="4.5958368531366"/><trkpt lat="52.434363815903" lon="4.5954559794565"/><trkpt lat="52.434100545903" lon="4.5947975036811"/><trkpt lat="52.433969723966" lon="4.5945668337058"/><trkpt lat="52.433871607258" lon="4.5942288753699"/><trkpt lat="52.433744055211" lon="4.5940464851569"/><trkpt lat="52.433466055882" lon="4.5937621710013"/><trkpt lat="52.433184784187" lon="4.5934617635917"/><trkpt lat="52.4330343358" lon="4.5939016458701"/><trkpt lat="52.432939487639" lon="4.5943683502387"/><trkpt lat="52.43290678133" lon="4.5949369785499"/><trkpt lat="52.432883886898" lon="4.5952159282874"/><trkpt lat="52.432841368638" lon="4.595505606861"/><trkpt lat="52.432772685207" lon="4.5960527775001"/><trkpt lat="52.432733437484" lon="4.5962888118934"/><trkpt lat="52.432592799523" lon="4.5965302107047"/><trkpt lat="52.432314792931" lon="4.5966965076636"/><trkpt lat="52.431938663574" lon="4.5968574402045"/><trkpt lat="52.431539635878" lon="4.5970451948356"/><trkpt lat="52.431376098893" lon="4.5971578476142"/><trkpt lat="52.431261622643" lon="4.5972758648109"/><trkpt lat="52.431075189256" lon="4.5975333568763"/><trkpt lat="52.431120979985" lon="4.5978605863761"/><trkpt lat="52.430944358338" lon="4.5979303238105"/><trkpt lat="52.430895296643" lon="4.5993304369163"/><trkpt lat="52.430741569647" lon="4.599995624752"/><trkpt lat="52.430679424539" lon="4.6002477523994"/><trkpt lat="52.430685966134" lon="4.6007841942023"/><trkpt lat="52.430610737739" lon="4.6011757967185"/><trkpt lat="52.430574758896" lon="4.6013474580955"/><trkpt lat="52.430597654527" lon="4.6017551538657"/><trkpt lat="52.43072521568" lon="4.6021092054557"/><trkpt lat="52.430571488091" lon="4.6042281505775"/><trkpt lat="52.430486447067" lon="4.6052795765113"/><trkpt lat="52.430003445644" lon="4.6064176261784"/><trkpt lat="52.429731964455" lon="4.6069165170552"/><trkpt lat="52.429597858672" lon="4.6070989072682"/><trkpt lat="52.429483377803" lon="4.6071096361043"/><trkpt lat="52.429303478694" lon="4.607055991924"/><trkpt lat="52.429097411539" lon="4.6071150005223"/><trkpt lat="52.428963303825" lon="4.6072866618993"/><trkpt lat="52.428894614351" lon="4.6076460779072"/><trkpt lat="52.428835737573" lon="4.6079411208989"/><trkpt lat="52.42892405271" lon="4.6085419357182"/><trkpt lat="52.42896657475" lon="4.6091051996113"/><trkpt lat="52.429090869709" lon="4.6096148193242"/><trkpt lat="52.429208622504" lon="4.6099581420781"/><trkpt lat="52.429218435223" lon="4.6101780832173"/><trkpt lat="52.429221706128" lon="4.6105535924794"/><trkpt lat="52.429267498784" lon="4.6109451949956"/><trkpt lat="52.429463752481" lon="4.6113314330937"/><trkpt lat="52.429686172282" lon="4.6117552221181"/><trkpt lat="52.429987091403" lon="4.6121360957982"/><trkpt lat="52.430029612417" lon="4.6124901473881"/><trkpt lat="52.430029612417" lon="4.6128656566502"/><trkpt lat="52.430009987339" lon="4.613359183109"/><trkpt lat="52.429974008006" lon="4.6137346923711"/><trkpt lat="52.429947841199" lon="4.6142121255757"/><trkpt lat="52.429931486938" lon="4.6146734655263"/><trkpt lat="52.429928216084" lon="4.6150543392064"/><trkpt lat="52.429990362252" lon="4.6153118312718"/><trkpt lat="52.429957653753" lon="4.6155585945012"/><trkpt lat="52.429983820554" lon="4.615891188419"/><trkpt lat="52.430039424953" lon="4.6161755025746"/><trkpt lat="52.430117925162" lon="4.6163793504597"/><trkpt lat="52.430134279355" lon="4.616781681812"/><trkpt lat="52.430343612485" lon="4.6169962585332"/><trkpt lat="52.430484257623" lon="4.6173503101231"/><trkpt lat="52.430621631511" lon="4.6178438365819"/><trkpt lat="52.430700130683" lon="4.6183105409505"/><trkpt lat="52.430814608392" lon="4.618771880901"/><trkpt lat="52.430912731905" lon="4.6191420257451"/><trkpt lat="52.431010855201" lon="4.6195175350072"/><trkpt lat="52.431125332102" lon="4.6198072135808"/><trkpt lat="52.431200559619" lon="4.6199735105397"/><trkpt lat="52.431236537951" lon="4.620209544933"/><trkpt lat="52.4312692455" lon="4.6204187572362"/><trkpt lat="52.431321577528" lon="4.6208049953343"/><trkpt lat="52.431305223776" lon="4.6210303008916"/><trkpt lat="52.431367368001" lon="4.6218993366124"/><trkpt lat="52.431409887684" lon="4.6223928630711"/><trkpt lat="52.431445865845" lon="4.6228273809315"/></trkseg></trk><wpt lat="52.4326936793" lon="4.6229841841"><name>Oud en jong bos</name><desc>Dit deel van het bos is het oudste deel. De dikke bomen zijn hier vaak wel meer dan 100 jaar oud. Dode bomen laten we gewoon liggen. Veel insecten en paddenstoelen, maar ook mossen en korstmossen leven in en op het dode hout van de dikke stammen. Vogels en zoogdieren profiteren hier ook van, omdat er meer voedsel en dekking beschikbaar komt. Trek een stukje schors los en kijk welke beestjes je tegen komt!</desc></wpt><wpt lat="52.4400035363" lon="4.6278338949"><name>Konikpaarden</name><desc>De konikpaarden helpen samen met Schotse hooglandrunderen en shetlandpony&#x2019;s om ruige grassen struiken in toom te houden. Er zijn erg weinig konijnen na een aantal besmettelijke ziektes. Samen met de vele stikstof uit de lucht komt&amp;nbsp;groeien ruige grassen, brandnetels en struiken erg hard. Ze overgroeien de kleine karakteristieke duinbloemen en kruiden. Natuurmonumenten zet de grote grazers in om het gras kort te houden en de groei van struiken af te remmen. Zie je de verschillen tussen waar veel gegraasd wordt en waar de dieren minder komen?&amp;nbsp;Als je de grote grazers tegen komt geldt: afstand houden, met een boog erom heen. Nooit aaien of voeren.</desc></wpt><wpt lat="52.443855461347" lon="4.6088220492293"><name>Tankgracht</name><desc>De brede rechte sloot die je kruist, heeft een bijzonder verleden. Dit is een tankgracht, die de tanks van geallieerden moest tegenhouden in de Tweede Wereldoorlog (1940-1945). De bezetter had rond IJmuiden een sterke verdedigingslinie gebouwd, omdat de toegang tot het Noordzeekanaal erg belangrijk was. In het duingebied zijn restanten van deze Festung IJmuiden en de Atlantikwall bewaard gebleven. De Atlantikwall was een door de Duitse bezetter aangelegde verdedigingslinie. Hij strekte zich uit over 2500 km kust: van Noorwegen tot aan de Frans-Spaanse grens. Er liggen nog heel wat bunkers onder het zand verborgen. Deels zijn ze nu winterslaapplaats voor vleermuizen en het oude beton is groeiplaats van bijzondere mossen. De tankgracht zelf is nu een fijne plek voor watervogels. In de winter kun je hier grote zaagbekken zien en in de zomer dodaars, een kleine soort fuut.</desc></wpt><wpt lat="52.4412933693" lon="4.5998257934"><name>Weids uitzicht</name><desc>Deze duintop heeft een naam die verwijst naar het vroegere gebruik: de lichtbakkeet. Midden-Herenduin was jachtgebied van familie Van Hoorn. Een lichtbak is een soort schijnwerper die gebruikt wordt bij het opsporen van wild. Er werd vooral op konijnen, fazanten en vogels gejaagd. Vanaf de duintop heb je uitzicht in alle richtingen: de bossen van de binnenduinrand waar de route startte in het oosten, de schoorstenen van de hoogovens bij IJmuiden in het noorden. Naar het westen zie je het open duin met de - steeds iets minder hoge - opeenvolgende duinenrijen tot het strand. Draaiend naar het zuiden zie je nog meer duinen en -bij helder weer- de hoge hotels bij Bloemendaal aan Zee en in Zandvoort. De grote grazers hebben een&amp;nbsp;leefgebied van IJmuiden tot Bloemendaal aan Zee.&amp;nbsp;</desc></wpt><wpt lat="52.435732810944" lon="4.5972940365718"><name>Open duin open houden</name><desc>Het open duin met duingraslanden vol bloemen en kruiden als geel walstro en duinviooltje is heel bijzonder. Dit kom je in het buitenland bijna nergens tegen. Natuurmonumenten zet de grazers in om de rijkdom van de duingraslandjes te behouden. Soms is er meer nodig. Waar ruig gras of Amerikaanse vogelkers overheerst, wordt bijvoorbeeld de grond ondiep afgegraven, waarbij struiken en planten met wortel en al worden gehaald. Op het kale duinzand komen dan de echte duinplanten en insecten&amp;nbsp;weer terug, want er is genoeg zaad in de omgeving. De grazers houden het vervolgens bij. Ze grazen niet overal even veel, waardoor er variatie komt in de plantengroei. Als je even gaat zitten tussen de duinbloemen zie en hoor je de vele insecten rond vliegen.</desc></wpt><wpt lat="52.4309140151" lon="4.5988102102"><name>Grenspalen</name><desc>Die twee grote stenen palen langs het paadje hier zijn oude grenspalen. Deze gaven de grens van een gebied aan, bijvoorbeeld van een landgoed, een gemeente, provincie of waterschap/ hoogheemraadschap. Ze zijn meestal geplaatst op een punt waar zo&#x2019;n grens een knik maakt. Op de palen staat een nummer en een afkorting van de naam of een familiewapen. In Duin en Kruidberg staan grenspalen van het waterschap en van voormalig eigenaar Van Hall. De paal met RL11A verwijst naar het hoogheemraadschap van Rijnland, en is geplaatst tussen paal 11 en paal 12 als hulp op een plek waar de grens nog wat onduidelijk was. De oorspronkelijke paal was lange tijd weg en er is een vervangend exemplaar geplaatst. Toen de originele paal gevonden werd, is hij naast zijn vervanger teruggeplaatst. Tegenwoordig loopt de grens van het hoogheemraadschap bij het Noordzeekanaal.</desc></wpt><wpt lat="52.4288769424" lon="4.6082587289"><name>Kastanjelaantje</name><desc>Duin en Kruidberg is een voormalig landgoed. Je ziet daar stukjes van terug in het duingebied. Bijvoorbeeld in de namen van wegen en paden en de aanplant van seringen, narcissen en rododendron en lanen. Het kastanjelaantje is een heel bekende in Duin en Kruidberg. In de lente hebben de kastanjebomen prachtige witte &#x2018;kaarsen&#x2019; van kleine bloemetjes. &#x2019;s Zomers wandel je heerlijk koel in de schaduw van de oude bomen. In de herfst zijn de bladeren knalgeel en zoeken kinderen, ree&#xEB;n, herten en koeien naar de kastanjes.Tussen de laantjes in is het bos natuurlijk en heel gevarieerd. Natuurmonumenten laat de natuur zoveel mogelijk haar gang gaan en koestert de diversiteit aan planten en dieren. Biodiversiteit buiten natuurgebieden is ook heel belangrijk, want slechts 15% van Nederland is natuurgebied. Meer streek-eigen planten en insecten in je eigen buurt, in je tuin of met potten op een balkon, alle beetjes helpen! Kijk op www.natuurmonumenten.nl hoe jij kunt helpen.</desc></wpt></gpx>
