<?xml version="1.0" encoding="UTF-8"?>        <gpx xmlns="http://www.topografix.com/GPX/1/1" version="1.1" creator="Wandelnetwerk Noord-Holland"
            xmlns:xsi="http://www.w3.org/2001/XMLSchema-instance" xsi:schemaLocation="http://www.topografix.com/GPX/1/1 http://www.topografix.com/GPX/1/1/gpx.xsd"
            xmlns:gpxx="http://www.garmin.com/xmlschemas/GpxExtensions/v3"
            xmlns:ctx="http://www.garmin.com/xmlschemas/CreationTimeExtension/v1">
            <metadata>
                <name>
                    Tien bergenroute (blauw)
                </name>
                <link href="https://www.wandelnetwerknoordholland.nl">
                    <text>Wandelnetwerk Noord-Holland</text>
                </link>
                <time>2026-04-28T14:36:41+02:00</time>
                <bounds maxlat="52.41701" maxlon="4.592444" minlat="52.397132" minlon="4.555013" />
            </metadata>
                <wpt lat="52.41701" lon="4.555013">
        <time>2026-04-28T14:36:41+02:00</time>
        <name>Startpunt Parnassia Bloemendaal (31)</name>
        <sym>Flag, Blue</sym>
        <type>user</type>
        <extensions>
            <gpxx:WaypointExtension>
                <gpxx:DisplayMode>SymbolAndName</gpxx:DisplayMode>
            </gpxx:WaypointExtension>
            <ctx:CreationTimeExtension>
                <ctx:CreationTime>2026-04-28T14:36:41+02:00</ctx:CreationTime>
            </ctx:CreationTimeExtension>
        </extensions>
    </wpt>    <wpt lat="52.413525" lon="4.559136">
        <time>2026-04-28T14:36:41+02:00</time>
        <name>Punt 39</name>
        <sym>Flag, Blue</sym>
        <type>user</type>
        <extensions>
            <gpxx:WaypointExtension>
                <gpxx:DisplayMode>SymbolAndName</gpxx:DisplayMode>
            </gpxx:WaypointExtension>
            <ctx:CreationTimeExtension>
                <ctx:CreationTime>2026-04-28T14:36:41+02:00</ctx:CreationTime>
            </ctx:CreationTimeExtension>
        </extensions>
    </wpt>    <wpt lat="52.414446" lon="4.563237">
        <time>2026-04-28T14:36:41+02:00</time>
        <name>Punt 53</name>
        <sym>Flag, Blue</sym>
        <type>user</type>
        <extensions>
            <gpxx:WaypointExtension>
                <gpxx:DisplayMode>SymbolAndName</gpxx:DisplayMode>
            </gpxx:WaypointExtension>
            <ctx:CreationTimeExtension>
                <ctx:CreationTime>2026-04-28T14:36:41+02:00</ctx:CreationTime>
            </ctx:CreationTimeExtension>
        </extensions>
    </wpt>    <wpt lat="52.414948" lon="4.565634">
        <time>2026-04-28T14:36:41+02:00</time>
        <name>Punt 40</name>
        <sym>Flag, Blue</sym>
        <type>user</type>
        <extensions>
            <gpxx:WaypointExtension>
                <gpxx:DisplayMode>SymbolAndName</gpxx:DisplayMode>
            </gpxx:WaypointExtension>
            <ctx:CreationTimeExtension>
                <ctx:CreationTime>2026-04-28T14:36:41+02:00</ctx:CreationTime>
            </ctx:CreationTimeExtension>
        </extensions>
    </wpt>    <wpt lat="52.414389" lon="4.566327">
        <time>2026-04-28T14:36:41+02:00</time>
        <name>Punt 63</name>
        <sym>Flag, Blue</sym>
        <type>user</type>
        <extensions>
            <gpxx:WaypointExtension>
                <gpxx:DisplayMode>SymbolAndName</gpxx:DisplayMode>
            </gpxx:WaypointExtension>
            <ctx:CreationTimeExtension>
                <ctx:CreationTime>2026-04-28T14:36:41+02:00</ctx:CreationTime>
            </ctx:CreationTimeExtension>
        </extensions>
    </wpt>    <wpt lat="52.413901" lon="4.567952">
        <time>2026-04-28T14:36:41+02:00</time>
        <name>Punt 69</name>
        <sym>Flag, Blue</sym>
        <type>user</type>
        <extensions>
            <gpxx:WaypointExtension>
                <gpxx:DisplayMode>SymbolAndName</gpxx:DisplayMode>
            </gpxx:WaypointExtension>
            <ctx:CreationTimeExtension>
                <ctx:CreationTime>2026-04-28T14:36:41+02:00</ctx:CreationTime>
            </ctx:CreationTimeExtension>
        </extensions>
    </wpt>    <wpt lat="52.412405" lon="4.567834">
        <time>2026-04-28T14:36:41+02:00</time>
        <name>Punt 6</name>
        <sym>Flag, Blue</sym>
        <type>user</type>
        <extensions>
            <gpxx:WaypointExtension>
                <gpxx:DisplayMode>SymbolAndName</gpxx:DisplayMode>
            </gpxx:WaypointExtension>
            <ctx:CreationTimeExtension>
                <ctx:CreationTime>2026-04-28T14:36:41+02:00</ctx:CreationTime>
            </ctx:CreationTimeExtension>
        </extensions>
    </wpt>    <wpt lat="52.410003" lon="4.576791">
        <time>2026-04-28T14:36:41+02:00</time>
        <name>Punt 10</name>
        <sym>Flag, Blue</sym>
        <type>user</type>
        <extensions>
            <gpxx:WaypointExtension>
                <gpxx:DisplayMode>SymbolAndName</gpxx:DisplayMode>
            </gpxx:WaypointExtension>
            <ctx:CreationTimeExtension>
                <ctx:CreationTime>2026-04-28T14:36:41+02:00</ctx:CreationTime>
            </ctx:CreationTimeExtension>
        </extensions>
    </wpt>    <wpt lat="52.409066" lon="4.578544">
        <time>2026-04-28T14:36:41+02:00</time>
        <name>Punt 4</name>
        <sym>Flag, Blue</sym>
        <type>user</type>
        <extensions>
            <gpxx:WaypointExtension>
                <gpxx:DisplayMode>SymbolAndName</gpxx:DisplayMode>
            </gpxx:WaypointExtension>
            <ctx:CreationTimeExtension>
                <ctx:CreationTime>2026-04-28T14:36:41+02:00</ctx:CreationTime>
            </ctx:CreationTimeExtension>
        </extensions>
    </wpt>    <wpt lat="52.407421" lon="4.577683">
        <time>2026-04-28T14:36:41+02:00</time>
        <name>Punt 18</name>
        <sym>Flag, Blue</sym>
        <type>user</type>
        <extensions>
            <gpxx:WaypointExtension>
                <gpxx:DisplayMode>SymbolAndName</gpxx:DisplayMode>
            </gpxx:WaypointExtension>
            <ctx:CreationTimeExtension>
                <ctx:CreationTime>2026-04-28T14:36:41+02:00</ctx:CreationTime>
            </ctx:CreationTimeExtension>
        </extensions>
    </wpt>    <wpt lat="52.406338" lon="4.580786">
        <time>2026-04-28T14:36:41+02:00</time>
        <name>Punt 28</name>
        <sym>Flag, Blue</sym>
        <type>user</type>
        <extensions>
            <gpxx:WaypointExtension>
                <gpxx:DisplayMode>SymbolAndName</gpxx:DisplayMode>
            </gpxx:WaypointExtension>
            <ctx:CreationTimeExtension>
                <ctx:CreationTime>2026-04-28T14:36:41+02:00</ctx:CreationTime>
            </ctx:CreationTimeExtension>
        </extensions>
    </wpt>    <wpt lat="52.403833" lon="4.591206">
        <time>2026-04-28T14:36:41+02:00</time>
        <name>Punt 88</name>
        <sym>Flag, Blue</sym>
        <type>user</type>
        <extensions>
            <gpxx:WaypointExtension>
                <gpxx:DisplayMode>SymbolAndName</gpxx:DisplayMode>
            </gpxx:WaypointExtension>
            <ctx:CreationTimeExtension>
                <ctx:CreationTime>2026-04-28T14:36:41+02:00</ctx:CreationTime>
            </ctx:CreationTimeExtension>
        </extensions>
    </wpt>    <wpt lat="52.397132" lon="4.592444">
        <time>2026-04-28T14:36:41+02:00</time>
        <name>Punt 82</name>
        <sym>Flag, Blue</sym>
        <type>user</type>
        <extensions>
            <gpxx:WaypointExtension>
                <gpxx:DisplayMode>SymbolAndName</gpxx:DisplayMode>
            </gpxx:WaypointExtension>
            <ctx:CreationTimeExtension>
                <ctx:CreationTime>2026-04-28T14:36:41+02:00</ctx:CreationTime>
            </ctx:CreationTimeExtension>
        </extensions>
    </wpt>    <wpt lat="52.405461" lon="4.580295">
        <time>2026-04-28T14:36:41+02:00</time>
        <name>Punt 26</name>
        <sym>Flag, Blue</sym>
        <type>user</type>
        <extensions>
            <gpxx:WaypointExtension>
                <gpxx:DisplayMode>SymbolAndName</gpxx:DisplayMode>
            </gpxx:WaypointExtension>
            <ctx:CreationTimeExtension>
                <ctx:CreationTime>2026-04-28T14:36:41+02:00</ctx:CreationTime>
            </ctx:CreationTimeExtension>
        </extensions>
    </wpt>    <wpt lat="52.408782" lon="4.574406">
        <time>2026-04-28T14:36:41+02:00</time>
        <name>Punt 95</name>
        <sym>Flag, Blue</sym>
        <type>user</type>
        <extensions>
            <gpxx:WaypointExtension>
                <gpxx:DisplayMode>SymbolAndName</gpxx:DisplayMode>
            </gpxx:WaypointExtension>
            <ctx:CreationTimeExtension>
                <ctx:CreationTime>2026-04-28T14:36:41+02:00</ctx:CreationTime>
            </ctx:CreationTimeExtension>
        </extensions>
    </wpt>    <wpt lat="52.408997" lon="4.573961">
        <time>2026-04-28T14:36:41+02:00</time>
        <name>Punt 91</name>
        <sym>Flag, Blue</sym>
        <type>user</type>
        <extensions>
            <gpxx:WaypointExtension>
                <gpxx:DisplayMode>SymbolAndName</gpxx:DisplayMode>
            </gpxx:WaypointExtension>
            <ctx:CreationTimeExtension>
                <ctx:CreationTime>2026-04-28T14:36:41+02:00</ctx:CreationTime>
            </ctx:CreationTimeExtension>
        </extensions>
    </wpt>    <wpt lat="52.410714" lon="4.563548">
        <time>2026-04-28T14:36:41+02:00</time>
        <name>Punt 5</name>
        <sym>Flag, Blue</sym>
        <type>user</type>
        <extensions>
            <gpxx:WaypointExtension>
                <gpxx:DisplayMode>SymbolAndName</gpxx:DisplayMode>
            </gpxx:WaypointExtension>
            <ctx:CreationTimeExtension>
                <ctx:CreationTime>2026-04-28T14:36:41+02:00</ctx:CreationTime>
            </ctx:CreationTimeExtension>
        </extensions>
    </wpt>    <wpt lat="52.413525" lon="4.559136">
        <time>2026-04-28T14:36:41+02:00</time>
        <name>Punt 39</name>
        <sym>Flag, Blue</sym>
        <type>user</type>
        <extensions>
            <gpxx:WaypointExtension>
                <gpxx:DisplayMode>SymbolAndName</gpxx:DisplayMode>
            </gpxx:WaypointExtension>
            <ctx:CreationTimeExtension>
                <ctx:CreationTime>2026-04-28T14:36:41+02:00</ctx:CreationTime>
            </ctx:CreationTimeExtension>
        </extensions>
    </wpt>    <wpt lat="52.41701" lon="4.555013">
        <time>2026-04-28T14:36:41+02:00</time>
        <name>Startpunt Parnassia Bloemendaal (31)</name>
        <sym>Flag, Blue</sym>
        <type>user</type>
        <extensions>
            <gpxx:WaypointExtension>
                <gpxx:DisplayMode>SymbolAndName</gpxx:DisplayMode>
            </gpxx:WaypointExtension>
            <ctx:CreationTimeExtension>
                <ctx:CreationTime>2026-04-28T14:36:41+02:00</ctx:CreationTime>
            </ctx:CreationTimeExtension>
        </extensions>
    </wpt>
            <trk>
                <name>Tien bergenroute (blauw)</name>
                <extensions>
                    <gpxx:TrackExtension>
                        <gpxx:DisplayColor>DarkRed</gpxx:DisplayColor>
                    </gpxx:TrackExtension>
                </extensions>
                <trkseg>    <trkpt lat="52.41701" lon="4.555013">
        <ele>0</ele>
        <time>2026-08-26T21:05:48+02:00</time>
    </trkpt>    <trkpt lat="52.416939" lon="4.555142">
        <ele>0</ele>
        <time>2026-08-26T21:05:57+02:00</time>
    </trkpt>    <trkpt lat="52.416925" lon="4.55523">
        <ele>0</ele>
        <time>2026-08-26T21:06:02+02:00</time>
    </trkpt>    <trkpt lat="52.416908" lon="4.555336">
        <ele>0</ele>
        <time>2026-08-26T21:06:08+02:00</time>
    </trkpt>    <trkpt lat="52.416884" lon="4.555494">
        <ele>0</ele>
        <time>2026-08-26T21:06:17+02:00</time>
    </trkpt>    <trkpt lat="52.416668" lon="4.555999">
        <ele>0</ele>
        <time>2026-08-26T21:06:50+02:00</time>
    </trkpt>    <trkpt lat="52.41656" lon="4.556241">
        <ele>0</ele>
        <time>2026-08-26T21:07:06+02:00</time>
    </trkpt>    <trkpt lat="52.416416" lon="4.557271">
        <ele>0</ele>
        <time>2026-08-26T21:08:03+02:00</time>
    </trkpt>    <trkpt lat="52.416327" lon="4.557709">
        <ele>0</ele>
        <time>2026-08-26T21:08:28+02:00</time>
    </trkpt>    <trkpt lat="52.416201" lon="4.55806">
        <ele>0</ele>
        <time>2026-08-26T21:08:50+02:00</time>
    </trkpt>    <trkpt lat="52.415914" lon="4.558192">
        <ele>0</ele>
        <time>2026-08-26T21:09:17+02:00</time>
    </trkpt>    <trkpt lat="52.415669" lon="4.558177">
        <ele>0</ele>
        <time>2026-08-26T21:09:39+02:00</time>
    </trkpt>    <trkpt lat="52.415272" lon="4.55861">
        <ele>0</ele>
        <time>2026-08-26T21:10:21+02:00</time>
    </trkpt>    <trkpt lat="52.415204" lon="4.558626">
        <ele>0</ele>
        <time>2026-08-26T21:10:27+02:00</time>
    </trkpt>    <trkpt lat="52.415105" lon="4.558657">
        <ele>0</ele>
        <time>2026-08-26T21:10:36+02:00</time>
    </trkpt>    <trkpt lat="52.415021" lon="4.558639">
        <ele>0</ele>
        <time>2026-08-26T21:10:44+02:00</time>
    </trkpt>    <trkpt lat="52.414933" lon="4.558584">
        <ele>0</ele>
        <time>2026-08-26T21:10:52+02:00</time>
    </trkpt>    <trkpt lat="52.414739" lon="4.558455">
        <ele>0</ele>
        <time>2026-08-26T21:11:11+02:00</time>
    </trkpt>    <trkpt lat="52.414595" lon="4.558375">
        <ele>0</ele>
        <time>2026-08-26T21:11:25+02:00</time>
    </trkpt>    <trkpt lat="52.414491" lon="4.558337">
        <ele>0</ele>
        <time>2026-08-26T21:11:34+02:00</time>
    </trkpt>    <trkpt lat="52.414391" lon="4.558339">
        <ele>0</ele>
        <time>2026-08-26T21:11:43+02:00</time>
    </trkpt>    <trkpt lat="52.414303" lon="4.558401">
        <ele>0</ele>
        <time>2026-08-26T21:11:52+02:00</time>
    </trkpt>    <trkpt lat="52.413945" lon="4.558778">
        <ele>0</ele>
        <time>2026-08-26T21:12:30+02:00</time>
    </trkpt>    <trkpt lat="52.413669" lon="4.559027">
        <ele>0</ele>
        <time>2026-08-26T21:12:58+02:00</time>
    </trkpt>    <trkpt lat="52.41359" lon="4.5591">
        <ele>0</ele>
        <time>2026-08-26T21:13:06+02:00</time>
    </trkpt>    <trkpt lat="52.413525" lon="4.559136">
        <ele>0</ele>
        <time>2026-08-26T21:13:12+02:00</time>
    </trkpt>    <trkpt lat="52.413554" lon="4.559216">
        <ele>0</ele>
        <time>2026-08-26T21:13:17+02:00</time>
    </trkpt>    <trkpt lat="52.413579" lon="4.559292">
        <ele>0</ele>
        <time>2026-08-26T21:13:22+02:00</time>
    </trkpt>    <trkpt lat="52.413615" lon="4.559384">
        <ele>0</ele>
        <time>2026-08-26T21:13:28+02:00</time>
    </trkpt>    <trkpt lat="52.413659" lon="4.55945">
        <ele>0</ele>
        <time>2026-08-26T21:13:33+02:00</time>
    </trkpt>    <trkpt lat="52.413733" lon="4.559595">
        <ele>0</ele>
        <time>2026-08-26T21:13:43+02:00</time>
    </trkpt>    <trkpt lat="52.413989" lon="4.559968">
        <ele>0</ele>
        <time>2026-08-26T21:14:13+02:00</time>
    </trkpt>    <trkpt lat="52.414019" lon="4.559998">
        <ele>0</ele>
        <time>2026-08-26T21:14:16+02:00</time>
    </trkpt>    <trkpt lat="52.414055" lon="4.560046">
        <ele>0</ele>
        <time>2026-08-26T21:14:20+02:00</time>
    </trkpt>    <trkpt lat="52.414092" lon="4.560107">
        <ele>0</ele>
        <time>2026-08-26T21:14:25+02:00</time>
    </trkpt>    <trkpt lat="52.414117" lon="4.560174">
        <ele>0</ele>
        <time>2026-08-26T21:14:29+02:00</time>
    </trkpt>    <trkpt lat="52.414154" lon="4.560277">
        <ele>0</ele>
        <time>2026-08-26T21:14:35+02:00</time>
    </trkpt>    <trkpt lat="52.41421" lon="4.560355">
        <ele>0</ele>
        <time>2026-08-26T21:14:42+02:00</time>
    </trkpt>    <trkpt lat="52.414264" lon="4.560442">
        <ele>0</ele>
        <time>2026-08-26T21:14:49+02:00</time>
    </trkpt>    <trkpt lat="52.414303" lon="4.560528">
        <ele>0</ele>
        <time>2026-08-26T21:14:55+02:00</time>
    </trkpt>    <trkpt lat="52.414314" lon="4.560603">
        <ele>0</ele>
        <time>2026-08-26T21:14:59+02:00</time>
    </trkpt>    <trkpt lat="52.414324" lon="4.560772">
        <ele>0</ele>
        <time>2026-08-26T21:15:08+02:00</time>
    </trkpt>    <trkpt lat="52.414344" lon="4.560914">
        <ele>0</ele>
        <time>2026-08-26T21:15:16+02:00</time>
    </trkpt>    <trkpt lat="52.414369" lon="4.560984">
        <ele>0</ele>
        <time>2026-08-26T21:15:20+02:00</time>
    </trkpt>    <trkpt lat="52.414389" lon="4.561012">
        <ele>0</ele>
        <time>2026-08-26T21:15:22+02:00</time>
    </trkpt>    <trkpt lat="52.414399" lon="4.561028">
        <ele>0</ele>
        <time>2026-08-26T21:15:23+02:00</time>
    </trkpt>    <trkpt lat="52.414399" lon="4.561066">
        <ele>0</ele>
        <time>2026-08-26T21:15:25+02:00</time>
    </trkpt>    <trkpt lat="52.414351" lon="4.561505">
        <ele>0</ele>
        <time>2026-08-26T21:15:49+02:00</time>
    </trkpt>    <trkpt lat="52.41426" lon="4.561943">
        <ele>0</ele>
        <time>2026-08-26T21:16:14+02:00</time>
    </trkpt>    <trkpt lat="52.41426" lon="4.562337">
        <ele>0</ele>
        <time>2026-08-26T21:16:35+02:00</time>
    </trkpt>    <trkpt lat="52.414405" lon="4.562688">
        <ele>0</ele>
        <time>2026-08-26T21:16:58+02:00</time>
    </trkpt>    <trkpt lat="52.414436" lon="4.563024">
        <ele>0</ele>
        <time>2026-08-26T21:17:16+02:00</time>
    </trkpt>    <trkpt lat="52.414446" lon="4.563237">
        <ele>0</ele>
        <time>2026-08-26T21:17:28+02:00</time>
    </trkpt>    <trkpt lat="52.414431" lon="4.563325">
        <ele>0</ele>
        <time>2026-08-26T21:17:33+02:00</time>
    </trkpt>    <trkpt lat="52.414455" lon="4.563476">
        <ele>0</ele>
        <time>2026-08-26T21:17:41+02:00</time>
    </trkpt>    <trkpt lat="52.414568" lon="4.563583">
        <ele>0</ele>
        <time>2026-08-26T21:17:53+02:00</time>
    </trkpt>    <trkpt lat="52.414668" lon="4.564244">
        <ele>0</ele>
        <time>2026-08-26T21:18:30+02:00</time>
    </trkpt>    <trkpt lat="52.414648" lon="4.56449">
        <ele>0</ele>
        <time>2026-08-26T21:18:43+02:00</time>
    </trkpt>    <trkpt lat="52.414658" lon="4.564804">
        <ele>0</ele>
        <time>2026-08-26T21:19:00+02:00</time>
    </trkpt>    <trkpt lat="52.414729" lon="4.565107">
        <ele>0</ele>
        <time>2026-08-26T21:19:18+02:00</time>
    </trkpt>    <trkpt lat="52.414818" lon="4.565195">
        <ele>0</ele>
        <time>2026-08-26T21:19:27+02:00</time>
    </trkpt>    <trkpt lat="52.414902" lon="4.565389">
        <ele>0</ele>
        <time>2026-08-26T21:19:40+02:00</time>
    </trkpt>    <trkpt lat="52.41491" lon="4.565523">
        <ele>0</ele>
        <time>2026-08-26T21:19:47+02:00</time>
    </trkpt>    <trkpt lat="52.414948" lon="4.565634">
        <ele>0</ele>
        <time>2026-08-26T21:19:54+02:00</time>
    </trkpt>    <trkpt lat="52.414924" lon="4.56579">
        <ele>0</ele>
        <time>2026-08-26T21:20:03+02:00</time>
    </trkpt>    <trkpt lat="52.4148" lon="4.566044">
        <ele>0</ele>
        <time>2026-08-26T21:20:21+02:00</time>
    </trkpt>    <trkpt lat="52.414676" lon="4.566271">
        <ele>0</ele>
        <time>2026-08-26T21:20:38+02:00</time>
    </trkpt>    <trkpt lat="52.414551" lon="4.566341">
        <ele>0</ele>
        <time>2026-08-26T21:20:50+02:00</time>
    </trkpt>    <trkpt lat="52.414389" lon="4.566327">
        <ele>0</ele>
        <time>2026-08-26T21:21:04+02:00</time>
    </trkpt>    <trkpt lat="52.414369" lon="4.566511">
        <ele>0</ele>
        <time>2026-08-26T21:21:14+02:00</time>
    </trkpt>    <trkpt lat="52.414333" lon="4.566702">
        <ele>0</ele>
        <time>2026-08-26T21:21:25+02:00</time>
    </trkpt>    <trkpt lat="52.414333" lon="4.566921">
        <ele>0</ele>
        <time>2026-08-26T21:21:37+02:00</time>
    </trkpt>    <trkpt lat="52.414189" lon="4.567206">
        <ele>0</ele>
        <time>2026-08-26T21:21:57+02:00</time>
    </trkpt>    <trkpt lat="52.414081" lon="4.567338">
        <ele>0</ele>
        <time>2026-08-26T21:22:09+02:00</time>
    </trkpt>    <trkpt lat="52.413991" lon="4.567492">
        <ele>0</ele>
        <time>2026-08-26T21:22:21+02:00</time>
    </trkpt>    <trkpt lat="52.413958" lon="4.567773">
        <ele>0</ele>
        <time>2026-08-26T21:22:37+02:00</time>
    </trkpt>    <trkpt lat="52.413901" lon="4.567952">
        <ele>0</ele>
        <time>2026-08-26T21:22:48+02:00</time>
    </trkpt>    <trkpt lat="52.413416" lon="4.56736">
        <ele>0</ele>
        <time>2026-08-26T21:23:42+02:00</time>
    </trkpt>    <trkpt lat="52.413183" lon="4.56736">
        <ele>0</ele>
        <time>2026-08-26T21:24:03+02:00</time>
    </trkpt>    <trkpt lat="52.412823" lon="4.567514">
        <ele>0</ele>
        <time>2026-08-26T21:24:36+02:00</time>
    </trkpt>    <trkpt lat="52.412405" lon="4.567834">
        <ele>0</ele>
        <time>2026-08-26T21:25:17+02:00</time>
    </trkpt>    <trkpt lat="52.412357" lon="4.567887">
        <ele>0</ele>
        <time>2026-08-26T21:25:22+02:00</time>
    </trkpt>    <trkpt lat="52.412464" lon="4.568193">
        <ele>0</ele>
        <time>2026-08-26T21:25:41+02:00</time>
    </trkpt>    <trkpt lat="52.412446" lon="4.568566">
        <ele>0</ele>
        <time>2026-08-26T21:26:01+02:00</time>
    </trkpt>    <trkpt lat="52.412356" lon="4.569268">
        <ele>0</ele>
        <time>2026-08-26T21:26:40+02:00</time>
    </trkpt>    <trkpt lat="52.412338" lon="4.569289">
        <ele>0</ele>
        <time>2026-08-26T21:26:42+02:00</time>
    </trkpt>    <trkpt lat="52.412374" lon="4.569794">
        <ele>0</ele>
        <time>2026-08-26T21:27:10+02:00</time>
    </trkpt>    <trkpt lat="52.412285" lon="4.57008">
        <ele>0</ele>
        <time>2026-08-26T21:27:27+02:00</time>
    </trkpt>    <trkpt lat="52.412284" lon="4.570146">
        <ele>0</ele>
        <time>2026-08-26T21:27:31+02:00</time>
    </trkpt>    <trkpt lat="52.412356" lon="4.570518">
        <ele>0</ele>
        <time>2026-08-26T21:27:52+02:00</time>
    </trkpt>    <trkpt lat="52.412338" lon="4.570957">
        <ele>0</ele>
        <time>2026-08-26T21:28:16+02:00</time>
    </trkpt>    <trkpt lat="52.412266" lon="4.571351">
        <ele>0</ele>
        <time>2026-08-26T21:28:38+02:00</time>
    </trkpt>    <trkpt lat="52.412195" lon="4.571813">
        <ele>0</ele>
        <time>2026-08-26T21:29:04+02:00</time>
    </trkpt>    <trkpt lat="52.412212" lon="4.57225">
        <ele>0</ele>
        <time>2026-08-26T21:29:28+02:00</time>
    </trkpt>    <trkpt lat="52.41214" lon="4.572623">
        <ele>0</ele>
        <time>2026-08-26T21:29:49+02:00</time>
    </trkpt>    <trkpt lat="52.412122" lon="4.573019">
        <ele>0</ele>
        <time>2026-08-26T21:30:11+02:00</time>
    </trkpt>    <trkpt lat="52.412086" lon="4.573281">
        <ele>0</ele>
        <time>2026-08-26T21:30:26+02:00</time>
    </trkpt>    <trkpt lat="52.412159" lon="4.573633">
        <ele>0</ele>
        <time>2026-08-26T21:30:46+02:00</time>
    </trkpt>    <trkpt lat="52.41232" lon="4.574049">
        <ele>0</ele>
        <time>2026-08-26T21:31:13+02:00</time>
    </trkpt>    <trkpt lat="52.412159" lon="4.574115">
        <ele>0</ele>
        <time>2026-08-26T21:31:28+02:00</time>
    </trkpt>    <trkpt lat="52.411979" lon="4.574246">
        <ele>0</ele>
        <time>2026-08-26T21:31:46+02:00</time>
    </trkpt>    <trkpt lat="52.411907" lon="4.574619">
        <ele>0</ele>
        <time>2026-08-26T21:32:07+02:00</time>
    </trkpt>    <trkpt lat="52.411781" lon="4.574948">
        <ele>0</ele>
        <time>2026-08-26T21:32:28+02:00</time>
    </trkpt>    <trkpt lat="52.411566" lon="4.575387">
        <ele>0</ele>
        <time>2026-08-26T21:32:59+02:00</time>
    </trkpt>    <trkpt lat="52.411476" lon="4.575716">
        <ele>0</ele>
        <time>2026-08-26T21:33:19+02:00</time>
    </trkpt>    <trkpt lat="52.411422" lon="4.575957">
        <ele>0</ele>
        <time>2026-08-26T21:33:33+02:00</time>
    </trkpt>    <trkpt lat="52.411422" lon="4.576286">
        <ele>0</ele>
        <time>2026-08-26T21:33:51+02:00</time>
    </trkpt>    <trkpt lat="52.411422" lon="4.576681">
        <ele>0</ele>
        <time>2026-08-26T21:34:12+02:00</time>
    </trkpt>    <trkpt lat="52.411098" lon="4.576922">
        <ele>0</ele>
        <time>2026-08-26T21:34:44+02:00</time>
    </trkpt>    <trkpt lat="52.410973" lon="4.57701">
        <ele>0</ele>
        <time>2026-08-26T21:34:56+02:00</time>
    </trkpt>    <trkpt lat="52.410739" lon="4.577339">
        <ele>0</ele>
        <time>2026-08-26T21:35:23+02:00</time>
    </trkpt>    <trkpt lat="52.410613" lon="4.577471">
        <ele>0</ele>
        <time>2026-08-26T21:35:36+02:00</time>
    </trkpt>    <trkpt lat="52.410434" lon="4.577493">
        <ele>0</ele>
        <time>2026-08-26T21:35:52+02:00</time>
    </trkpt>    <trkpt lat="52.410344" lon="4.577383">
        <ele>0</ele>
        <time>2026-08-26T21:36:02+02:00</time>
    </trkpt>    <trkpt lat="52.410326" lon="4.577383">
        <ele>0</ele>
        <time>2026-08-26T21:36:04+02:00</time>
    </trkpt>    <trkpt lat="52.410237" lon="4.577207">
        <ele>0</ele>
        <time>2026-08-26T21:36:16+02:00</time>
    </trkpt>    <trkpt lat="52.410111" lon="4.576945">
        <ele>0</ele>
        <time>2026-08-26T21:36:34+02:00</time>
    </trkpt>    <trkpt lat="52.410003" lon="4.576791">
        <ele>0</ele>
        <time>2026-08-26T21:36:47+02:00</time>
    </trkpt>    <trkpt lat="52.409877" lon="4.576812">
        <ele>0</ele>
        <time>2026-08-26T21:36:58+02:00</time>
    </trkpt>    <trkpt lat="52.409733" lon="4.576856">
        <ele>0</ele>
        <time>2026-08-26T21:37:11+02:00</time>
    </trkpt>    <trkpt lat="52.409733" lon="4.577033">
        <ele>0</ele>
        <time>2026-08-26T21:37:21+02:00</time>
    </trkpt>    <trkpt lat="52.409715" lon="4.577339">
        <ele>0</ele>
        <time>2026-08-26T21:37:38+02:00</time>
    </trkpt>    <trkpt lat="52.409428" lon="4.577514">
        <ele>0</ele>
        <time>2026-08-26T21:38:05+02:00</time>
    </trkpt>    <trkpt lat="52.409249" lon="4.577953">
        <ele>0</ele>
        <time>2026-08-26T21:38:34+02:00</time>
    </trkpt>    <trkpt lat="52.409158" lon="4.578282">
        <ele>0</ele>
        <time>2026-08-26T21:38:54+02:00</time>
    </trkpt>    <trkpt lat="52.409113" lon="4.578467">
        <ele>0</ele>
        <time>2026-08-26T21:39:05+02:00</time>
    </trkpt>    <trkpt lat="52.409066" lon="4.578544">
        <ele>0</ele>
        <time>2026-08-26T21:39:11+02:00</time>
    </trkpt>    <trkpt lat="52.408997" lon="4.578699">
        <ele>0</ele>
        <time>2026-08-26T21:39:21+02:00</time>
    </trkpt>    <trkpt lat="52.408979" lon="4.578742">
        <ele>0</ele>
        <time>2026-08-26T21:39:24+02:00</time>
    </trkpt>    <trkpt lat="52.408745" lon="4.578677">
        <ele>0</ele>
        <time>2026-08-26T21:39:45+02:00</time>
    </trkpt>    <trkpt lat="52.408493" lon="4.57872">
        <ele>0</ele>
        <time>2026-08-26T21:40:08+02:00</time>
    </trkpt>    <trkpt lat="52.408332" lon="4.578545">
        <ele>0</ele>
        <time>2026-08-26T21:40:25+02:00</time>
    </trkpt>    <trkpt lat="52.408188" lon="4.578457">
        <ele>0</ele>
        <time>2026-08-26T21:40:39+02:00</time>
    </trkpt>    <trkpt lat="52.407991" lon="4.578261">
        <ele>0</ele>
        <time>2026-08-26T21:40:59+02:00</time>
    </trkpt>    <trkpt lat="52.4079" lon="4.578084">
        <ele>0</ele>
        <time>2026-08-26T21:41:12+02:00</time>
    </trkpt>    <trkpt lat="52.407793" lon="4.5778">
        <ele>0</ele>
        <time>2026-08-26T21:41:30+02:00</time>
    </trkpt>    <trkpt lat="52.407793" lon="4.577712">
        <ele>0</ele>
        <time>2026-08-26T21:41:35+02:00</time>
    </trkpt>    <trkpt lat="52.407685" lon="4.577821">
        <ele>0</ele>
        <time>2026-08-26T21:41:46+02:00</time>
    </trkpt>    <trkpt lat="52.407559" lon="4.577734">
        <ele>0</ele>
        <time>2026-08-26T21:41:58+02:00</time>
    </trkpt>    <trkpt lat="52.407421" lon="4.577683">
        <ele>0</ele>
        <time>2026-08-26T21:42:11+02:00</time>
    </trkpt>    <trkpt lat="52.407409" lon="4.578152">
        <ele>0</ele>
        <time>2026-08-26T21:42:36+02:00</time>
    </trkpt>    <trkpt lat="52.407344" lon="4.578831">
        <ele>0</ele>
        <time>2026-08-26T21:43:13+02:00</time>
    </trkpt>    <trkpt lat="52.407038" lon="4.579509">
        <ele>0</ele>
        <time>2026-08-26T21:43:59+02:00</time>
    </trkpt>    <trkpt lat="52.406643" lon="4.58019">
        <ele>0</ele>
        <time>2026-08-26T21:44:50+02:00</time>
    </trkpt>    <trkpt lat="52.406338" lon="4.580786">
        <ele>0</ele>
        <time>2026-08-26T21:45:32+02:00</time>
    </trkpt>    <trkpt lat="52.40632" lon="4.581226">
        <ele>0</ele>
        <time>2026-08-26T21:45:56+02:00</time>
    </trkpt>    <trkpt lat="52.406374" lon="4.581511">
        <ele>0</ele>
        <time>2026-08-26T21:46:12+02:00</time>
    </trkpt>    <trkpt lat="52.406554" lon="4.581906">
        <ele>0</ele>
        <time>2026-08-26T21:46:39+02:00</time>
    </trkpt>    <trkpt lat="52.406716" lon="4.582302">
        <ele>0</ele>
        <time>2026-08-26T21:47:05+02:00</time>
    </trkpt>    <trkpt lat="52.406716" lon="4.583354">
        <ele>0</ele>
        <time>2026-08-26T21:48:02+02:00</time>
    </trkpt>    <trkpt lat="52.406697" lon="4.583398">
        <ele>0</ele>
        <time>2026-08-26T21:48:05+02:00</time>
    </trkpt>    <trkpt lat="52.406589" lon="4.584363">
        <ele>0</ele>
        <time>2026-08-26T21:48:58+02:00</time>
    </trkpt>    <trkpt lat="52.406482" lon="4.585042">
        <ele>0</ele>
        <time>2026-08-26T21:49:36+02:00</time>
    </trkpt>    <trkpt lat="52.406464" lon="4.585723">
        <ele>0</ele>
        <time>2026-08-26T21:50:13+02:00</time>
    </trkpt>    <trkpt lat="52.406267" lon="4.586469">
        <ele>0</ele>
        <time>2026-08-26T21:50:57+02:00</time>
    </trkpt>    <trkpt lat="52.405889" lon="4.586994">
        <ele>0</ele>
        <time>2026-08-26T21:51:41+02:00</time>
    </trkpt>    <trkpt lat="52.405512" lon="4.587192">
        <ele>0</ele>
        <time>2026-08-26T21:52:16+02:00</time>
    </trkpt>    <trkpt lat="52.404955" lon="4.587455">
        <ele>0</ele>
        <time>2026-08-26T21:53:08+02:00</time>
    </trkpt>    <trkpt lat="52.404613" lon="4.587806">
        <ele>0</ele>
        <time>2026-08-26T21:53:44+02:00</time>
    </trkpt>    <trkpt lat="52.404469" lon="4.588091">
        <ele>0</ele>
        <time>2026-08-26T21:54:04+02:00</time>
    </trkpt>    <trkpt lat="52.404398" lon="4.588398">
        <ele>0</ele>
        <time>2026-08-26T21:54:22+02:00</time>
    </trkpt>    <trkpt lat="52.404272" lon="4.588837">
        <ele>0</ele>
        <time>2026-08-26T21:54:48+02:00</time>
    </trkpt>    <trkpt lat="52.404272" lon="4.588859">
        <ele>0</ele>
        <time>2026-08-26T21:54:49+02:00</time>
    </trkpt>    <trkpt lat="52.404218" lon="4.58932">
        <ele>0</ele>
        <time>2026-08-26T21:55:14+02:00</time>
    </trkpt>    <trkpt lat="52.404236" lon="4.589693">
        <ele>0</ele>
        <time>2026-08-26T21:55:34+02:00</time>
    </trkpt>    <trkpt lat="52.40429" lon="4.590131">
        <ele>0</ele>
        <time>2026-08-26T21:55:58+02:00</time>
    </trkpt>    <trkpt lat="52.4042" lon="4.590394">
        <ele>0</ele>
        <time>2026-08-26T21:56:14+02:00</time>
    </trkpt>    <trkpt lat="52.403967" lon="4.590789">
        <ele>0</ele>
        <time>2026-08-26T21:56:44+02:00</time>
    </trkpt>    <trkpt lat="52.403833" lon="4.591206">
        <ele>0</ele>
        <time>2026-08-26T21:57:10+02:00</time>
    </trkpt>    <trkpt lat="52.40323" lon="4.592763">
        <ele>0</ele>
        <time>2026-08-26T21:58:50+02:00</time>
    </trkpt>    <trkpt lat="52.402583" lon="4.593092">
        <ele>0</ele>
        <time>2026-08-26T21:59:50+02:00</time>
    </trkpt>    <trkpt lat="52.40248" lon="4.593229">
        <ele>0</ele>
        <time>2026-08-26T22:00:02+02:00</time>
    </trkpt>    <trkpt lat="52.402409" lon="4.593486">
        <ele>0</ele>
        <time>2026-08-26T22:00:17+02:00</time>
    </trkpt>    <trkpt lat="52.402282" lon="4.593706">
        <ele>0</ele>
        <time>2026-08-26T22:00:33+02:00</time>
    </trkpt>    <trkpt lat="52.402256" lon="4.593735">
        <ele>0</ele>
        <time>2026-08-26T22:00:36+02:00</time>
    </trkpt>    <trkpt lat="52.402148" lon="4.593853">
        <ele>0</ele>
        <time>2026-08-26T22:00:48+02:00</time>
    </trkpt>    <trkpt lat="52.402112" lon="4.593853">
        <ele>0</ele>
        <time>2026-08-26T22:00:51+02:00</time>
    </trkpt>    <trkpt lat="52.402013" lon="4.593838">
        <ele>0</ele>
        <time>2026-08-26T22:01:00+02:00</time>
    </trkpt>    <trkpt lat="52.401986" lon="4.593839">
        <ele>0</ele>
        <time>2026-08-26T22:01:02+02:00</time>
    </trkpt>    <trkpt lat="52.401833" lon="4.59378">
        <ele>0</ele>
        <time>2026-08-26T22:01:16+02:00</time>
    </trkpt>    <trkpt lat="52.401824" lon="4.59378">
        <ele>0</ele>
        <time>2026-08-26T22:01:17+02:00</time>
    </trkpt>    <trkpt lat="52.401663" lon="4.593794">
        <ele>0</ele>
        <time>2026-08-26T22:01:31+02:00</time>
    </trkpt>    <trkpt lat="52.401636" lon="4.593808">
        <ele>0</ele>
        <time>2026-08-26T22:01:34+02:00</time>
    </trkpt>    <trkpt lat="52.401348" lon="4.593926">
        <ele>0</ele>
        <time>2026-08-26T22:02:00+02:00</time>
    </trkpt>    <trkpt lat="52.401115" lon="4.594">
        <ele>0</ele>
        <time>2026-08-26T22:02:21+02:00</time>
    </trkpt>    <trkpt lat="52.401106" lon="4.594">
        <ele>0</ele>
        <time>2026-08-26T22:02:22+02:00</time>
    </trkpt>    <trkpt lat="52.4008" lon="4.593955">
        <ele>0</ele>
        <time>2026-08-26T22:02:49+02:00</time>
    </trkpt>    <trkpt lat="52.400782" lon="4.593956">
        <ele>0</ele>
        <time>2026-08-26T22:02:51+02:00</time>
    </trkpt>    <trkpt lat="52.400477" lon="4.594073">
        <ele>0</ele>
        <time>2026-08-26T22:03:19+02:00</time>
    </trkpt>    <trkpt lat="52.400252" lon="4.59441">
        <ele>0</ele>
        <time>2026-08-26T22:03:46+02:00</time>
    </trkpt>    <trkpt lat="52.400243" lon="4.59441">
        <ele>0</ele>
        <time>2026-08-26T22:03:47+02:00</time>
    </trkpt>    <trkpt lat="52.399929" lon="4.594542">
        <ele>0</ele>
        <time>2026-08-26T22:04:16+02:00</time>
    </trkpt>    <trkpt lat="52.399624" lon="4.594676">
        <ele>0</ele>
        <time>2026-08-26T22:04:44+02:00</time>
    </trkpt>    <trkpt lat="52.399471" lon="4.594881">
        <ele>0</ele>
        <time>2026-08-26T22:05:02+02:00</time>
    </trkpt>    <trkpt lat="52.399435" lon="4.594895">
        <ele>0</ele>
        <time>2026-08-26T22:05:05+02:00</time>
    </trkpt>    <trkpt lat="52.399345" lon="4.594807">
        <ele>0</ele>
        <time>2026-08-26T22:05:14+02:00</time>
    </trkpt>    <trkpt lat="52.399318" lon="4.594793">
        <ele>0</ele>
        <time>2026-08-26T22:05:17+02:00</time>
    </trkpt>    <trkpt lat="52.399039" lon="4.594602">
        <ele>0</ele>
        <time>2026-08-26T22:05:44+02:00</time>
    </trkpt>    <trkpt lat="52.398653" lon="4.594558">
        <ele>0</ele>
        <time>2026-08-26T22:06:18+02:00</time>
    </trkpt>    <trkpt lat="52.398644" lon="4.594558">
        <ele>0</ele>
        <time>2026-08-26T22:06:19+02:00</time>
    </trkpt>    <trkpt lat="52.39833" lon="4.594602">
        <ele>0</ele>
        <time>2026-08-26T22:06:47+02:00</time>
    </trkpt>    <trkpt lat="52.398007" lon="4.594602">
        <ele>0</ele>
        <time>2026-08-26T22:07:16+02:00</time>
    </trkpt>    <trkpt lat="52.397998" lon="4.594587">
        <ele>0</ele>
        <time>2026-08-26T22:07:17+02:00</time>
    </trkpt>    <trkpt lat="52.397782" lon="4.594498">
        <ele>0</ele>
        <time>2026-08-26T22:07:37+02:00</time>
    </trkpt>    <trkpt lat="52.397746" lon="4.594499">
        <ele>0</ele>
        <time>2026-08-26T22:07:40+02:00</time>
    </trkpt>    <trkpt lat="52.397521" lon="4.594322">
        <ele>0</ele>
        <time>2026-08-26T22:08:02+02:00</time>
    </trkpt>    <trkpt lat="52.397513" lon="4.594308">
        <ele>0</ele>
        <time>2026-08-26T22:08:03+02:00</time>
    </trkpt>    <trkpt lat="52.397477" lon="4.59425">
        <ele>0</ele>
        <time>2026-08-26T22:08:07+02:00</time>
    </trkpt>    <trkpt lat="52.397369" lon="4.593896">
        <ele>0</ele>
        <time>2026-08-26T22:08:28+02:00</time>
    </trkpt>    <trkpt lat="52.397279" lon="4.593558">
        <ele>0</ele>
        <time>2026-08-26T22:08:48+02:00</time>
    </trkpt>    <trkpt lat="52.397286" lon="4.593449">
        <ele>0</ele>
        <time>2026-08-26T22:08:54+02:00</time>
    </trkpt>    <trkpt lat="52.39733" lon="4.593259">
        <ele>0</ele>
        <time>2026-08-26T22:09:05+02:00</time>
    </trkpt>    <trkpt lat="52.39732" lon="4.593198">
        <ele>0</ele>
        <time>2026-08-26T22:09:08+02:00</time>
    </trkpt>    <trkpt lat="52.39731" lon="4.593114">
        <ele>0</ele>
        <time>2026-08-26T22:09:13+02:00</time>
    </trkpt>    <trkpt lat="52.397293" lon="4.593014">
        <ele>0</ele>
        <time>2026-08-26T22:09:19+02:00</time>
    </trkpt>    <trkpt lat="52.397269" lon="4.592906">
        <ele>0</ele>
        <time>2026-08-26T22:09:25+02:00</time>
    </trkpt>    <trkpt lat="52.397253" lon="4.592814">
        <ele>0</ele>
        <time>2026-08-26T22:09:30+02:00</time>
    </trkpt>    <trkpt lat="52.397228" lon="4.592722">
        <ele>0</ele>
        <time>2026-08-26T22:09:35+02:00</time>
    </trkpt>    <trkpt lat="52.397197" lon="4.592628">
        <ele>0</ele>
        <time>2026-08-26T22:09:41+02:00</time>
    </trkpt>    <trkpt lat="52.397173" lon="4.59253">
        <ele>0</ele>
        <time>2026-08-26T22:09:47+02:00</time>
    </trkpt>    <trkpt lat="52.397132" lon="4.592444">
        <ele>0</ele>
        <time>2026-08-26T22:09:53+02:00</time>
    </trkpt>    <trkpt lat="52.397124" lon="4.592436">
        <ele>0</ele>
        <time>2026-08-26T22:09:54+02:00</time>
    </trkpt>    <trkpt lat="52.397355" lon="4.592195">
        <ele>0</ele>
        <time>2026-08-26T22:10:18+02:00</time>
    </trkpt>    <trkpt lat="52.39743" lon="4.592042">
        <ele>0</ele>
        <time>2026-08-26T22:10:29+02:00</time>
    </trkpt>    <trkpt lat="52.39749" lon="4.591877">
        <ele>0</ele>
        <time>2026-08-26T22:10:39+02:00</time>
    </trkpt>    <trkpt lat="52.39775" lon="4.591205">
        <ele>0</ele>
        <time>2026-08-26T22:11:22+02:00</time>
    </trkpt>    <trkpt lat="52.398002" lon="4.590723">
        <ele>0</ele>
        <time>2026-08-26T22:11:56+02:00</time>
    </trkpt>    <trkpt lat="52.398289" lon="4.590635">
        <ele>0</ele>
        <time>2026-08-26T22:12:22+02:00</time>
    </trkpt>    <trkpt lat="52.398433" lon="4.590656">
        <ele>0</ele>
        <time>2026-08-26T22:12:35+02:00</time>
    </trkpt>    <trkpt lat="52.398613" lon="4.590788">
        <ele>0</ele>
        <time>2026-08-26T22:12:53+02:00</time>
    </trkpt>    <trkpt lat="52.3989" lon="4.590548">
        <ele>0</ele>
        <time>2026-08-26T22:13:22+02:00</time>
    </trkpt>    <trkpt lat="52.399439" lon="4.590702">
        <ele>0</ele>
        <time>2026-08-26T22:14:11+02:00</time>
    </trkpt>    <trkpt lat="52.399457" lon="4.590701">
        <ele>0</ele>
        <time>2026-08-26T22:14:13+02:00</time>
    </trkpt>    <trkpt lat="52.399906" lon="4.590745">
        <ele>0</ele>
        <time>2026-08-26T22:14:53+02:00</time>
    </trkpt>    <trkpt lat="52.400283" lon="4.590591">
        <ele>0</ele>
        <time>2026-08-26T22:15:28+02:00</time>
    </trkpt>    <trkpt lat="52.400481" lon="4.590285">
        <ele>0</ele>
        <time>2026-08-26T22:15:52+02:00</time>
    </trkpt>    <trkpt lat="52.400948" lon="4.589713">
        <ele>0</ele>
        <time>2026-08-26T22:16:44+02:00</time>
    </trkpt>    <trkpt lat="52.401325" lon="4.588771">
        <ele>0</ele>
        <time>2026-08-26T22:17:45+02:00</time>
    </trkpt>    <trkpt lat="52.401416" lon="4.587652">
        <ele>0</ele>
        <time>2026-08-26T22:18:46+02:00</time>
    </trkpt>    <trkpt lat="52.4012" lon="4.586973">
        <ele>0</ele>
        <time>2026-08-26T22:19:28+02:00</time>
    </trkpt>    <trkpt lat="52.401074" lon="4.586731">
        <ele>0</ele>
        <time>2026-08-26T22:19:45+02:00</time>
    </trkpt>    <trkpt lat="52.401074" lon="4.586599">
        <ele>0</ele>
        <time>2026-08-26T22:19:52+02:00</time>
    </trkpt>    <trkpt lat="52.401218" lon="4.586402">
        <ele>0</ele>
        <time>2026-08-26T22:20:09+02:00</time>
    </trkpt>    <trkpt lat="52.40172" lon="4.586183">
        <ele>0</ele>
        <time>2026-08-26T22:20:55+02:00</time>
    </trkpt>    <trkpt lat="52.40208" lon="4.586008">
        <ele>0</ele>
        <time>2026-08-26T22:21:28+02:00</time>
    </trkpt>    <trkpt lat="52.402188" lon="4.585569">
        <ele>0</ele>
        <time>2026-08-26T22:21:54+02:00</time>
    </trkpt>    <trkpt lat="52.402296" lon="4.58524">
        <ele>0</ele>
        <time>2026-08-26T22:22:14+02:00</time>
    </trkpt>    <trkpt lat="52.402565" lon="4.584932">
        <ele>0</ele>
        <time>2026-08-26T22:22:43+02:00</time>
    </trkpt>    <trkpt lat="52.402727" lon="4.584757">
        <ele>0</ele>
        <time>2026-08-26T22:23:00+02:00</time>
    </trkpt>    <trkpt lat="52.402763" lon="4.58467">
        <ele>0</ele>
        <time>2026-08-26T22:23:06+02:00</time>
    </trkpt>    <trkpt lat="52.402961" lon="4.584866">
        <ele>0</ele>
        <time>2026-08-26T22:23:27+02:00</time>
    </trkpt>    <trkpt lat="52.40314" lon="4.58489">
        <ele>0</ele>
        <time>2026-08-26T22:23:43+02:00</time>
    </trkpt>    <trkpt lat="52.403319" lon="4.584845">
        <ele>0</ele>
        <time>2026-08-26T22:23:59+02:00</time>
    </trkpt>    <trkpt lat="52.403499" lon="4.584845">
        <ele>0</ele>
        <time>2026-08-26T22:24:15+02:00</time>
    </trkpt>    <trkpt lat="52.403482" lon="4.584165">
        <ele>0</ele>
        <time>2026-08-26T22:24:52+02:00</time>
    </trkpt>    <trkpt lat="52.4035" lon="4.583594">
        <ele>0</ele>
        <time>2026-08-26T22:25:23+02:00</time>
    </trkpt>    <trkpt lat="52.403499" lon="4.583309">
        <ele>0</ele>
        <time>2026-08-26T22:25:38+02:00</time>
    </trkpt>    <trkpt lat="52.403751" lon="4.582761">
        <ele>0</ele>
        <time>2026-08-26T22:26:15+02:00</time>
    </trkpt>    <trkpt lat="52.404003" lon="4.582674">
        <ele>0</ele>
        <time>2026-08-26T22:26:38+02:00</time>
    </trkpt>    <trkpt lat="52.404129" lon="4.582653">
        <ele>0</ele>
        <time>2026-08-26T22:26:49+02:00</time>
    </trkpt>    <trkpt lat="52.404524" lon="4.582433">
        <ele>0</ele>
        <time>2026-08-26T22:27:26+02:00</time>
    </trkpt>    <trkpt lat="52.404722" lon="4.58195">
        <ele>0</ele>
        <time>2026-08-26T22:27:58+02:00</time>
    </trkpt>    <trkpt lat="52.405243" lon="4.581644">
        <ele>0</ele>
        <time>2026-08-26T22:28:47+02:00</time>
    </trkpt>    <trkpt lat="52.405584" lon="4.581358">
        <ele>0</ele>
        <time>2026-08-26T22:29:21+02:00</time>
    </trkpt>    <trkpt lat="52.405458" lon="4.580809">
        <ele>0</ele>
        <time>2026-08-26T22:29:53+02:00</time>
    </trkpt>    <trkpt lat="52.405422" lon="4.580656">
        <ele>0</ele>
        <time>2026-08-26T22:30:02+02:00</time>
    </trkpt>    <trkpt lat="52.405461" lon="4.580295">
        <ele>0</ele>
        <time>2026-08-26T22:30:22+02:00</time>
    </trkpt>    <trkpt lat="52.405369" lon="4.579976">
        <ele>0</ele>
        <time>2026-08-26T22:30:41+02:00</time>
    </trkpt>    <trkpt lat="52.405369" lon="4.579823">
        <ele>0</ele>
        <time>2026-08-26T22:30:49+02:00</time>
    </trkpt>    <trkpt lat="52.405423" lon="4.579714">
        <ele>0</ele>
        <time>2026-08-26T22:30:57+02:00</time>
    </trkpt>    <trkpt lat="52.40562" lon="4.579406">
        <ele>0</ele>
        <time>2026-08-26T22:31:21+02:00</time>
    </trkpt>    <trkpt lat="52.405494" lon="4.579078">
        <ele>0</ele>
        <time>2026-08-26T22:31:42+02:00</time>
    </trkpt>    <trkpt lat="52.405387" lon="4.578814">
        <ele>0</ele>
        <time>2026-08-26T22:31:59+02:00</time>
    </trkpt>    <trkpt lat="52.405422" lon="4.578551">
        <ele>0</ele>
        <time>2026-08-26T22:32:14+02:00</time>
    </trkpt>    <trkpt lat="52.40553" lon="4.578222">
        <ele>0</ele>
        <time>2026-08-26T22:32:34+02:00</time>
    </trkpt>    <trkpt lat="52.405656" lon="4.577827">
        <ele>0</ele>
        <time>2026-08-26T22:32:58+02:00</time>
    </trkpt>    <trkpt lat="52.40553" lon="4.577433">
        <ele>0</ele>
        <time>2026-08-26T22:33:22+02:00</time>
    </trkpt>    <trkpt lat="52.405207" lon="4.57684">
        <ele>0</ele>
        <time>2026-08-26T22:34:05+02:00</time>
    </trkpt>    <trkpt lat="52.405135" lon="4.576467">
        <ele>0</ele>
        <time>2026-08-26T22:34:26+02:00</time>
    </trkpt>    <trkpt lat="52.405027" lon="4.576182">
        <ele>0</ele>
        <time>2026-08-26T22:34:44+02:00</time>
    </trkpt>    <trkpt lat="52.405009" lon="4.575853">
        <ele>0</ele>
        <time>2026-08-26T22:35:02+02:00</time>
    </trkpt>    <trkpt lat="52.405027" lon="4.575634">
        <ele>0</ele>
        <time>2026-08-26T22:35:14+02:00</time>
    </trkpt>    <trkpt lat="52.405225" lon="4.575304">
        <ele>0</ele>
        <time>2026-08-26T22:35:39+02:00</time>
    </trkpt>    <trkpt lat="52.405423" lon="4.575502">
        <ele>0</ele>
        <time>2026-08-26T22:36:00+02:00</time>
    </trkpt>    <trkpt lat="52.405548" lon="4.575415">
        <ele>0</ele>
        <time>2026-08-26T22:36:12+02:00</time>
    </trkpt>    <trkpt lat="52.405548" lon="4.575129">
        <ele>0</ele>
        <time>2026-08-26T22:36:28+02:00</time>
    </trkpt>    <trkpt lat="52.405656" lon="4.574844">
        <ele>0</ele>
        <time>2026-08-26T22:36:46+02:00</time>
    </trkpt>    <trkpt lat="52.4058" lon="4.574932">
        <ele>0</ele>
        <time>2026-08-26T22:37:00+02:00</time>
    </trkpt>    <trkpt lat="52.406051" lon="4.57491">
        <ele>0</ele>
        <time>2026-08-26T22:37:22+02:00</time>
    </trkpt>    <trkpt lat="52.406447" lon="4.57491">
        <ele>0</ele>
        <time>2026-08-26T22:37:57+02:00</time>
    </trkpt>    <trkpt lat="52.406644" lon="4.574669">
        <ele>0</ele>
        <time>2026-08-26T22:38:19+02:00</time>
    </trkpt>    <trkpt lat="52.406752" lon="4.574581">
        <ele>0</ele>
        <time>2026-08-26T22:38:30+02:00</time>
    </trkpt>    <trkpt lat="52.407093" lon="4.574537">
        <ele>0</ele>
        <time>2026-08-26T22:39:00+02:00</time>
    </trkpt>    <trkpt lat="52.407309" lon="4.574186">
        <ele>0</ele>
        <time>2026-08-26T22:39:27+02:00</time>
    </trkpt>    <trkpt lat="52.407488" lon="4.574077">
        <ele>0</ele>
        <time>2026-08-26T22:39:44+02:00</time>
    </trkpt>    <trkpt lat="52.407758" lon="4.574032">
        <ele>0</ele>
        <time>2026-08-26T22:40:08+02:00</time>
    </trkpt>    <trkpt lat="52.408782" lon="4.574406">
        <ele>0</ele>
        <time>2026-08-26T22:41:41+02:00</time>
    </trkpt>    <trkpt lat="52.408885" lon="4.574242">
        <ele>0</ele>
        <time>2026-08-26T22:41:54+02:00</time>
    </trkpt>    <trkpt lat="52.408939" lon="4.574055">
        <ele>0</ele>
        <time>2026-08-26T22:42:05+02:00</time>
    </trkpt>    <trkpt lat="52.408997" lon="4.573961">
        <ele>0</ele>
        <time>2026-08-26T22:42:12+02:00</time>
    </trkpt>    <trkpt lat="52.408997" lon="4.573589">
        <ele>0</ele>
        <time>2026-08-26T22:42:32+02:00</time>
    </trkpt>    <trkpt lat="52.408835" lon="4.573041">
        <ele>0</ele>
        <time>2026-08-26T22:43:05+02:00</time>
    </trkpt>    <trkpt lat="52.408745" lon="4.57258">
        <ele>0</ele>
        <time>2026-08-26T22:43:31+02:00</time>
    </trkpt>    <trkpt lat="52.408512" lon="4.572229">
        <ele>0</ele>
        <time>2026-08-26T22:43:59+02:00</time>
    </trkpt>    <trkpt lat="52.408206" lon="4.571746">
        <ele>0</ele>
        <time>2026-08-26T22:44:37+02:00</time>
    </trkpt>    <trkpt lat="52.40799" lon="4.571396">
        <ele>0</ele>
        <time>2026-08-26T22:45:04+02:00</time>
    </trkpt>    <trkpt lat="52.40799" lon="4.571023">
        <ele>0</ele>
        <time>2026-08-26T22:45:24+02:00</time>
    </trkpt>    <trkpt lat="52.407991" lon="4.570957">
        <ele>0</ele>
        <time>2026-08-26T22:45:28+02:00</time>
    </trkpt>    <trkpt lat="52.408062" lon="4.570453">
        <ele>0</ele>
        <time>2026-08-26T22:45:56+02:00</time>
    </trkpt>    <trkpt lat="52.408296" lon="4.569905">
        <ele>0</ele>
        <time>2026-08-26T22:46:32+02:00</time>
    </trkpt>    <trkpt lat="52.408422" lon="4.569554">
        <ele>0</ele>
        <time>2026-08-26T22:46:54+02:00</time>
    </trkpt>    <trkpt lat="52.408422" lon="4.568896">
        <ele>0</ele>
        <time>2026-08-26T22:47:30+02:00</time>
    </trkpt>    <trkpt lat="52.408476" lon="4.568523">
        <ele>0</ele>
        <time>2026-08-26T22:47:51+02:00</time>
    </trkpt>    <trkpt lat="52.408745" lon="4.568084">
        <ele>0</ele>
        <time>2026-08-26T22:48:25+02:00</time>
    </trkpt>    <trkpt lat="52.409033" lon="4.567601">
        <ele>0</ele>
        <time>2026-08-26T22:49:02+02:00</time>
    </trkpt>    <trkpt lat="52.409141" lon="4.567075">
        <ele>0</ele>
        <time>2026-08-26T22:49:32+02:00</time>
    </trkpt>    <trkpt lat="52.409231" lon="4.566307">
        <ele>0</ele>
        <time>2026-08-26T22:50:14+02:00</time>
    </trkpt>    <trkpt lat="52.40932" lon="4.56543">
        <ele>0</ele>
        <time>2026-08-26T22:51:02+02:00</time>
    </trkpt>    <trkpt lat="52.409446" lon="4.56486">
        <ele>0</ele>
        <time>2026-08-26T22:51:35+02:00</time>
    </trkpt>    <trkpt lat="52.409661" lon="4.564903">
        <ele>0</ele>
        <time>2026-08-26T22:51:54+02:00</time>
    </trkpt>    <trkpt lat="52.410311" lon="4.56536">
        <ele>0</ele>
        <time>2026-08-26T22:52:57+02:00</time>
    </trkpt>    <trkpt lat="52.41028" lon="4.565071">
        <ele>0</ele>
        <time>2026-08-26T22:53:13+02:00</time>
    </trkpt>    <trkpt lat="52.410261" lon="4.564739">
        <ele>0</ele>
        <time>2026-08-26T22:53:31+02:00</time>
    </trkpt>    <trkpt lat="52.41038" lon="4.564312">
        <ele>0</ele>
        <time>2026-08-26T22:53:56+02:00</time>
    </trkpt>    <trkpt lat="52.410632" lon="4.563587">
        <ele>0</ele>
        <time>2026-08-26T22:54:41+02:00</time>
    </trkpt>    <trkpt lat="52.410714" lon="4.563548">
        <ele>0</ele>
        <time>2026-08-26T22:54:49+02:00</time>
    </trkpt>    <trkpt lat="52.410937" lon="4.563039">
        <ele>0</ele>
        <time>2026-08-26T22:55:23+02:00</time>
    </trkpt>    <trkpt lat="52.41117" lon="4.56282">
        <ele>0</ele>
        <time>2026-08-26T22:55:47+02:00</time>
    </trkpt>    <trkpt lat="52.411619" lon="4.562536">
        <ele>0</ele>
        <time>2026-08-26T22:56:30+02:00</time>
    </trkpt>    <trkpt lat="52.411979" lon="4.562579">
        <ele>0</ele>
        <time>2026-08-26T22:57:02+02:00</time>
    </trkpt>    <trkpt lat="52.412248" lon="4.562733">
        <ele>0</ele>
        <time>2026-08-26T22:57:27+02:00</time>
    </trkpt>    <trkpt lat="52.412302" lon="4.562733">
        <ele>0</ele>
        <time>2026-08-26T22:57:32+02:00</time>
    </trkpt>    <trkpt lat="52.412464" lon="4.562754">
        <ele>0</ele>
        <time>2026-08-26T22:57:46+02:00</time>
    </trkpt>    <trkpt lat="52.412734" lon="4.562622">
        <ele>0</ele>
        <time>2026-08-26T22:58:11+02:00</time>
    </trkpt>    <trkpt lat="52.412752" lon="4.562624">
        <ele>0</ele>
        <time>2026-08-26T22:58:13+02:00</time>
    </trkpt>    <trkpt lat="52.413003" lon="4.562338">
        <ele>0</ele>
        <time>2026-08-26T22:58:40+02:00</time>
    </trkpt>    <trkpt lat="52.413183" lon="4.561964">
        <ele>0</ele>
        <time>2026-08-26T22:59:06+02:00</time>
    </trkpt>    <trkpt lat="52.4132" lon="4.561636">
        <ele>0</ele>
        <time>2026-08-26T22:59:24+02:00</time>
    </trkpt>    <trkpt lat="52.413201" lon="4.561241">
        <ele>0</ele>
        <time>2026-08-26T22:59:45+02:00</time>
    </trkpt>    <trkpt lat="52.41329" lon="4.560847">
        <ele>0</ele>
        <time>2026-08-26T23:00:08+02:00</time>
    </trkpt>    <trkpt lat="52.413327" lon="4.56037">
        <ele>0</ele>
        <time>2026-08-26T23:00:34+02:00</time>
    </trkpt>    <trkpt lat="52.413358" lon="4.559911">
        <ele>0</ele>
        <time>2026-08-26T23:00:59+02:00</time>
    </trkpt>    <trkpt lat="52.413413" lon="4.559388">
        <ele>0</ele>
        <time>2026-08-26T23:01:28+02:00</time>
    </trkpt>    <trkpt lat="52.413525" lon="4.559136">
        <ele>0</ele>
        <time>2026-08-26T23:01:45+02:00</time>
    </trkpt>    <trkpt lat="52.41359" lon="4.5591">
        <ele>0</ele>
        <time>2026-08-26T23:01:51+02:00</time>
    </trkpt>    <trkpt lat="52.413669" lon="4.559027">
        <ele>0</ele>
        <time>2026-08-26T23:01:59+02:00</time>
    </trkpt>    <trkpt lat="52.413945" lon="4.558778">
        <ele>0</ele>
        <time>2026-08-26T23:02:27+02:00</time>
    </trkpt>    <trkpt lat="52.414303" lon="4.558401">
        <ele>0</ele>
        <time>2026-08-26T23:03:05+02:00</time>
    </trkpt>    <trkpt lat="52.414391" lon="4.558339">
        <ele>0</ele>
        <time>2026-08-26T23:03:14+02:00</time>
    </trkpt>    <trkpt lat="52.414491" lon="4.558337">
        <ele>0</ele>
        <time>2026-08-26T23:03:23+02:00</time>
    </trkpt>    <trkpt lat="52.414595" lon="4.558375">
        <ele>0</ele>
        <time>2026-08-26T23:03:32+02:00</time>
    </trkpt>    <trkpt lat="52.414739" lon="4.558455">
        <ele>0</ele>
        <time>2026-08-26T23:03:46+02:00</time>
    </trkpt>    <trkpt lat="52.414933" lon="4.558584">
        <ele>0</ele>
        <time>2026-08-26T23:04:05+02:00</time>
    </trkpt>    <trkpt lat="52.415021" lon="4.558639">
        <ele>0</ele>
        <time>2026-08-26T23:04:13+02:00</time>
    </trkpt>    <trkpt lat="52.415105" lon="4.558657">
        <ele>0</ele>
        <time>2026-08-26T23:04:21+02:00</time>
    </trkpt>    <trkpt lat="52.415204" lon="4.558626">
        <ele>0</ele>
        <time>2026-08-26T23:04:30+02:00</time>
    </trkpt>    <trkpt lat="52.415272" lon="4.55861">
        <ele>0</ele>
        <time>2026-08-26T23:04:36+02:00</time>
    </trkpt>    <trkpt lat="52.415669" lon="4.558177">
        <ele>0</ele>
        <time>2026-08-26T23:05:18+02:00</time>
    </trkpt>    <trkpt lat="52.415914" lon="4.558192">
        <ele>0</ele>
        <time>2026-08-26T23:05:40+02:00</time>
    </trkpt>    <trkpt lat="52.416201" lon="4.55806">
        <ele>0</ele>
        <time>2026-08-26T23:06:07+02:00</time>
    </trkpt>    <trkpt lat="52.416327" lon="4.557709">
        <ele>0</ele>
        <time>2026-08-26T23:06:29+02:00</time>
    </trkpt>    <trkpt lat="52.416416" lon="4.557271">
        <ele>0</ele>
        <time>2026-08-26T23:06:54+02:00</time>
    </trkpt>    <trkpt lat="52.41656" lon="4.556241">
        <ele>0</ele>
        <time>2026-08-26T23:07:51+02:00</time>
    </trkpt>    <trkpt lat="52.416668" lon="4.555999">
        <ele>0</ele>
        <time>2026-08-26T23:08:07+02:00</time>
    </trkpt>    <trkpt lat="52.416884" lon="4.555494">
        <ele>0</ele>
        <time>2026-08-26T23:08:40+02:00</time>
    </trkpt>    <trkpt lat="52.416908" lon="4.555336">
        <ele>0</ele>
        <time>2026-08-26T23:08:49+02:00</time>
    </trkpt>    <trkpt lat="52.416925" lon="4.55523">
        <ele>0</ele>
        <time>2026-08-26T23:08:55+02:00</time>
    </trkpt>    <trkpt lat="52.416939" lon="4.555142">
        <ele>0</ele>
        <time>2026-08-26T23:09:00+02:00</time>
    </trkpt>    <trkpt lat="52.41701" lon="4.555013">
        <ele>0</ele>
        <time>2026-08-26T23:09:09+02:00</time>
    </trkpt>            </trkseg>
        </trk>
    </gpx>