<?xml version="1.0" encoding="UTF-8"?>
<gpx version="1.1" creator="GPSBabel - http://www.gpsbabel.org" xmlns="http://www.topografix.com/GPX/1/1" xmlns:xsi="http://www.w3.org/2001/XMLSchema-instance">
  <metadata>
    <time>2020-11-10T13:35:49.685Z</time>
    <bounds minlat="52.238780000" minlon="4.955020000" maxlat="52.262920000" maxlon="4.990800000"/>
  </metadata>
  <trk>
    <name>Wandelen bij de Vinkeveense Plassen en Baambrugge</name>
    <trkseg>
      <trkpt lat="52.251860000" lon="4.967060000">
        <time>2020-11-10T00:00:00Z</time>
      </trkpt>
      <trkpt lat="52.252068500" lon="4.967279400">
        <time>2020-11-10T00:00:12Z</time>
      </trkpt>
      <trkpt lat="52.251227800" lon="4.967730000">
        <time>2020-11-10T00:00:51Z</time>
      </trkpt>
      <trkpt lat="52.247825300" lon="4.969081900">
        <time>2020-11-10T00:03:27Z</time>
      </trkpt>
      <trkpt lat="52.239245800" lon="4.973716700">
        <time>2020-11-10T00:10:09Z</time>
      </trkpt>
      <trkpt lat="52.238780000" lon="4.973760000">
        <time>2020-11-10T00:10:29Z</time>
      </trkpt>
      <trkpt lat="52.238790000" lon="4.973770000">
        <time>2020-11-10T00:10:30Z</time>
      </trkpt>
      <trkpt lat="52.239560000" lon="4.976230000">
        <time>2020-11-10T00:11:45Z</time>
      </trkpt>
      <trkpt lat="52.245610000" lon="4.990800000">
        <time>2020-11-10T00:19:45Z</time>
      </trkpt>
      <trkpt lat="52.246210000" lon="4.990160000">
        <time>2020-11-10T00:20:16Z</time>
      </trkpt>
      <trkpt lat="52.246440000" lon="4.989980000">
        <time>2020-11-10T00:20:28Z</time>
      </trkpt>
      <trkpt lat="52.246400000" lon="4.989890000">
        <time>2020-11-10T00:20:31Z</time>
      </trkpt>
      <trkpt lat="52.246400000" lon="4.989770000">
        <time>2020-11-10T00:20:34Z</time>
      </trkpt>
      <trkpt lat="52.246470000" lon="4.989540000">
        <time>2020-11-10T00:20:41Z</time>
      </trkpt>
      <trkpt lat="52.246710000" lon="4.989060000">
        <time>2020-11-10T00:20:58Z</time>
      </trkpt>
      <trkpt lat="52.247040000" lon="4.988180000">
        <time>2020-11-10T00:21:26Z</time>
      </trkpt>
      <trkpt lat="52.247310000" lon="4.987710000">
        <time>2020-11-10T00:21:44Z</time>
      </trkpt>
      <trkpt lat="52.247880000" lon="4.987010000">
        <time>2020-11-10T00:22:15Z</time>
      </trkpt>
      <trkpt lat="52.247980000" lon="4.986930000">
        <time>2020-11-10T00:22:20Z</time>
      </trkpt>
      <trkpt lat="52.248110000" lon="4.986910000">
        <time>2020-11-10T00:22:26Z</time>
      </trkpt>
      <trkpt lat="52.248270000" lon="4.986930000">
        <time>2020-11-10T00:22:33Z</time>
      </trkpt>
      <trkpt lat="52.248480000" lon="4.987090000">
        <time>2020-11-10T00:22:43Z</time>
      </trkpt>
      <trkpt lat="52.248610000" lon="4.987150000">
        <time>2020-11-10T00:22:50Z</time>
      </trkpt>
      <trkpt lat="52.249010000" lon="4.987020000">
        <time>2020-11-10T00:23:08Z</time>
      </trkpt>
      <trkpt lat="52.249340000" lon="4.986950000">
        <time>2020-11-10T00:23:22Z</time>
      </trkpt>
      <trkpt lat="52.249470000" lon="4.986900000">
        <time>2020-11-10T00:23:28Z</time>
      </trkpt>
      <trkpt lat="52.250170000" lon="4.986300000">
        <time>2020-11-10T00:24:04Z</time>
      </trkpt>
      <trkpt lat="52.250920000" lon="4.985800000">
        <time>2020-11-10T00:24:40Z</time>
      </trkpt>
      <trkpt lat="52.251240000" lon="4.985540000">
        <time>2020-11-10T00:24:55Z</time>
      </trkpt>
      <trkpt lat="52.252290000" lon="4.984450000">
        <time>2020-11-10T00:25:51Z</time>
      </trkpt>
      <trkpt lat="52.252600000" lon="4.984210000">
        <time>2020-11-10T00:26:06Z</time>
      </trkpt>
      <trkpt lat="52.252660000" lon="4.984130000">
        <time>2020-11-10T00:26:10Z</time>
      </trkpt>
      <trkpt lat="52.252750000" lon="4.983790000">
        <time>2020-11-10T00:26:20Z</time>
      </trkpt>
      <trkpt lat="52.252770000" lon="4.983290000">
        <time>2020-11-10T00:26:33Z</time>
      </trkpt>
      <trkpt lat="52.252540000" lon="4.980300000">
        <time>2020-11-10T00:27:55Z</time>
      </trkpt>
      <trkpt lat="52.252540000" lon="4.979910000">
        <time>2020-11-10T00:28:06Z</time>
      </trkpt>
      <trkpt lat="52.252620000" lon="4.979120000">
        <time>2020-11-10T00:28:28Z</time>
      </trkpt>
      <trkpt lat="52.252670000" lon="4.979010000">
        <time>2020-11-10T00:28:31Z</time>
      </trkpt>
      <trkpt lat="52.252860000" lon="4.978720000">
        <time>2020-11-10T00:28:43Z</time>
      </trkpt>
      <trkpt lat="52.253030000" lon="4.978570000">
        <time>2020-11-10T00:28:52Z</time>
      </trkpt>
      <trkpt lat="52.253470000" lon="4.978370000">
        <time>2020-11-10T00:29:12Z</time>
      </trkpt>
      <trkpt lat="52.253800000" lon="4.978440000">
        <time>2020-11-10T00:29:27Z</time>
      </trkpt>
      <trkpt lat="52.254030000" lon="4.978570000">
        <time>2020-11-10T00:29:38Z</time>
      </trkpt>
      <trkpt lat="52.254230000" lon="4.978780000">
        <time>2020-11-10T00:29:48Z</time>
      </trkpt>
      <trkpt lat="52.254420000" lon="4.979080000">
        <time>2020-11-10T00:30:00Z</time>
      </trkpt>
      <trkpt lat="52.254800000" lon="4.979840000">
        <time>2020-11-10T00:30:27Z</time>
      </trkpt>
      <trkpt lat="52.255650000" lon="4.980610000">
        <time>2020-11-10T00:31:10Z</time>
      </trkpt>
      <trkpt lat="52.256070000" lon="4.980690000">
        <time>2020-11-10T00:31:29Z</time>
      </trkpt>
      <trkpt lat="52.256590000" lon="4.981000000">
        <time>2020-11-10T00:31:53Z</time>
      </trkpt>
      <trkpt lat="52.256720000" lon="4.981040000">
        <time>2020-11-10T00:31:59Z</time>
      </trkpt>
      <trkpt lat="52.256930000" lon="4.981020000">
        <time>2020-11-10T00:32:08Z</time>
      </trkpt>
      <trkpt lat="52.257090000" lon="4.980950000">
        <time>2020-11-10T00:32:16Z</time>
      </trkpt>
      <trkpt lat="52.258030000" lon="4.980010000">
        <time>2020-11-10T00:33:05Z</time>
      </trkpt>
      <trkpt lat="52.259190000" lon="4.978370000">
        <time>2020-11-10T00:34:13Z</time>
      </trkpt>
      <trkpt lat="52.259590000" lon="4.977890000">
        <time>2020-11-10T00:34:35Z</time>
      </trkpt>
      <trkpt lat="52.259650000" lon="4.977670000">
        <time>2020-11-10T00:34:42Z</time>
      </trkpt>
      <trkpt lat="52.259790000" lon="4.975880000">
        <time>2020-11-10T00:35:31Z</time>
      </trkpt>
      <trkpt lat="52.259900000" lon="4.975350000">
        <time>2020-11-10T00:35:46Z</time>
      </trkpt>
      <trkpt lat="52.260050000" lon="4.974850000">
        <time>2020-11-10T00:36:01Z</time>
      </trkpt>
      <trkpt lat="52.260210000" lon="4.974540000">
        <time>2020-11-10T00:36:12Z</time>
      </trkpt>
      <trkpt lat="52.260330000" lon="4.974380000">
        <time>2020-11-10T00:36:19Z</time>
      </trkpt>
      <trkpt lat="52.260900000" lon="4.974000000">
        <time>2020-11-10T00:36:47Z</time>
      </trkpt>
      <trkpt lat="52.261390000" lon="4.973790000">
        <time>2020-11-10T00:37:09Z</time>
      </trkpt>
      <trkpt lat="52.261810000" lon="4.973670000">
        <time>2020-11-10T00:37:28Z</time>
      </trkpt>
      <trkpt lat="52.261980000" lon="4.973580000">
        <time>2020-11-10T00:37:36Z</time>
      </trkpt>
      <trkpt lat="52.262130000" lon="4.973460000">
        <time>2020-11-10T00:37:43Z</time>
      </trkpt>
      <trkpt lat="52.262510000" lon="4.973010000">
        <time>2020-11-10T00:38:04Z</time>
      </trkpt>
      <trkpt lat="52.262840000" lon="4.972450000">
        <time>2020-11-10T00:38:25Z</time>
      </trkpt>
      <trkpt lat="52.262920000" lon="4.972360000">
        <time>2020-11-10T00:38:30Z</time>
      </trkpt>
      <trkpt lat="52.262860000" lon="4.972270000">
        <time>2020-11-10T00:38:33Z</time>
      </trkpt>
      <trkpt lat="52.262680000" lon="4.971330000">
        <time>2020-11-10T00:39:00Z</time>
      </trkpt>
      <trkpt lat="52.262620000" lon="4.971140000">
        <time>2020-11-10T00:39:06Z</time>
      </trkpt>
      <trkpt lat="52.262410000" lon="4.970680000">
        <time>2020-11-10T00:39:22Z</time>
      </trkpt>
      <trkpt lat="52.262100000" lon="4.970160000">
        <time>2020-11-10T00:39:41Z</time>
      </trkpt>
      <trkpt lat="52.261380000" lon="4.969430000">
        <time>2020-11-10T00:40:19Z</time>
      </trkpt>
      <trkpt lat="52.261160000" lon="4.969140000">
        <time>2020-11-10T00:40:32Z</time>
      </trkpt>
      <trkpt lat="52.260670000" lon="4.968300000">
        <time>2020-11-10T00:41:03Z</time>
      </trkpt>
      <trkpt lat="52.260690000" lon="4.967930000">
        <time>2020-11-10T00:41:13Z</time>
      </trkpt>
      <trkpt lat="52.260990000" lon="4.966610000">
        <time>2020-11-10T00:41:52Z</time>
      </trkpt>
      <trkpt lat="52.261070000" lon="4.963590000">
        <time>2020-11-10T00:43:14Z</time>
      </trkpt>
      <trkpt lat="52.261030000" lon="4.963420000">
        <time>2020-11-10T00:43:19Z</time>
      </trkpt>
      <trkpt lat="52.260910000" lon="4.963180000">
        <time>2020-11-10T00:43:27Z</time>
      </trkpt>
      <trkpt lat="52.261010000" lon="4.962900000">
        <time>2020-11-10T00:43:36Z</time>
      </trkpt>
      <trkpt lat="52.260870000" lon="4.961500000">
        <time>2020-11-10T00:44:15Z</time>
      </trkpt>
      <trkpt lat="52.260760000" lon="4.961100000">
        <time>2020-11-10T00:44:27Z</time>
      </trkpt>
      <trkpt lat="52.260520000" lon="4.960610000">
        <time>2020-11-10T00:44:44Z</time>
      </trkpt>
      <trkpt lat="52.260270000" lon="4.960330000">
        <time>2020-11-10T00:44:57Z</time>
      </trkpt>
      <trkpt lat="52.259910000" lon="4.960070000">
        <time>2020-11-10T00:45:15Z</time>
      </trkpt>
      <trkpt lat="52.259800000" lon="4.960070000">
        <time>2020-11-10T00:45:20Z</time>
      </trkpt>
      <trkpt lat="52.259630000" lon="4.960140000">
        <time>2020-11-10T00:45:28Z</time>
      </trkpt>
      <trkpt lat="52.258680000" lon="4.960820000">
        <time>2020-11-10T00:46:14Z</time>
      </trkpt>
      <trkpt lat="52.258460000" lon="4.960930000">
        <time>2020-11-10T00:46:24Z</time>
      </trkpt>
      <trkpt lat="52.258070000" lon="4.960960000">
        <time>2020-11-10T00:46:41Z</time>
      </trkpt>
      <trkpt lat="52.257820000" lon="4.960840000">
        <time>2020-11-10T00:46:53Z</time>
      </trkpt>
      <trkpt lat="52.256260000" lon="4.959510000">
        <time>2020-11-10T00:48:11Z</time>
      </trkpt>
      <trkpt lat="52.255610000" lon="4.959240000">
        <time>2020-11-10T00:48:41Z</time>
      </trkpt>
      <trkpt lat="52.255500000" lon="4.959170000">
        <time>2020-11-10T00:48:46Z</time>
      </trkpt>
      <trkpt lat="52.254770000" lon="4.958540000">
        <time>2020-11-10T00:49:23Z</time>
      </trkpt>
      <trkpt lat="52.254570000" lon="4.958310000">
        <time>2020-11-10T00:49:34Z</time>
      </trkpt>
      <trkpt lat="52.254460000" lon="4.958100000">
        <time>2020-11-10T00:49:41Z</time>
      </trkpt>
      <trkpt lat="52.254370000" lon="4.957730000">
        <time>2020-11-10T00:49:52Z</time>
      </trkpt>
      <trkpt lat="52.254250000" lon="4.956190000">
        <time>2020-11-10T00:50:34Z</time>
      </trkpt>
      <trkpt lat="52.254290000" lon="4.955530000">
        <time>2020-11-10T00:50:53Z</time>
      </trkpt>
      <trkpt lat="52.254290000" lon="4.955570000">
        <time>2020-11-10T00:50:54Z</time>
      </trkpt>
      <trkpt lat="52.254230000" lon="4.955490000">
        <time>2020-11-10T00:50:57Z</time>
      </trkpt>
      <trkpt lat="52.254140000" lon="4.955150000">
        <time>2020-11-10T00:51:07Z</time>
      </trkpt>
      <trkpt lat="52.253930000" lon="4.955050000">
        <time>2020-11-10T00:51:17Z</time>
      </trkpt>
      <trkpt lat="52.253930000" lon="4.955020000">
        <time>2020-11-10T00:51:18Z</time>
      </trkpt>
      <trkpt lat="52.253940000" lon="4.955030000">
        <time>2020-11-10T00:51:18Z</time>
      </trkpt>
      <trkpt lat="52.253840000" lon="4.955990000">
        <time>2020-11-10T00:51:45Z</time>
      </trkpt>
      <trkpt lat="52.253790000" lon="4.956120000">
        <time>2020-11-10T00:51:49Z</time>
      </trkpt>
      <trkpt lat="52.253610000" lon="4.956270000">
        <time>2020-11-10T00:51:58Z</time>
      </trkpt>
      <trkpt lat="52.253570000" lon="4.956950000">
        <time>2020-11-10T00:52:17Z</time>
      </trkpt>
      <trkpt lat="52.253670000" lon="4.957620000">
        <time>2020-11-10T00:52:35Z</time>
      </trkpt>
      <trkpt lat="52.253970000" lon="4.958620000">
        <time>2020-11-10T00:53:06Z</time>
      </trkpt>
      <trkpt lat="52.254100000" lon="4.958910000">
        <time>2020-11-10T00:53:15Z</time>
      </trkpt>
      <trkpt lat="52.254180000" lon="4.959010000">
        <time>2020-11-10T00:53:20Z</time>
      </trkpt>
      <trkpt lat="52.254040000" lon="4.959910000">
        <time>2020-11-10T00:53:45Z</time>
      </trkpt>
      <trkpt lat="52.253970000" lon="4.960140000">
        <time>2020-11-10T00:53:52Z</time>
      </trkpt>
      <trkpt lat="52.253150000" lon="4.961100000">
        <time>2020-11-10T00:54:37Z</time>
      </trkpt>
      <trkpt lat="52.252970000" lon="4.961190000">
        <time>2020-11-10T00:54:45Z</time>
      </trkpt>
      <trkpt lat="52.252800000" lon="4.961120000">
        <time>2020-11-10T00:54:53Z</time>
      </trkpt>
      <trkpt lat="52.252670000" lon="4.961430000">
        <time>2020-11-10T00:55:03Z</time>
      </trkpt>
      <trkpt lat="52.252360000" lon="4.961430000">
        <time>2020-11-10T00:55:17Z</time>
      </trkpt>
      <trkpt lat="52.252120000" lon="4.961540000">
        <time>2020-11-10T00:55:28Z</time>
      </trkpt>
      <trkpt lat="52.251990000" lon="4.961560000">
        <time>2020-11-10T00:55:34Z</time>
      </trkpt>
      <trkpt lat="52.251500000" lon="4.961540000">
        <time>2020-11-10T00:55:56Z</time>
      </trkpt>
      <trkpt lat="52.251380000" lon="4.961570000">
        <time>2020-11-10T00:56:01Z</time>
      </trkpt>
      <trkpt lat="52.250570000" lon="4.962540000">
        <time>2020-11-10T00:56:46Z</time>
      </trkpt>
      <trkpt lat="52.250470000" lon="4.962630000">
        <time>2020-11-10T00:56:51Z</time>
      </trkpt>
      <trkpt lat="52.250320000" lon="4.962720000">
        <time>2020-11-10T00:56:58Z</time>
      </trkpt>
      <trkpt lat="52.249820000" lon="4.963190000">
        <time>2020-11-10T00:57:24Z</time>
      </trkpt>
      <trkpt lat="52.249750000" lon="4.963290000">
        <time>2020-11-10T00:57:28Z</time>
      </trkpt>
      <trkpt lat="52.249750000" lon="4.963310000">
        <time>2020-11-10T00:57:29Z</time>
      </trkpt>
      <trkpt lat="52.249730000" lon="4.963360000">
        <time>2020-11-10T00:57:30Z</time>
      </trkpt>
      <trkpt lat="52.249730000" lon="4.963400000">
        <time>2020-11-10T00:57:31Z</time>
      </trkpt>
      <trkpt lat="52.249900000" lon="4.963970000">
        <time>2020-11-10T00:57:48Z</time>
      </trkpt>
      <trkpt lat="52.249810000" lon="4.964150000">
        <time>2020-11-10T00:57:55Z</time>
      </trkpt>
      <trkpt lat="52.251910900" lon="4.967086300">
        <time>2020-11-10T00:59:58Z</time>
      </trkpt>
    </trkseg>
  </trk>
</gpx>
